{"type":"FeatureCollection","features":[{"type":"Feature","id":"vg250_krs.330","geometry":{"type":"MultiPolygon","coordinates":[[[[442479.8539,5868315.8934],[442470.2688,5868225.3014],[442459.3469,5868096.7156],[442439.1786,5867915.5928],[442362.4655,5867759.9949],[442284.4469,5867599.4672],[442233.6259,5867441.273],[442165.4829,5867327.2314],[442143.9042,5867253.4094],[442171.2534,5867160.5431],[442237.6263,5867099.3427],[442294.2913,5866945.5532],[442378.2772,5866796.0939],[442412.1076,5866710.8446],[442489.3041,5866483.6464],[442499.9283,5866330.6869],[442452.2551,5866142.2376],[442376.4171,5865984.5802],[442351.1351,5865801.7663],[442350.1957,5865672.5644],[442347.8593,5865569.5008],[442375.362,5865446.564],[442380.0596,5865360.1016],[442374.543,5865189.0965],[442390.1297,5865133.0262],[442406.899,5865079.8891],[442475.8362,5864946.3853],[442508.4231,5864857.2039],[442552.4497,5864677.1367],[442575.2225,5864542.4664],[442550.4336,5864432.7682],[442542.3538,5864334.0657],[442586.965,5864196.0469],[442605.1144,5864002.5418],[442629.5142,5863796.6274],[442677.5817,5863698.4766],[442751.6036,5863598.7281],[442815.8114,5863453.4906],[442860.1925,5863295.4452],[442881.2143,5863099.7585],[442911.8348,5862913.5011],[442926.0223,5862688.1739],[442957.2423,5862527.932],[442973.9945,5862295.4324],[442973.1168,5862102.0949],[442953.4112,5861961.0195],[442958.5542,5861800.3781],[442961.5633,5861719.0284],[442981.4958,5861554.4704],[443066.0523,5861267.6948],[443088.0898,5861186.1758],[443148.9977,5861101.2623],[443243.7082,5861028.2968],[443265.628,5860993.7655],[443232.6501,5860978.8757],[443108.7763,5860945.3786],[442752.7037,5860849.0922],[442542.6605,5860708.3978],[442411.7276,5860616.5642],[442302.2257,5860555.1905],[442241.7464,5860524.8189],[441462.7182,5860322.2609],[441257.2065,5861525.3324],[441223.5757,5861662.6773],[441175.8466,5861798.886],[441135.2269,5861871.5289],[440669.7946,5861831.0406],[440557.881,5861754.7612],[440172.187,5861787.747],[439850.3235,5861770.445],[439662.674,5861736.9269],[439162.1041,5861831.375],[438983.8654,5861261.7287],[438462.1029,5860710.5799],[438185.9454,5860531.3907],[438179.5302,5860685.5581],[438092.7788,5860783.6933],[437998.6701,5860805.3952],[438006.6388,5860934.8157],[438058.8972,5861008.4841],[438099.2954,5861234.0036],[438031.8461,5861344.2064],[438184.2692,5861451.4758],[438077.7952,5861623.8769],[437784.9236,5861594.6725],[437615.9797,5861403.0332],[437103.5092,5860371.994],[437052.1242,5860266.6532],[437129.8767,5860071.0467],[437033.5884,5859904.8645],[436758.2172,5860014.6792],[436681.6973,5859846.0363],[436677.1903,5859658.9301],[436767.6466,5859598.2472],[436767.074,5859068.1961],[436658.6289,5859015.7524],[436697.9674,5858775.8429],[436806.8173,5858118.805],[437133.4714,5858199.8999],[437175.1892,5858356.6584],[437308.297,5858378.2374],[437462.3044,5858403.2048],[437857.1348,5858563.4239],[438116.0121,5858582.482],[438159.4261,5858360.1906],[438501.5724,5858351.1504],[438466.7464,5858233.1906],[438503.6698,5858054.4646],[438633.138,5858095.5428],[438754.4521,5858129.1584],[438905.8373,5858162.9269],[439045.0737,5858178.4043],[439232.5493,5858179.8895],[439435.567,5858173.4037],[439591.1129,5858160.8219],[439869.3381,5858122.6513],[439844.4401,5857994.919],[439235.0644,5858025.4182],[439038.1346,5857658.7645],[439025.1918,5857098.0559],[439073.119,5856941.1408],[439053.798,5856920.2849],[439052.1387,5856893.3315],[439067.3422,5856847.3028],[439100.0846,5856793.18],[439103.9533,5856725.8037],[439084.2172,5856681.9259],[439056.3418,5856668.611],[439011.4193,5856671.3765],[438958.8793,5856680.6233],[438851.0652,5856687.2605],[438747.4754,5856684.3582],[438700.5827,5856697.8502],[438662.7521,5856729.3433],[438624.5962,5856755.554],[438574.5745,5856761.2848],[438528.3718,5856742.9188],[438453.1149,5856726.3415],[438372.2503,5856704.8069],[438308.6969,5856706.0682],[438262.292,5856727.4842],[438201.0151,5856765.7236],[438160.7058,5856800.0207],[438111.3345,5856816.3168],[438059.5239,5856792.9936],[438027.868,5856752.5217],[438026.9319,5856694.2509],[438031.4408,5856638.296],[438003.7221,5856596.1311],[437957.6467,5856563.8955],[437883.9267,5856538.3722],[437771.2737,5856515.2459],[437682.6558,5856475.6089],[437597.3549,5856424.745],[437529.7772,5856368.7816],[437423.1901,5856330.251],[437341.0386,5856314.2655],[437270.8515,5856313.5765],[437197.4088,5856325.1127],[437095.1558,5856389.5282],[436964.9678,5856504.765],[436895.8574,5856554.1131],[436927.8691,5856611.5728],[437065.0237,5856676.8065],[437004.1698,5856864.1028],[436926.1329,5856835.3],[436677.5562,5856639.9109],[436517.5849,5856562.373],[436449.2566,5856575.5987],[436418.1721,5856591.5416],[435912.8223,5856516.5608],[435249.4863,5856026.0829],[435052.6606,5856020.4708],[434894.5415,5855997.0344],[434799.603,5856056.9676],[434651.9444,5855932.4338],[434465.0667,5855859.6084],[434099.652,5855717.2084],[434047.094,5856008.3069],[434024.6321,5856132.7148],[434010.7337,5856209.6924],[434198.9912,5856451.6232],[433953.6385,5856698.2115],[433683.987,5856566.5114],[433771.0424,5856336.6858],[433578.4053,5856381.6178],[433312.4889,5856326.8474],[433022.3512,5856562.1664],[432628.5196,5856594.439],[432754.5565,5856720.9542],[432791.7278,5856803.8411],[432909.511,5856812.62],[433066.5916,5857036.4282],[433003.7499,5857122.4685],[432965.4138,5857085.7488],[432831.9589,5856952.6762],[432781.6578,5856900.6603],[432730.1649,5856870.3424],[432669.2212,5856845.3226],[432584.8366,5856812.5753],[432518.7328,5856780.5721],[432443.2899,5856727.0985],[432381.3927,5856665.776],[432324.4253,5856603.1478],[432281.0795,5856517.635],[432223.5588,5856446.0221],[432165.886,5856404.4809],[432066.4984,5856336.4488],[431975.3901,5856288.9503],[431878.7079,5856264.843],[431819.6388,5856249.4418],[431728.2555,5856230.0185],[431685.9475,5856166.9494],[431573.2125,5856099.1182],[431522.4532,5856006.7966],[431474.8615,5855879.8123],[431399.8422,5855781.0308],[431257.1628,5855659.9032],[431222.3757,5855611.6703],[431224.0791,5855553.2358],[431342.0487,5855617.5558],[431376.8818,5855601.3116],[431353.2663,5855429.406],[431202.8946,5855298.6133],[431180.3628,5855242.732],[431180.4088,5855191.8233],[431203.0323,5855145.8871],[431241.8943,5855105.314],[431269.8809,5855043.1392],[431278.8305,5855001.4556],[431287.1874,5854962.5327],[431282.3067,5854883.2927],[431256.0197,5854818.0977],[431226.9535,5854759.4371],[431191.1577,5854694.8276],[431180.0416,5854676.6323],[431159.3124,5854642.7014],[431152.6287,5854585.8438],[431148.1384,5854512.9429],[431156.9123,5854448.7697],[431175.3851,5854331.0545],[431177.0237,5854243.772],[431152.2761,5854151.1],[431128.5123,5854074.4008],[431106.5461,5854010.618],[431078.4056,5853944.2091],[431039.0849,5853891.5161],[431004.2022,5853829.5309],[430985.5343,5853743.3891],[430975.6809,5853686.7264],[430956.9044,5853640.1583],[430931.5935,5853590.8108],[430929.2507,5853552.7754],[430947.1431,5853481.6771],[430966.0116,5853426.4269],[430969.032,5853372.1529],[430943.9162,5853325.9751],[430894.4196,5853297.2073],[430836.5854,5853288.0428],[430757.9305,5853302.4324],[430689.1748,5853322.5756],[430635.6816,5853332.2337],[430579.2793,5853324.595],[430507.1842,5853292.9603],[430451.3119,5853274.1553],[430410.3394,5853237.9374],[430373.5211,5853208.3886],[430326.3672,5853217.6564],[430299.9783,5853247.5095],[430270.6346,5853294.2674],[430254.7406,5853346.1528],[430216.464,5853396.2353],[430183.623,5853400.4649],[430138.8089,5853398.416],[430112.452,5853412.187],[430070.0296,5853446.6167],[430037.7018,5853489.9694],[429980.4075,5853541.2234],[429934.8155,5853575.8483],[429871.0325,5853573.4139],[429816.9536,5853573.5634],[429741.4683,5853587.7581],[429686.3675,5853622.9689],[429606.6987,5853641.0388],[429540.8105,5853645.0975],[429572.0968,5853404.6718],[428634.1528,5853291.0918],[428768.2745,5852963.1603],[428641.0873,5852931.9134],[428503.8554,5852900.2833],[428550.3288,5852629.8598],[428457.9736,5852578.4293],[428502.9282,5852478.8405],[428629.0305,5852501.5367],[428756.972,5852125.1109],[428670.9836,5852106.5453],[428592.9192,5852087.4914],[428567.9318,5852155.3158],[428359.3388,5852083.3205],[428379.3687,5852021.1044],[428321.7453,5851912.4063],[428593.4636,5851768.4009],[428590.5311,5851548.5275],[428588.2019,5851373.8956],[428396.5274,5851346.9558],[428264.0623,5851252.5657],[428155.8868,5851061.8036],[428011.6136,5850871.8347],[427881.0732,5850646.5511],[427393.6703,5849958.3443],[426642.2192,5849960.5439],[426101.2778,5849752.3594],[426081.7192,5849434.8905],[423358.2701,5849244.9336],[423331.1309,5848674.3909],[423597.6873,5848657.9663],[423587.968,5848500.2288],[424218.4917,5848308.0532],[424202.5759,5848208.8608],[424109.9496,5848039.5705],[424085.0246,5847850.2],[423832.1956,5847576.7665],[423306.7089,5847611.796],[423297.7104,5847513.9775],[423300.8737,5847301.9317],[423260.2827,5847150.5043],[423242.8865,5846217.5838],[423168.3505,5846048.8059],[422717.3792,5845967.359],[421499.2058,5845681.6487],[420924.5002,5845462.5175],[420682.8476,5845248.9189],[420140.1109,5845010.8798],[419352.9492,5844672.2653],[419181.3248,5844597.9929],[418969.585,5844507.6811],[418897.0457,5844550.2336],[418780.64,5844596.4918],[418728.0819,5844621.7784],[418690.3763,5844644.1454],[418668.1999,5844674.5747],[418550.1527,5844742.9816],[418618.4982,5844860.0303],[418510.2485,5845071.1417],[418309.6582,5844996.4149],[418152.4051,5844939.8667],[417984.4352,5844799.8957],[417792.1814,5844818.7603],[417689.8732,5844778.948],[417185.5,5844582.6767],[417032.6573,5844540.1729],[416887.8407,5844510.8992],[416679.9564,5844490.7814],[416532.4153,5844476.5035],[416405.983,5844426.2821],[416180.2867,5844336.6311],[415858.0078,5844185.8967],[415266.9336,5843819.7041],[415129.6253,5843734.6367],[414731.7274,5843488.1252],[414349.1844,5843411.4902],[414406.0051,5843336.5487],[414702.3021,5842945.7595],[414952.834,5842782.9963],[415277.109,5842776.0356],[415401.8786,5842946.7313],[415487.3935,5842851.6825],[415280.2315,5842631.1125],[415664.4821,5842313.206],[416201.7612,5841453.2956],[416044.7971,5841305.6668],[415937.1131,5841204.3874],[415851.7553,5841124.1062],[415899.3212,5841028.1674],[415978.328,5840868.8137],[416062.1406,5840577.1778],[416192.7593,5840122.6767],[416980.8199,5837380.5942],[417080.8323,5837032.6044],[417124.7811,5836969.4709],[417225.66,5836813.2196],[417367.3266,5836380.2597],[417520.8401,5835911.0959],[418323.0661,5836276.5741],[418693.9942,5836520.6375],[419006.3033,5836739.1771],[419134.7524,5836876.9844],[419194.7841,5836940.4323],[419291.9318,5837297.2383],[419912.418,5837136.7426],[420617.1211,5837838.9504],[420674.4784,5837886.4954],[420768.6862,5837952.2848],[421164.6533,5838251.1879],[421190.9413,5838580.2867],[421801.5561,5838568.7256],[422258.9564,5838803.1174],[422347.1194,5838526.0973],[422136.2773,5838324.6204],[422206.7774,5838269.9651],[422640.707,5837933.5622],[422820.1725,5837794.4323],[422727.0407,5837705.0657],[422508.0877,5837494.9644],[422240.9889,5837207.322],[422443.5222,5837060.3918],[422400.4814,5837007.3593],[422367.8442,5836951.0345],[422347.9267,5836885.9712],[422326.2193,5836791.8504],[422313.7383,5836718.3742],[422308.5313,5836633.8434],[422324.1316,5836542.7277],[422330.9554,5836481.3203],[422327.3756,5836423.2054],[422309.1144,5836327.6549],[422284.7667,5836244.79],[422212.6418,5836251.9631],[422176.974,5836133.898],[422163.7772,5836048.7986],[422166.8204,5835969.0626],[422202.3281,5835770.6555],[422209.5156,5835672.1028],[422204.3087,5835587.5717],[422178.7344,5835387.6235],[422172.3594,5835316.1928],[422140.929,5835016.132],[421383.6819,5834323.1597],[421370.398,5834107.5042],[421449.5392,5833944.2827],[421595.4978,5833791.9783],[421900.4204,5833665.9617],[421847.9533,5833448.7106],[421514.7271,5833131.4955],[421038.9726,5832550.4608],[420957.3804,5832039.3527],[421052.6769,5831855.4845],[421049.7373,5831683.895],[420831.3662,5831522.9619],[420782.3713,5831329.5475],[420734.3748,5831136.0714],[420658.6486,5831171.9091],[420551.5877,5831222.5763],[420413.0143,5831288.1569],[420123.1335,5831544.5378],[419951.0797,5831501.0168],[419590.2264,5831369.9072],[419195.535,5831354.6055],[419004.6703,5831316.7812],[418668.7991,5831213.2065],[418289.5372,5831096.2517],[418171.0623,5831093.3988],[418013.7562,5831090.6028],[417556.9971,5831081.2474],[417374.5229,5831012.5089],[417173.1239,5830946.6656],[417027.4981,5830895.611],[416671.9666,5830770.9661],[416431.5088,5830722.2161],[416342.1258,5830704.0948],[416244.1236,5830675.0552],[415883.6811,5830566.9742],[415626.9517,5830450.4989],[415507.8592,5830420.7545],[415237.0473,5830352.2514],[414927.4991,5830126.7818],[414823.6314,5830092.3126],[414473.7887,5829976.2154],[414199.0187,5829885.0318],[413909.4732,5829903.8872],[413780.5037,5828714.5741],[413065.7193,5828798.3941],[413092.2575,5829035.4161],[413077.2165,5829243.1791],[412960.8971,5829244.7301],[412979.0279,5829187.3798],[412990.8085,5829120.3603],[413004.9054,5829047.8944],[412997.7057,5828974.0891],[412988.1899,5828905.7301],[412956.7264,5828825.4646],[412913.2087,5828763.59],[412854.4991,5828672.6589],[412816.7383,5828619.299],[412787.0654,5828568.0924],[412784.3882,5828510.9469],[412795.654,5828401.009],[412809.1207,5828343.0518],[412855.3937,5828231.9589],[412901.0234,5828142.9549],[412948.991,5828091.8918],[413035.5712,5827984.3287],[413070.8808,5827923.0211],[413088.8002,5827839.7334],[413087.9812,5827777.6452],[413086.3906,5827670.5038],[413094.3821,5827523.6846],[413095.328,5827441.4427],[413079.5324,5827380.2772],[413058.5316,5827348.4973],[413043.7677,5827320.3421],[413020.2164,5827279.6991],[412957.3988,5827187.3547],[412923.1247,5827135.3456],[412789.8168,5827228.075],[412704.9667,5827287.0971],[412386.6844,5827407.9355],[411955.7901,5827506.6488],[411796.2539,5827341.0873],[411842.745,5827266.061],[411858.3036,5827242.0507],[411869.6838,5827215.2911],[411875.8257,5827184.8453],[411874.7938,5827151.8349],[411860.1052,5827108.6413],[411832.6635,5827021.1327],[411846.0881,5827011.2852],[411860.5727,5827002.3748],[411873.9973,5826992.5273],[411883.3666,5826981.9276],[411887.559,5826968.6401],[411888.5715,5826952.5418],[411885.5287,5826935.6911],[411879.4905,5826919.0251],[411861.0402,5826896.1081],[411832.681,5826858.7681],[411781.8161,5826797.7588],[411722.3483,5826727.2571],[411638.3779,5826633.2092],[411625.7812,5826623.9629],[411610.4352,5826618.8951],[411594.2138,5826615.8857],[411579.237,5826616.8085],[411499.3606,5826621.7306],[411484.3838,5826622.6535],[411469.407,5826623.5764],[411454.2456,5826621.5039],[411440.712,5826613.3177],[411429.9276,5826600.953],[411421.1401,5826588.4653],[411415.2249,5826573.7961],[411411.2452,5826558.0054],[411397.4935,5826513.7517],[411393.4522,5826496.9626],[411390.5324,5826482.1088],[411388.611,5826467.1935],[411387.6881,5826452.2167],[411389.7412,5826387.9463],[411388.8183,5826372.9695],[411386.897,5826358.0542],[411381.9803,5826343.3235],[411373.1313,5826329.8373],[411362.3469,5826317.4726],[411350.6871,5826307.1664],[411337.2149,5826299.9786],[411322.7443,5826292.8523],[411307.3368,5826286.786],[411292.0523,5826282.7166],[411276.8909,5826280.6441],[411245.7542,5826279.5561],[411214.7405,5826280.4649],[411183.7884,5826282.3722],[411151.8993,5826285.3395],[411090.1796,5826292.1496],[411058.4135,5826297.1138],[411012.7921,5826304.9363],[410949.5062,5826318.8586],[410920.8586,5826325.6352],[410906.1278,5826330.552],[410863.1186,5826348.236],[410847.5125,5826355.2112],[410837.2203,5826350.8342],[410829.2466,5826335.2896],[410824.3299,5826320.5589],[410821.3485,5826304.7066],[410820.4256,5826289.7298],[410826.5059,5826258.2854],[410823.5861,5826243.4316],[410815.674,5826228.8854],[410805.8265,5826215.4607],[410794.2897,5826207.1514],[410779.9421,5826202.0221],[410748.3131,5826192.9464],[410733.9655,5826187.817],[410704.0873,5826174.6245],[410689.6782,5826168.4967],[410675.4537,5826165.3642],[410660.5384,5826167.2856],[410649.1721,5826178.0085],[410525.657,5826206.6672],[410269.2128,5826469.024],[409981.2376,5826610.0475],[409960.9824,5826151.2628],[410954.9635,5826000.8095],[410897.8552,5825301.7507],[410154.5495,5825291.4284],[410208.1674,5825201.9305],[410220.6077,5825176.1075],[410226.9341,5825148.6568],[410237.5177,5824962.5875],[410237.1766,5824924.5228],[410128.0245,5824956.8833],[410093.6772,5824812.6201],[409797.5939,5824913.6021],[409742.9732,5824841.7221],[409540.3781,5824974.0032],[409478.8314,5824440.0084],[409298.8908,5824384.9976],[409050.3983,5824613.7923],[409073.92,5824832.8397],[409097.445,5825263.363],[408952.3771,5825398.4646],[408930.4889,5825302.7176],[408695.7591,5825312.8101],[408675.8638,5825094.1061],[407885.6723,5825132.5809],[406936.4008,5824725.4898],[406161.9981,5824371.8595],[405790.9432,5823230.0917],[405795.7718,5822479.0906],[405596.9092,5822537.452],[405277.9547,5822631.2792],[404182.2746,5822953.3932],[404120.2933,5822972.248],[404079.9094,5822983.7578],[404098.9625,5823032.6972],[404126.7284,5823109.1634],[404150.808,5823190.8681],[404183.5867,5823316.1368],[404218.1914,5823422.2496],[404235.3773,5823538.4565],[404239.4121,5823636.4308],[404237.5791,5823736.7713],[404227.1428,5823827.6194],[404214.7369,5823886.5161],[404163.4108,5823996.9233],[404116.9847,5824087.577],[404078.1355,5824145.6608],[404052.1697,5824197.6466],[404034.618,5824257.0694],[404022.6394,5824363.882],[404019.7624,5824446.2668],[404008.6343,5824523.8565],[404001.8127,5824585.2696],[404000.2747,5824646.357],[403997.3979,5824728.7417],[403981.8005,5824819.8661],[403968.3564,5824902.9023],[403968.9717,5824955.9013],[403974.346,5825043.081],[403981.5478,5825116.8888],[403967.1266,5825184.0739],[403945.9202,5825270.2404],[403868.0486,5825481.4551],[403631.9024,5825504.0313],[403573.5199,5825695.0551],[403469.3373,5825809.723],[403133.1923,5825722.2015],[403073.7627,5825749.9199],[402927.6232,5825818.0637],[402887.0009,5825890.7271],[402695.7079,5826299.4201],[402575.8521,5826501.2501],[402423.0951,5826722.1473],[402251.0999,5826891.1105],[402151.8626,5826988.4357],[401573.042,5827419.0197],[401204.3755,5827568.0385],[400675.6055,5827770.0285],[400241.2864,5827927.1068],[399912.366,5828005.5226],[398943.8147,5827950.9954],[398745.895,5828439.8619],[398425.5821,5829231.0487],[398354.1112,5829407.5858],[398201.4813,5829402.9681],[398242.0151,5829588.8948],[398335.8873,5830022.0985],[398456.291,5830365.4654],[398615.521,5830769.5794],[398672.6238,5830915.3946],[398817.138,5830999.6912],[398831.4429,5831220.6733],[398838.3986,5831328.124],[398848.6244,5831480.4637],[398863.1214,5831696.4333],[399015.3169,5831775.771],[399346.1267,5831945.0612],[399675.9942,5832103.3234],[399733.7215,5832324.268],[399834.4562,5832639.0488],[399993.2074,5833135.1214],[400026.9869,5833427.334],[400062.5544,5833723.1737],[400077.55,5833852.5411],[399901.1584,5833836.3609],[399829.9535,5833998.1062],[399796.2491,5834085.3764],[399702.5441,5834061.0892],[399379.7696,5833881.5523],[399323.263,5833924.1258],[399179.593,5834032.2112],[399000.6606,5834198.5481],[398888.5902,5834302.7299],[398813.8654,5834342.4184],[398731.3377,5834385.595],[398517.7637,5834514.0294],[397916.1412,5834932.0008],[397835.1186,5835053.4002],[397728.4865,5835188.1273],[397551.9512,5835429.5365],[397649.0911,5835984.5992],[397700.8217,5836269.2851],[397729.1895,5836429.301],[397756.1803,5836581.5492],[397776.3918,5836695.5575],[397146.5799,5836396.6612],[396916.3254,5836238.4819],[396916.2872,5836286.5922],[396913.0739,5836516.8725],[396923.8995,5836606.3651],[396950.5755,5836694.8797],[396993.2648,5836785.0579],[397145.6522,5837031.6826],[397234.0147,5837162.6641],[397189.3156,5837245.109],[397030.947,5837085.1675],[396919.4948,5837199.4403],[396667.2731,5836872.343],[396263.6598,5836348.9117],[395831.5006,5836556.9861],[395340.8349,5836003.1541],[395230.3739,5835878.4728],[395515.9708,5835731.5584],[395704.0916,5835553.0871],[395840.2959,5835423.8696],[395995.0651,5835277.0397],[396586.7467,5835192.628],[396774.9688,5835165.7758],[396772.751,5835129.8316],[396777.3504,5835074.4239],[396784.6498,5834997.8023],[396768.2329,5834926.653],[396745.3068,5834879.9593],[396690.1838,5834831.2432],[396579.9377,5834733.8109],[396500.6181,5834666.5426],[396386.0806,5834629.5104],[396249.0225,5834584.8475],[396169.1844,5834541.6653],[396071.8923,5834475.5058],[395998.9328,5834413.8586],[395940.026,5834336.3103],[395874.3509,5834295.261],[395804.7563,5834239.4196],[395580.1958,5834277.0986],[395407.9606,5834305.998],[395450.7055,5834462.7197],[395277.117,5834470.0967],[394928.8942,5834484.8956],[394527.5532,5834380.3695],[394448.5111,5833960.2874],[394285.4917,5833917.2268],[394053.9731,5833852.3344],[394002.5399,5833554.8283],[394011.4949,5833277.6499],[394016.7119,5833151.0422],[393941.4336,5833100.5626],[393700.071,5833120.424],[393649.2523,5833124.6059],[393535.3797,5833033.4103],[393374.0497,5832904.0501],[392893.507,5833367.6878],[392663.5587,5833685.5665],[392612.857,5833805.9611],[392389.522,5833727.5351],[392215.518,5833685.1534],[391657.577,5834339.9939],[391689.2815,5834334.0281],[391813.6585,5834319.3358],[391876.3771,5834312.4581],[391907.3295,5834310.5477],[391913.0356,5834435.4793],[391785.3301,5834477.4383],[391907.7094,5834544.0531],[392067.9976,5834565.3505],[392096.2629,5834610.0133],[392145.4166,5834676.7157],[392112.2865,5834724.3794],[392087.3075,5834774.5153],[391989.6304,5834799.5869],[391978.4859,5834927.5628],[391933.9241,5835017.5104],[392004.1204,5835095.9227],[391816.1752,5835254.46],[391767.2099,5835250.8526],[391801.6052,5835336.4225],[391869.1819,5835400.1385],[391981.8346,5835436.5075],[392103.7345,5835525.9284],[392147.8378,5835618.4222],[392239.2665,5835625.3491],[392319.4933,5835684.2003],[392239.1258,5835902.7164],[392253.3491,5835987.4088],[392296.1127,5836027.1985],[392361.9217,5836047.2351],[392523.155,5836087.6428],[392571.1046,5836214.9773],[392664.1322,5836390.6447],[392731.3973,5836554.8726],[392827.4713,5836503.8412],[393032.0672,5836499.1439],[393053.1041,5836410.3357],[393113.6347,5836349.8721],[393220.1964,5836533.7243],[393353.0999,5836705.9279],[392739.5856,5836964.2496],[392224.0731,5837181.3093],[392081.2151,5837241.4608],[391997.7642,5837188.4808],[391583.6397,5837071.7224],[391676.6645,5837256.5605],[391798.4057,5837498.4573],[392194.1994,5837675.4799],[392244.1707,5838014.1644],[391706.659,5838090.441],[392178.6057,5838802.9758],[391613.7802,5838858.8902],[391629.3732,5838929.1283],[391656.2473,5838977.8534],[391706.2447,5839014.544],[391746.3274,5839062.4537],[391791.5304,5839107.3956],[391861.8462,5839129.5728],[391922.769,5839128.4638],[392001.8252,5839163.3604],[392054.4643,5839199.8879],[392089.2634,5839248.1238],[392112.512,5839307.179],[392149.7625,5839369.0233],[392183.4201,5839398.767],[392182.8983,5839433.2725],[392146.7184,5839455.4048],[392329.4657,5839702.6625],[392395.346,5839752.1804],[392470.9668,5839756.108],[392418.7052,5840451.886],[392292.299,5840677.1764],[392208.1868,5841165.4502],[393319.0139,5841008.678],[393398.4453,5841175.1575],[393388.1039,5841316.1093],[393237.1433,5841338.4574],[393171.6685,5841933.8193],[393287.7583,5842060.9522],[393200.5881,5842304.8655],[392974.652,5842324.5226],[392564.0834,5842503.6716],[392415.1383,5842539.3847],[392422.777,5842644.5354],[392473.3683,5842924.0956],[392337.6319,5842958.9934],[392422.0693,5843081.0642],[392547.402,5843049.4604],[392705.7074,5843079.463],[392830.4199,5842994.8628],[392892.5819,5843099.7466],[393299.0712,5843429.3033],[393463.2341,5843685.7611],[393477.2262,5843738.3798],[393485.2821,5843782.9619],[393519.9177,5843828.5548],[393579.8282,5843854.0251],[393609.1804,5843899.9441],[393501.9817,5843967.5521],[393447.9747,5843994.752],[393352.0271,5844029.8447],[393298.8356,5844070.2529],[393229.9572,5844114.2814],[393157.7847,5844147.9063],[393109.2241,5844177.4217],[393038.0623,5844184.467],[392930.8958,5844209.6457],[392841.8948,5844228.3994],[392756.2949,5844215.4878],[392692.9012,5844211.384],[392656.2678,5844218.657],[392364.4165,5844396.125],[392345.4036,5844431.7715],[392358.4169,5844470.7441],[392442.3649,5844584.8887],[392545.62,5844711.0999],[392601.194,5844795.1756],[392640.2656,5844869.6632],[392642.5172,5844949.076],[392639.3309,5844999.4351],[392596.9551,5845092.2518],[392424.3568,5845105.8424],[392366.3186,5845107.0048],[392302.4138,5845091.5806],[392068.8586,5844955.8843],[392001.7969,5844928.5489],[391938.3387,5844920.361],[391887.9834,5844928.3127],[391850.284,5844945.1682],[391822.5308,5844966.2519],[391801.8899,5844990.0081],[391772.6221,5845070.0223],[391776.015,5845124.9688],[391794.2011,5845179.0017],[391828.25,5845215.0842],[391867.9862,5845240.2085],[392135.4683,5845380.6743],[392203.3302,5845414.6689],[392272.3664,5845467.6833],[392320.9473,5845498.6256],[392368.4843,5845512.6614],[392410.4643,5845539.7685],[392434.4683,5845584.9566],[392449.3411,5845654.0437],[392478.3547,5845711.6507],[392515.2996,5845760.2825],[392555.4271,5845791.7467],[392596.363,5845801.9472],[392655.7969,5845802.5202],[392713.5599,5845741.6765],[392759.7663,5845768.5225],[392783.9008,5845815.824],[392841.3772,5845784.6972],[392883.5385,5845746.0305],[392925.5438,5845739.1942],[392958.0265,5845749.9167],[393001.7198,5845771.8222],[392881.1443,5846383.6057],[392837.1693,5846612.8223],[392762.2694,5846893.057],[392696.686,5847064.4769],[392381.4666,5847883.7098],[392342.5078,5848502.4763],[392522.3093,5849044.5923],[392797.884,5849173.8964],[392921.8747,5849331.6034],[393492.5982,5849696.2382],[394173.1784,5850005.9832],[394120.3587,5850384.0672],[394013.4678,5850352.6725],[393865.3873,5850788.7332],[393772.7219,5850786.6435],[393646.6002,5851067.4096],[393641.6808,5851245.3739],[393725.5272,5851272.0155],[393622.4922,5851653.5272],[393818.9965,5851647.9469],[394338.2467,5851633.2021],[394673.9525,5851623.6701],[395230.7833,5851779.7004],[395738.8735,5851779.3936],[395988.2388,5851987.4831],[396357.9845,5852002.7351],[396631.0751,5852189.316],[396718.8883,5852435.9279],[396762.0169,5852557.0489],[396972.919,5852466.8586],[397502.5082,5852084.3989],[398190.4621,5852299.6781],[398314.779,5852258.4928],[398518.9653,5852619.284],[398543.1937,5852701.5632],[398553.8513,5852796.648],[398549.836,5852961.7826],[398552.3791,5853311.3839],[398561.242,5853390.0083],[398585.6353,5853476.6933],[399057.1037,5854643.5965],[398886.8072,5854548.0481],[398833.1968,5854710.4522],[398633.4358,5854959.035],[398554.6612,5855166.2561],[398555.4009,5855178.2364],[398570.1849,5855515.0525],[398729.8021,5855694.3354],[399323.57,5855218.9972],[400282.2347,5856153.9493],[400396.0744,5856439.5498],[399576.7184,5856770.7417],[398803.8942,5856622.0382],[398244.7256,5856947.1921],[397985.5861,5856970.2095],[397448.4911,5857652.7753],[397496.3656,5857733.8344],[397524.6405,5857782.3614],[397340.8071,5858148.4773],[397048.1421,5858878.0809],[397014.2628,5858962.3498],[397289.5333,5859654.8702],[397351.9527,5859789.3113],[398043.3996,5859529.1411],[398304.9831,5859318.5699],[398504.9806,5859197.987],[398937.6285,5859151.0615],[399109.235,5859132.449],[399278.153,5859172.6003],[399566.8197,5859239.6442],[399378.4243,5859531.8779],[399220.1331,5859591.1346],[399023.7618,5859664.6472],[398744.4092,5859769.2244],[398601.297,5859822.7994],[398295.3152,5859937.3464],[397429.9261,5860261.3156],[396477.1548,5860618.003],[396572.0103,5860853.8793],[396377.2846,5860931.8304],[396431.8381,5860987.5871],[396463.5148,5861013.6905],[396506.7398,5861032.0655],[396554.7716,5861047.1371],[396600.8683,5861063.3304],[396639.4716,5861088.0038],[396672.64,5861122.0321],[396710.85,5861172.7855],[396747.1249,5861224.6604],[396771.8632,5861268.2287],[396782.4516,5861293.6304],[396790.3416,5861340.2437],[396870.2844,5861347.196],[396920.1143,5861381.2391],[396962.6725,5861426.3374],[397013.6753,5861436.4444],[397066.6669,5861435.8227],[397117.0172,5861435.3641],[397160.422,5861451.2436],[397189.1204,5861486.5919],[397210.8734,5861538.2783],[397250.9533,5861586.181],[397303.4244,5861620.061],[397348.4917,5861619.9288],[397398.1892,5861608.9046],[397452.68,5861589.6299],[397487.0185,5861587.5089],[397563.0006,5861616.209],[397619.6766,5861755.0118],[397589.3013,5861912.2192],[397473.692,5861906.3323],[397482.1699,5862173.3789],[397735.9889,5862227.0489],[397766.6366,5862079.3241],[397806.5531,5862124.5854],[397845.6537,5862156.6396],[397894.5043,5862174.8341],[397972.9294,5862201.1898],[398053.6379,5862220.6757],[398127.7604,5862218.7489],[398188.1864,5862209.7138],[398235.4054,5862201.4943],[398283.1138,5862201.199],[398316.7685,5862230.9382],[398351.2388,5862273.8842],[398394.9696,5862295.0466],[398479.8874,5862345.2507],[398441.9322,5862411.4625],[398257.945,5862399.6966],[398212.1052,5862763.6449],[397810.2598,5862731.3444],[397729.4008,5862557.9594],[397656.7795,5862554.2498],[397569.5573,5862549.7943],[397565.369,5862814.4638],[397563.0173,5862963.0769],[397289.3036,5862960.9439],[397249.2519,5863521.7948],[397235.0332,5863720.9049],[397320.213,5864304.894],[396832.1093,5864320.0152],[396785.8091,5864414.0691],[396593.1895,5864370.6277],[396503.2812,5864350.3509],[396366.4858,5864395.5893],[396231.2495,5864440.3123],[396038.1101,5864370.1973],[395921.0202,5864327.6905],[395725.5237,5864256.7201],[395494.8887,5864246.0898],[395601.146,5863883.7735],[395695.2627,5863770.5204],[395731.8337,5863788.3497],[396042.7991,5863693.3419],[395835.1361,5863603.8889],[395522.1399,5863469.063],[395357.1303,5863397.9838],[395159.3042,5863579.3079],[395060.1113,5863661.2786],[394935.2821,5863700.809],[394849.8807,5863777.6757],[394687.4893,5863897.3331],[394695.4717,5863932.5957],[394716.8134,5864027.1828],[394660.0325,5864166.5997],[394517.4326,5863975.8663],[394417.7469,5863748.6472],[394302.465,5863018.1958],[394604.655,5863075.6875],[394682.527,5862892.4953],[394577.6413,5862838.3932],[394327.5784,5862710.9909],[394053.6455,5863013.5266],[393803.5174,5863182.3092],[393619.8246,5863193.6595],[393701.4041,5863589.4751],[393300.4783,5863440.5492],[393207.1522,5863405.8828],[393043.3462,5863587.0271],[393169.0533,5863699.5349],[392991.569,5863843.7871],[393009.8223,5864074.3238],[393145.6678,5864921.0362],[393382.7298,5865146.4451],[393515.9232,5865184.5162],[394018.217,5865116.1946],[394056.506,5865233.0822],[394396.1308,5865199.0683],[394450.6393,5865318.9622],[394342.3213,5865414.8449],[394921.4017,5866093.5791],[394617.0281,5866309.2857],[394672.7636,5866395.9913],[394581.265,5866459.9774],[394198.1038,5866009.0428],[394155.7964,5865996.5821],[393610.9909,5866440.1193],[393401.1114,5866227.2433],[393861.1,5865801.6176],[394101.3493,5865877.687],[394193.4186,5865908.0742],[394300.1887,5865706.0615],[394228.9667,5865575.1752],[392817.6672,5865595.8729],[392704.973,5866114.3004],[392625.634,5866135.3854],[392547.1926,5865938.7209],[392522.944,5865675.0712],[392377.1463,5865690.616],[392379.9845,5865736.5388],[392366.9112,5865784.4471],[392343.8942,5865866.0403],[392318.9928,5865965.7884],[392306.9685,5866030.668],[392309.6833,5866074.5941],[392317.5748,5866121.2066],[392335.8925,5866158.1555],[392380.2171,5866210.5333],[392435.512,5866278.2672],[392465.0469,5866334.5654],[392480.1623,5866400.774],[392507.3524,5866495.3421],[392568.1791,5866621.5048],[392627.1843,5866688.3234],[392754.9432,5866841.7645],[392809.8677,5866903.5082],[392857.187,5866955.7007],[392910.5072,5866991.4883],[392963.3339,5867019.2893],[393051.769,5867071.947],[393107.9607,5867105.5528],[393222.537,5867159.6014],[393340.8595,5867209.4098],[393442.9006,5867255.214],[393539.2097,5867289.3468],[393592.2212,5867320.1428],[393653.3819,5867385.5095],[393725.4735,5867433.1645],[393795.3216,5867476.9497],[393836.8692,5867484.4033],[393873.3747,5867475.1324],[394160.1922,5867559.6235],[394488.6856,5867734.7363],[394543.9414,5867802.9328],[394727.2412,5868043.678],[394959.4307,5868087.452],[395115.7321,5868249.1548],[395210.6137,5868717.6107],[395322.3417,5868903.7343],[395480.0037,5869003.2806],[395861.2682,5869189.1607],[396087.7512,5869448.7402],[396375.2813,5869577.2798],[396758.104,5869496.5044],[396818.2382,5869334.4563],[397142.0987,5869434.6973],[397478.5226,5869413.9102],[397461.8745,5869663.4599],[397672.2553,5869662.4861],[398144.512,5869277.562],[398233.6954,5869326.1653],[399067.3625,5869834.337],[400180.9707,5870513.5945],[400483.9535,5872019.9988],[400626.1426,5872007.7051],[400721.3551,5871945.2577],[400819.604,5871935.3003],[400852.6154,5871883.699],[400973.1385,5871946.2489],[401058.1648,5872155.2242],[401233.1036,5872205.9282],[401290.9869,5872147.2046],[401827.6291,5872042.2602],[402031.6454,5872035.6701],[402086.6457,5872392.7856],[402202.0121,5872323.9637],[402171.712,5872203.2638],[402562.2058,5872089.8891],[402939.4625,5871986.7663],[403661.2864,5872056.2621],[403859.3083,5872123.5575],[404014.2061,5872212.311],[404270.2194,5872270.736],[404182.5897,5872746.1075],[404201.894,5872758.1717],[404229.6113,5872777.6702],[404259.4804,5872789.082],[404293.8164,5872786.9613],[404322.8699,5872785.1669],[404357.6952,5872790.9699],[404392.6837,5872799.4143],[404440.2258,5872796.478],[404476.7137,5872786.2706],[404521.1251,5872775.5737],[404572.7104,5872746.5114],[404542.4674,5872671.2416],[404531.1181,5872616.265],[404514.1601,5872556.3324],[404511.2239,5872508.7903],[404518.3632,5872452.6718],[404542.4918,5872414.0634],[404577.6748,5872382.7262],[404613.1839,5872356.6713],[404648.8562,5872333.2578],[404677.5836,5872326.181],[404720.4957,5872334.136],[404764.3866,5872357.9385],[404819.9843,5872399.577],[404861.3971,5872426.1838],[404915.5266,5872444.0513],[405045.7538,5872471.7908],[405112.7404,5872503.457],[405167.6854,5872534.5306],[405336.8943,5872587.1045],[405405.5669,5872781.253],[405718.2792,5872749.9165],[405880.08,5872790.747],[405757.7276,5872973.2881],[405826.0101,5873048.61],[405851.9907,5873005.6455],[405883.3317,5872946.4421],[405919.6037,5872915.5683],[405957.1932,5872904.2378],[405972.7016,5872899.5631],[406026.9739,5872902.5747],[406102.2202,5872936.1065],[406197.0703,5872977.9724],[406266.5649,5873021.4041],[406324.9851,5873040.0673],[406394.7131,5873035.7615],[406465.0283,5873040.964],[406527.5967,5873075.2788],[406571.7353,5873120.2763],[406603.3919,5873169.2261],[406616.0317,5873219.3502],[406620.4918,5873249.933],[406644.2538,5873319.0217],[406651.168,5873333.6256],[406659.0187,5873347.1696],[406668.9893,5873362.5868],[406680.8947,5873376.8824],[406693.2435,5873382.1322],[406729.8222,5873361.8557],[406735.2936,5873351.9597],[406749.8556,5873325.6217],[406797.631,5873274.9485],[406833.3159,5873234.5665],[406890.5997,5873183.3062],[406956.1795,5873163.349],[407016.2034,5873156.461],[407090.275,5873170.9763],[407145.917,5873196.1744],[407189.8598,5873238.0024],[407227.6593,5873283.3914],[407285.454,5873343.4532],[407308.3369,5873374.9434],[407334.1318,5873410.4411],[407358.6155,5873441.7314],[407372.127,5873458.9995],[407424.7952,5873487.5625],[407649.8411,5873468.215],[407862.9226,5873524.14],[409024.03,5873315.645],[409562.2467,5873272.872],[409617.6723,5873270.2167],[410885.1864,5873209.4959],[411137.5321,5873222.9782],[411106.5866,5873306.0541],[412194.1093,5874366.2202],[412152.9881,5874471.2383],[412069.4651,5874684.5452],[411961.2176,5874652.5897],[411881.6889,5874677.8827],[411596.8077,5874660.3075],[411104.3338,5874616.8635],[410905.6851,5874629.1265],[410682.9805,5874689.9707],[410548.3072,5874675.2221],[410478.1819,5874667.5424],[410447.6195,5874759.4429],[410438.4198,5875082.2512],[410894.2786,5875596.7958],[411071.1515,5875832.3767],[411106.2993,5875882.3125],[411157.1723,5875927.2694],[411327.0424,5875921.7456],[411384.8459,5875976.8099],[411399.5204,5876326.194],[411595.0977,5876278.488],[411594.1468,5876461.3023],[411577.5696,5876505.9577],[411441.0563,5876873.6957],[411273.5033,5876935.1431],[411258.4954,5877227.659],[411358.75,5877311.9917],[411569.2272,5877489.0422],[411616.1285,5877665.3589],[411643.5843,5877809.4791],[411790.0194,5877776.5782],[411922.2385,5877771.0668],[412062.7392,5877727.9277],[412172.8834,5877665.4533],[412244.226,5877618.6301],[412442.864,5877529.4835],[412630.3505,5877345.5828],[412856.9273,5877247.222],[413006.9732,5877243.2333],[413142.0353,5877239.6431],[413431.2844,5877039.4211],[413502.8121,5876944.8131],[413590.7747,5876934.0509],[413676.8974,5877016.2545],[413703.6019,5877062.3275],[413707.0254,5877117.791],[413702.8515,5877179.0258],[413718.9915,5877225.7508],[413747.0329,5877250.5318],[413806.4415,5877268.0742],[413850.8186,5877299.8004],[413896.8259,5877357.9378],[413926.0084,5877401.2065],[413965.9183,5877446.4642],[413998.5897,5877460.3548],[414037.7174,5877449.9861],[414083.9533,5877425.9229],[414153.6003,5877437.5312],[414222.0733,5877473.0724],[414287.2531,5877498.2124],[414349.4658,5877518.233],[414415.8196,5877519.4399],[414457.4253,5877506.2672],[414495.7379,5877482.6932],[414552.5381,5877457.9781],[414613.6097,5877459.5111],[414676.1483,5877484.814],[414720.6882,5877519.1815],[414754.9896,5877559.4831],[414780.5526,5877587.0682],[414807.7787,5877598.6436],[414836.8309,5877596.8506],[414854.0146,5877574.5807],[414878.3066,5877538.6162],[414908.5328,5877512.8901],[414960.7029,5877499.0656],[415003.2866,5877501.7398],[415033.9689,5877526.3577],[415052.7496,5877572.9196],[415092.6569,5877832.9219],[415109.1225,5877884.9289],[415135.6635,5877928.3606],[415168.9867,5877952.8155],[415201.006,5877956.1417],[415237.4923,5877945.9363],[415280.761,5877916.7543],[415318.4215,5877882.6161],[415363.5163,5877840.0655],[415407.2739,5877818.8068],[415462.085,5877804.8194],[415512.266,5877801.7224],[415565.414,5877803.7447],[415615.5949,5877800.6478],[415667.9279,5877789.4644],[415714.3267,5877768.0429],[415792.778,5877707.5269],[415841.1659,5877675.3779],[415902.1407,5877589.4289],[415928.2589,5877540.0963],[415943.8127,5877491.4155],[416280.6723,5877439.7206],[416307.6114,5877454.0903],[416347.2681,5877479.6993],[416386.0499,5877507.3664],[416474.3346,5877574.063],[416510.2449,5877603.9113],[416567.6594,5877657.4827],[416603.5696,5877687.331],[416630.6318,5877703.6972],[416656.6958,5877720.1249],[416685.5696,5877733.3732],[416715.38,5877745.5617],[416744.944,5877753.7574],[416760.1635,5877756.8263],[416790.4793,5877760.9676],[416805.514,5877761.0418],[416838.578,5877761.0054],[416931.4729,5877756.275],[416963.5387,5877756.3003],[416993.7929,5877759.4434],[417009.0124,5877762.5122],[417038.6379,5877771.7062],[417114.0182,5877905.3316],[417290.0086,5877980.6442],[417476.406,5877941.2938],[417513.5157,5877964.8728],[417568.5673,5877980.564],[417648.7778,5877991.5215],[417738.1049,5877995.5536],[417821.0936,5877999.9769],[417878.3366,5877999.6261],[417945.283,5878001.858],[418039.6603,5878001.3783],[418049.9608,5878003.8914],[418079.5246,5878012.0872],[418122.5578,5878027.468],[418137.962,5878033.5315],[418165.9605,5878048.838],[418235.735,5878091.6269],[418255.5015,5878103.4333],[418270.7209,5878106.5022],[418286.7537,5878106.5149],[418466.0712,5878154.5688],[418712.4167,5878168.4271],[418825.2088,5878323.792],[418991.8804,5878426.7344],[419292.9054,5878401.1476],[419501.0518,5878283.0956],[419681.2433,5878329.0925],[419987.5284,5878264.5339],[420206.3986,5878089.5062],[420275.2468,5878060.0205],[420454.0694,5878054.0363],[420689.0383,5878180.8752],[420742.0169,5878339.802],[420865.5149,5878522.5625],[420827.6814,5878867.5784],[420602.7165,5879265.2198],[420732.7736,5879359.3994],[420901.0856,5879359.0358],[421094.3165,5879324.0694],[421388.0666,5879343.0217],[421633.3039,5879257.7543],[421845.4744,5879253.6841],[421972.7762,5879205.7518],[422118.2144,5879189.1338],[422220.5251,5879177.4436],[422548.549,5879394.6809],[422680.4199,5879404.5825],[422829.3346,5879398.4032],[423181.4263,5879304.9687],[423311.4148,5879270.4739],[423547.3959,5879213.8357],[423606.0558,5879190.1781],[423666.6022,5879148.3683],[423796.3708,5879059.2039],[423858.5311,5879027.3146],[423928.8484,5879013.9599],[424042.8397,5878993.9037],[424184.534,5878968.1312],[424294.5941,5878949.3196],[424400.169,5878922.7688],[424528.7154,5878878.7697],[424607.3393,5878853.8812],[424713.8655,5878836.8128],[424779.8543,5878824.2044],[424874.4492,5878798.3311],[424987.5172,5878763.3027],[425275.3694,5878670.4027],[425216.7108,5878463.7871],[425210.5083,5878304.4345],[425129.2014,5878125.1975],[424939.9507,5878121.9594],[424732.0678,5877832.8815],[424618.1654,5877748.4427],[424568.4627,5877673.3003],[424473.8043,5877471.0258],[424365.8265,5877374.8108],[424281.6551,5877374.6698],[424078.8166,5877352.7145],[423896.1293,5877313.6099],[423705.4837,5877317.4141],[423592.1156,5877284.6391],[423529.6491,5877174.4936],[423436.595,5877127.2102],[423450.0448,5876829.4552],[423277.7232,5876829.4784],[423305.6698,5876766.7789],[423357.7818,5876623.0554],[423220.0267,5876538.7617],[423102.5509,5876482.3799],[423119.1188,5876407.1264],[423153.8485,5876325.4506],[423155.8149,5876142.4012],[423152.627,5876004.7388],[423106.5303,5875859.118],[423041.3873,5875791.5549],[422959.3274,5875621.6405],[423027.705,5875569.703],[423141.4351,5875565.3401],[423233.2127,5875516.815],[423095.5981,5875418.9159],[423002.9333,5875098.5398],[423055.6396,5874835.4766],[423158.7687,5874853.509],[423095.0075,5874800.0741],[423034.418,5874749.2973],[423005.5462,5874732.5199],[422978.8908,5874730.187],[422943.4802,5874736.3476],[422878.3308,5874776.156],[422805.7817,5874781.9558],[422619.7349,5874709.9184],[422470.7041,5874786.7142],[422428.2369,5874742.9381],[422355.1818,5874762.0251],[422112.1995,5874777.011],[422104.4913,5874716.5098],[422083.4787,5874676.7128],[422034.0654,5874649.2721],[421989.2305,5874674.5722],[421941.1321,5874754.4223],[422014.7363,5874801.3795],[421993.7343,5874850.7714],[421955.8991,5874887.1733],[421919.6424,5874900.4316],[421846.3288,5874913.9715],[421808.322,5874931.3458],[421780.161,5874962.141],[421751.2219,5875029.0566],[421705.8189,5875088.9715],[421663.3005,5875130.6724],[421615.8658,5875157.6463],[421582.7885,5875173.7147],[421467.0892,5874532.5495],[421226.4072,5873083.4473],[421056.4418,5871594.9009],[421218.4719,5871655.0498],[421557.8439,5871574.3458],[421741.8705,5871530.5839],[422118.5244,5871496.3332],[422249.6269,5871461.1935],[422284.8234,5871446.1209],[422345.2989,5871420.2227],[422403.7902,5871377.5366],[422442.1322,5871333.0871],[422797.6437,5871215.9714],[422908.2924,5871320.3732],[422952.6117,5871152.1706],[423009.8605,5870934.8981],[423067.4437,5870716.3573],[423173.8505,5870670.7168],[423251.6539,5870437.4568],[423288.8779,5870163.6114],[423402.9205,5870014.2911],[423570.8625,5869942.812],[423839.9361,5870016.4042],[424146.9211,5870038.5596],[424207.4993,5870066.462],[424737.865,5870310.7495],[424894.4852,5870348.1886],[424885.0284,5870243.5589],[425130.5664,5870260.4857],[425324.6541,5870255.5342],[425291.2734,5870039.1504],[425944.7151,5869889.5612],[426158.0461,5869844.4298],[426205.2264,5870061.0674],[426232.1211,5870184.5599],[426372.2816,5870260.9767],[426745.7516,5870341.3507],[426832.9974,5870246.61],[426988.2046,5870372.4249],[426772.0746,5870621.2228],[426538.7654,5870725.2764],[426359.3848,5870868.8937],[426367.9234,5870921.391],[426611.5961,5870874.5554],[426876.5329,5870885.3288],[426985.319,5870975.8186],[427180.3494,5870808.3957],[427372.6446,5870643.3212],[427941.427,5870848.7457],[427986.0484,5870467.2326],[428281.3063,5870564.8407],[428444.4425,5870501.7622],[428421.2701,5870383.8874],[428515.5574,5870150.0746],[428725.1116,5870237.9037],[428816.4325,5869998.9715],[428743.1682,5869971.6728],[428768.0618,5869816.37],[428608.9782,5869773.1511],[428694.6963,5869446.5852],[428991.1764,5868989.4267],[429652.3352,5868479.2199],[429578.5831,5868440.1895],[429529.9892,5868404.0423],[429513.7676,5868402.7361],[429485.227,5868400.4379],[429435.1025,5868413.0713],[429388.9288,5868438.1869],[429351.2866,5868446.8695],[429315.4466,5868433.1711],[429294.8676,5868408.9878],[429260.4867,5868383.6508],[429209.0263,5868345.7272],[429195.3725,5868335.5463],[429103.5291,5868276.0747],[429077.4658,5868259.6445],[429049.4676,5868244.3355],[429021.5925,5868231.023],[428992.7806,5868218.7702],[428918.7109,5868190.3802],[428891.207,5868157.0793],[428881.9383,5868109.9288],[428886.1285,5868074.6747],[428919.4294,5868047.1709],[428936.4925,5868014.3048],[428952.5792,5867965.5917],[428950.0399,5867924.3893],[428928.6795,5867887.5284],[428907.7098,5867857.0062],[428918.2389,5867821.3614],[428952.3211,5867806.5352],[429083.0734,5867765.299],[429113.5127,5867771.4393],[429179.1364,5867779.4195],[429327.0929,5867796.1648],[429386.0955,5867824.3432],[429818.3635,5867762.0715],[430111.1264,5867781.1056],[430357.8127,5868125.6316],[430323.1119,5868212.942],[430731.6501,5868744.892],[431035.9839,5868870.4298],[431184.0504,5869126.8411],[431381.7102,5869111.1123],[431556.477,5869150.7159],[431615.9215,5869125.8437],[431685.9306,5869100.3205],[431740.0928,5869075.7738],[431800.7139,5869026.9686],[431833.9481,5868957.5355],[431845.0184,5868925.7909],[431853.1555,5868895.229],[431859.4332,5868850.7533],[431833.7203,5868791.2145],[431825.9614,5868746.6018],[431835.1108,5868699.9451],[431850.3112,5868653.9177],[432077.1459,5868574.0326],[432149.1829,5868495.3611],[432243.6886,5868394.0957],[432245.591,5868295.8847],[432082.4377,5868243.179],[431939.214,5868156.5875],[431732.9799,5868022.5821],[431687.0158,5867922.0177],[431473.2735,5867706.1897],[431472.8174,5867672.7474],[431488.7017,5867629.3496],[431505.0744,5867593.8752],[431531.8489,5867555.1087],[431550.7001,5867516.8304],[431561.1393,5867471.1168],[431558.2101,5867423.5757],[431547.6828,5867381.8052],[431526.7537,5867343.3267],[431497.25,5867294.7718],[431391.1896,5867208.5147],[431340.8819,5867166.5439],[431312.1918,5867131.1949],[431299.5116,5867097.5105],[431302.19,5867054.9261],[431328.3372,5867012.6994],[431401.5537,5866899.9692],[431413.8684,5866872.1556],[431425.0618,5866842.4071],[431439.3256,5866797.439],[431467.8533,5866707.5027],[431478.0485,5866677.8157],[431488.2437,5866648.1286],[431500.5585,5866620.3151],[431513.8714,5866592.44],[431529.2424,5866565.4402],[431552.798,5866524.9097],[431569.1672,5866497.8483],[431594.8423,5866459.1913],[431613.2695,5866433.0052],[431641.0026,5866395.2234],[431689.2824,5866333.1289],[431738.6835,5866272.9695],[431761.3497,5866250.5303],[431785.1372,5866230.0262],[431883.5894,5866152.8162],[431906.2557,5866130.3771],[431926.9255,5866108.0609],[431944.416,5866082.9346],[431966.912,5866041.4673],[431979.1653,5866012.6555],[432001.6141,5865954.1566],[432013.8059,5865924.3466],[432041.3689,5865867.5366],[432068.8089,5865808.7302],[432090.3067,5865767.3245],[432107.7358,5865741.1999],[432127.3459,5865717.947],[432150.3197,5865700.4991],[432177.5941,5865687.7964],[432209.0459,5865677.8424],[432303.9548,5865656.9648],[432353.8055,5865652.8915],[432369.6544,5865649.9111],[432384.4435,5865645.9938],[432409.7771,5865628.5773],[432447.543,5865602.6138],[432477.0894,5865565.7975],[432470.6006,5865512.1124],[432446.0715,5865475.446],[432396.1869,5865440.3417],[432346.6928,5865411.5763],[432288.6667,5865399.2438],[432215.5744,5865400.5654],[432176.5648,5865387.0613],[432120.3412,5865352.3476],[432097.5694,5865344.2061],[432095.6168,5865312.5118],[432121.2127,5865263.2128],[432180.6963,5865195.9188],[432216.3865,5865155.5424],[432247.6903,5865147.2509],[432277.9726,5865174.0185],[432305.8665,5865213.6591],[432350.9743,5865274.5095],[432391.9365,5865319.7079],[432437.6754,5865339.1604],[432491.3605,5865332.6716],[432530.5653,5865349.3451],[432575.3278,5865352.9503],[432625.6483,5865343.4874],[432683.9151,5865308.0832],[432744.5702,5865259.8061],[432779.6746,5865209.9215],[432812.5858,5865176.0794],[432881.5325,5865159.1061],[432942.728,5865171.2435],[433001.7303,5865199.4234],[433060.5373,5865224.4338],[433119.3444,5865249.4443],[433177.3705,5865261.777],[433256.2158,5865250.557],[433308.5342,5865221.8823],[433360.0716,5865180.5301],[433441.8412,5865114.9202],[433577.7255,5865285.9014],[433733.4436,5865146.0449],[433922.2337,5865624.4086],[434136.496,5866012.0215],[434350.097,5866649.1785],[434359.8182,5867148.589],[434663.5706,5867850.3298],[436130.4572,5867702.8602],[436134.8202,5867155.4903],[437144.2888,5867016.1628],[437657.3968,5867033.6618],[437778.569,5867081.3104],[437905.1625,5867135.6393],[437852.23,5867236.0945],[437732.0627,5868002.0184],[437738.4592,5868170.9642],[437897.5164,5868199.2451],[438010.2865,5868224.3645],[438123.3638,5868254.4751],[438217.1675,5868280.7626],[438286.7064,5868303.5345],[438358.7335,5868334.1691],[438417.0929,5868370.6555],[438467.7885,5868396.5918],[438591.401,5868435.0719],[438671.0911,5868457.8032],[438935.0792,5868369.8197],[439042.0706,5868301.1068],[439089.3091,5868287.1758],[439137.3467,5868286.2217],[439228.2316,5868297.6593],[439311.4995,5868315.578],[439437.3221,5868324.8642],[439534.3955,5868322.8948],[439603.3956,5868320.65],[439701.7278,5868306.5791],[439782.9632,5868293.8948],[440047.6949,5868262.23],[440064.4211,5868322.3224],[440077.1692,5868366.6277],[440090.977,5868411.8697],[440111.6346,5868470.718],[440189.4263,5868676.3488],[440215.9969,5868749.8629],[440239.5729,5868823.5615],[440909.1692,5868534.8385],[441144.2669,5868837.998],[441515.3351,5868566.6558],[441600.1222,5868560.4337],[442171.6537,5868469.1351],[442347.1075,5868373.1636],[442479.8539,5868315.8934]],[[393045.5459,5866508.2798],[393105.5489,5866577.0502],[393077.1651,5866628.9819],[392998.5864,5866650.5642],[392807.4484,5866474.6755],[392898.1126,5866378.009],[392783.4109,5866266.1582],[392942.0973,5866187.589],[393045.5459,5866508.2798]]]]},"geometry_name":"geom","properties":{"objid":"DEBKGVG200000CGA","beginn":"2025-04-11Z","ade":4,"gf":4,"bsg":1,"lkz":"BB","ars":"12060","ags":"12060","sdv_ars":"120600052052","gen":"Barnim","bez":"Landkreis","ibz":43,"bem":"--","nbd":"ja","sn_l":"12","sn_r":"0","sn_k":"60","sn_v1":"00","sn_v2":"00","sn_g":"000","fk_s3":"R","nuts":"DE405","ars_0":"120600000000","ags_0":"12060000","wsk":"2008-12-31Z","dlm_id":"DEBKGDL20000E0B1"},"bbox":[391583.6397,5822479.0906,443265.628,5879404.5825]}],"totalFeatures":1,"numberMatched":1,"numberReturned":1,"timeStamp":"2026-10-04T07:26:07.829Z","crs":{"type":"name","properties":{"name":"urn:ogc:def:crs:EPSG::25833"}},"bbox":[391583.6397,5822479.0906,443265.628,5879404.5825]}