{"type":"FeatureCollection","features":[{"type":"Feature","properties":{"art":"pfad"},"geometry":{"type":"LineString","coordinates":[[13.56859,52.59687],[13.5685,52.59695],[13.56788,52.59744],[13.56711,52.59794],[13.56662,52.59824]]}},{"type":"Feature","properties":{"art":"pfad"},"geometry":{"type":"LineString","coordinates":[[13.57133,52.58736],[13.57089,52.58764],[13.57079,52.58767],[13.57046,52.58782],[13.57042,52.58789],[13.5702,52.58807],[13.57044,52.58825],[13.57074,52.5885],[13.57072,52.58857],[13.57054,52.58876],[13.57012,52.58922],[13.57008,52.58925],[13.57003,52.58926],[13.56984,52.58928],[13.5697,52.5893],[13.56956,52.58933],[13.56946,52.58934],[13.56941,52.58934]]}},{"type":"Feature","properties":{"art":"pfad"},"geometry":{"type":"LineString","coordinates":[[13.56484,52.58853],[13.56475,52.58853],[13.56463,52.58851]]}},{"type":"Feature","properties":{"art":"pfad"},"geometry":{"type":"LineString","coordinates":[[13.56607,52.58542],[13.56483,52.58795],[13.56463,52.58851],[13.56453,52.58896],[13.56441,52.58981],[13.56444,52.59007]]}},{"type":"Feature","properties":{"art":"pfad"},"geometry":{"type":"LineString","coordinates":[[13.56759,52.59553],[13.56778,52.59576],[13.56836,52.59666],[13.56841,52.59677],[13.56845,52.59685],[13.5685,52.59695],[13.56867,52.59742],[13.56883,52.59795],[13.56901,52.5984],[13.56914,52.59859],[13.56924,52.59868],[13.56938,52.59876]]}},{"type":"Feature","properties":{"art":"pfad"},"geometry":{"type":"LineString","coordinates":[[13.56888,52.59914],[13.56888,52.59914],[13.56893,52.59906],[13.56903,52.59899],[13.56911,52.59889],[13.56917,52.59881],[13.56929,52.59881],[13.56938,52.59876]]}},{"type":"Feature","properties":{"art":"strasse"},"geometry":{"type":"LineString","coordinates":[[13.56819,52.58679],[13.56777,52.58658],[13.56612,52.58586],[13.56599,52.58584]]}},{"type":"Feature","properties":{"art":"strasse"},"geometry":{"type":"LineString","coordinates":[[13.56626,52.58529],[13.56599,52.58584],[13.56494,52.58798],[13.56475,52.58853],[13.56464,52.58894],[13.5646,52.58915],[13.56455,52.58981],[13.56455,52.59]]}},{"type":"Feature","properties":{"art":"strasse"},"geometry":{"type":"LineString","coordinates":[[13.56765,52.5954],[13.568,52.5959],[13.5683,52.59634],[13.56852,52.59672],[13.56854,52.59676],[13.56856,52.59681],[13.56859,52.59687]]}},{"type":"Feature","properties":{"art":"pfad"},"geometry":{"type":"LineString","coordinates":[[13.56711,52.59794],[13.56691,52.59784],[13.56663,52.59773]]}},{"type":"Feature","properties":{"art":"strasse"},"geometry":{"type":"LineString","coordinates":[[13.56211,52.58705],[13.56201,52.587]]}},{"type":"Feature","properties":{"art":"pfad"},"geometry":{"type":"LineString","coordinates":[[13.56207,52.58697],[13.56226,52.58706],[13.56279,52.58731],[13.56321,52.58751],[13.56406,52.58791],[13.56414,52.58797],[13.56415,52.58801],[13.56414,52.58812],[13.56412,52.58838]]}},{"type":"Feature","properties":{"art":"strasse"},"geometry":{"type":"LineString","coordinates":[[13.56191,52.58705],[13.56194,52.58706]]}},{"type":"Feature","properties":{"art":"strasse"},"geometry":{"type":"LineString","coordinates":[[13.56194,52.58706],[13.56156,52.5874]]}},{"type":"Feature","properties":{"art":"strasse"},"geometry":{"type":"LineString","coordinates":[[13.56179,52.58743],[13.56212,52.58714],[13.56215,52.58711],[13.56215,52.58707],[13.56211,52.58705]]}},{"type":"Feature","properties":{"art":"pfad"},"geometry":{"type":"LineString","coordinates":[[13.56791,52.59674],[13.56797,52.59674],[13.56841,52.59677],[13.56852,52.59672],[13.56882,52.59669],[13.56898,52.59667],[13.56926,52.59668]]}},{"type":"Feature","properties":{"art":"pfad"},"geometry":{"type":"LineString","coordinates":[[13.56463,52.58851],[13.56458,52.5885],[13.56451,52.58849],[13.56435,52.58845],[13.56413,52.58838],[13.56412,52.58838],[13.56411,52.58838],[13.564,52.58841],[13.56391,52.5884],[13.5638,52.58843]]}},{"type":"Feature","properties":{"art":"weg"},"geometry":{"type":"LineString","coordinates":[[13.56469,52.61283],[13.56433,52.613],[13.56423,52.61302],[13.56402,52.61302],[13.56366,52.61306],[13.5625,52.61323],[13.56179,52.61334],[13.56076,52.61348],[13.56044,52.6135],[13.55984,52.61351],[13.55969,52.6135],[13.55953,52.61345]]}},{"type":"Feature","properties":{"art":"pfad"},"geometry":{"type":"LineString","coordinates":[[13.57283,52.58734],[13.57249,52.58739],[13.57209,52.58737],[13.5718,52.58738],[13.57147,52.58735],[13.57133,52.58736]]}},{"type":"Feature","properties":{"art":"pfad"},"geometry":{"type":"LineString","coordinates":[[13.56942,52.58507],[13.56896,52.58542],[13.56897,52.58548],[13.56904,52.58555],[13.56988,52.58596],[13.57013,52.5861],[13.57051,52.58633]]}},{"type":"Feature","properties":{"art":"pfad"},"geometry":{"type":"LineString","coordinates":[[13.56991,52.58787],[13.56983,52.58781],[13.56948,52.58757],[13.56941,52.58747],[13.56944,52.58732],[13.56961,52.58695],[13.56971,52.5867],[13.57042,52.58637],[13.57051,52.58633],[13.5711,52.58606]]}},{"type":"Feature","properties":{"art":"pfad"},"geometry":{"type":"LineString","coordinates":[[13.57046,52.59532],[13.5706,52.59479],[13.57086,52.59433],[13.57103,52.59393],[13.57126,52.5934],[13.57142,52.59299],[13.57149,52.59254],[13.5715,52.59244],[13.57151,52.59241],[13.57153,52.59202],[13.57166,52.59152],[13.57191,52.5909],[13.57215,52.59036],[13.57221,52.59019],[13.57234,52.5898],[13.57254,52.58923],[13.57266,52.58864],[13.57277,52.58807],[13.5728,52.58774],[13.57283,52.58734]]}},{"type":"Feature","properties":{"art":"pfad"},"geometry":{"type":"LineString","coordinates":[[13.5715,52.59244],[13.57064,52.5923],[13.57022,52.59223],[13.56995,52.59218]]}},{"type":"Feature","properties":{"art":"pfad"},"geometry":{"type":"LineString","coordinates":[[13.57042,52.58637],[13.57046,52.58652],[13.57026,52.58705],[13.57018,52.58722],[13.57003,52.58744],[13.56989,52.58764],[13.56983,52.58775],[13.56983,52.58781]]}},{"type":"Feature","properties":{"art":"pfad"},"geometry":{"type":"LineString","coordinates":[[13.57003,52.58795],[13.56991,52.58787]]}},{"type":"Feature","properties":{"art":"pfad"},"geometry":{"type":"LineString","coordinates":[[13.5702,52.58807],[13.57003,52.58795]]}},{"type":"Feature","properties":{"art":"pfad"},"geometry":{"type":"LineString","coordinates":[[13.57,52.59671],[13.57038,52.59539]]}},{"type":"Feature","properties":{"art":"pfad"},"geometry":{"type":"LineString","coordinates":[[13.5687,52.59679],[13.56882,52.59669],[13.56896,52.59656],[13.56954,52.59614],[13.56979,52.59584],[13.57009,52.59567],[13.57038,52.59539],[13.57046,52.59532],[13.57058,52.59534]]}},{"type":"Feature","properties":{"art":"pfad"},"geometry":{"type":"LineString","coordinates":[[13.56926,52.59668],[13.56972,52.5967],[13.57,52.59671]]}},{"type":"Feature","properties":{"art":"pfad"},"geometry":{"type":"LineString","coordinates":[[13.56859,52.59687],[13.5687,52.59679]]}},{"type":"Feature","properties":{"art":"strasse"},"geometry":{"type":"LineString","coordinates":[[13.56859,52.59687],[13.56878,52.59738],[13.56895,52.59795],[13.56906,52.59825],[13.56914,52.59841],[13.56929,52.59858]]}},{"type":"Feature","properties":{"art":"pfad"},"geometry":{"type":"LineString","coordinates":[[13.56711,52.59794],[13.56724,52.59809],[13.56773,52.59834],[13.56917,52.59881]]}},{"type":"Feature","properties":{"art":"pfad"},"geometry":{"type":"LineString","coordinates":[[13.57065,52.59536],[13.57072,52.59532],[13.57089,52.59512],[13.57099,52.59481],[13.57103,52.59477],[13.57138,52.59394],[13.57145,52.59388],[13.57191,52.59292],[13.57184,52.59253],[13.57177,52.59218],[13.57185,52.59189],[13.57192,52.59171],[13.57209,52.59124],[13.57218,52.59103],[13.57234,52.59067],[13.57251,52.59024],[13.57271,52.58985],[13.57283,52.58939],[13.57292,52.58896],[13.5733,52.58808],[13.57337,52.58791],[13.57374,52.58707],[13.57372,52.587],[13.57363,52.58701],[13.57342,52.58705],[13.57318,52.58716],[13.57283,52.58734]]}},{"type":"Feature","properties":{"art":"pfad"},"geometry":{"type":"LineString","coordinates":[[13.57149,52.59254],[13.57184,52.59253]]}},{"type":"Feature","properties":{"art":"pfad"},"geometry":{"type":"LineString","coordinates":[[13.57052,52.59672],[13.57099,52.59731],[13.57156,52.59808],[13.57217,52.59902],[13.57256,52.59966],[13.57252,52.59973]]}},{"type":"Feature","properties":{"art":"pfad"},"geometry":{"type":"LineString","coordinates":[[13.56938,52.59876],[13.56949,52.59882],[13.5703,52.59912],[13.57229,52.59972],[13.57279,52.59988],[13.5734,52.60005],[13.57357,52.60005]]}},{"type":"Feature","properties":{"art":"pfad"},"geometry":{"type":"LineString","coordinates":[[13.57229,52.59972],[13.57209,52.5999],[13.57187,52.60007]]}},{"type":"Feature","properties":{"art":"pfad"},"geometry":{"type":"LineString","coordinates":[[13.57,52.59671],[13.57035,52.59673]]}},{"type":"Feature","properties":{"art":"pfad"},"geometry":{"type":"LineString","coordinates":[[13.56938,52.59876],[13.56946,52.59871]]}},{"type":"Feature","properties":{"art":"pfad"},"geometry":{"type":"LineString","coordinates":[[13.57058,52.59534],[13.57065,52.59536]]}},{"type":"Feature","properties":{"art":"pfad"},"geometry":{"type":"LineString","coordinates":[[13.57052,52.59672],[13.57032,52.59652],[13.57035,52.59629],[13.57043,52.59608],[13.57081,52.59531],[13.57089,52.59512]]}},{"type":"Feature","properties":{"art":"pfad"},"geometry":{"type":"LineString","coordinates":[[13.57035,52.59673],[13.57052,52.59672]]}},{"type":"Feature","properties":{"art":"strasse"},"geometry":{"type":"LineString","coordinates":[[13.56929,52.59858],[13.56946,52.59871],[13.56957,52.59877],[13.5697,52.59883],[13.57033,52.59903],[13.57252,52.59973],[13.57285,52.59983],[13.57309,52.5999],[13.57337,52.59998],[13.57355,52.59999]]}},{"type":"Feature","properties":{"art":"pfad"},"geometry":{"type":"LineString","coordinates":[[13.61468,52.55849],[13.61441,52.55853]]}},{"type":"Feature","properties":{"art":"pfad"},"geometry":{"type":"LineString","coordinates":[[13.61862,52.56159],[13.61896,52.56198],[13.61911,52.56206]]}},{"type":"Feature","properties":{"art":"weg"},"geometry":{"type":"LineString","coordinates":[[13.61368,52.55898],[13.61366,52.55904],[13.61368,52.5591],[13.61366,52.55917],[13.61362,52.5594],[13.61346,52.55997],[13.6134,52.56028],[13.61322,52.56087],[13.61316,52.5611],[13.61319,52.56119],[13.61329,52.56128],[13.61351,52.5614],[13.61441,52.56194],[13.61457,52.56203],[13.61471,52.56204],[13.61492,52.56204],[13.61514,52.56211],[13.61565,52.56246],[13.61651,52.56292],[13.61693,52.56316],[13.61704,52.56322],[13.61714,52.56323],[13.61745,52.5631],[13.61785,52.56289],[13.61822,52.56267],[13.61867,52.56237],[13.61911,52.56206],[13.61934,52.56193]]}},{"type":"Feature","properties":{"art":"pfad"},"geometry":{"type":"LineString","coordinates":[[13.61441,52.55853],[13.61401,52.55862],[13.61376,52.55864]]}},{"type":"Feature","properties":{"art":"weg"},"geometry":{"type":"LineString","coordinates":[[13.61376,52.55864],[13.61176,52.55868]]}},{"type":"Feature","properties":{"art":"pfad"},"geometry":{"type":"LineString","coordinates":[[13.61376,52.55864],[13.61377,52.55878]]}},{"type":"Feature","properties":{"art":"pfad"},"geometry":{"type":"LineString","coordinates":[[13.61376,52.55885],[13.61377,52.55878]]}},{"type":"Feature","properties":{"art":"pfad"},"geometry":{"type":"LineString","coordinates":[[13.61376,52.55885],[13.61372,52.55894],[13.61368,52.55898]]}},{"type":"Feature","properties":{"art":"pfad"},"geometry":{"type":"LineString","coordinates":[[13.61366,52.55917],[13.61349,52.55917],[13.61324,52.5592],[13.61304,52.55925],[13.61302,52.55925]]}},{"type":"Feature","properties":{"art":"pfad"},"geometry":{"type":"LineString","coordinates":[[13.61176,52.55914],[13.61176,52.55914],[13.61173,52.55908],[13.61176,52.55868]]}},{"type":"Feature","properties":{"art":"pfad"},"geometry":{"type":"LineString","coordinates":[[13.6138,52.55823],[13.61384,52.55834],[13.61385,52.55847],[13.61376,52.55864]]}},{"type":"Feature","properties":{"art":"pfad"},"geometry":{"type":"LineString","coordinates":[[13.61176,52.55868],[13.61135,52.5587]]}},{"type":"Feature","properties":{"art":"pfad"},"geometry":{"type":"LineString","coordinates":[[13.60264,52.58966],[13.60247,52.5899],[13.60245,52.58993],[13.60223,52.59046],[13.60209,52.59068],[13.60196,52.59083],[13.60167,52.59102],[13.60155,52.59113],[13.60163,52.59125],[13.6019,52.59145]]}},{"type":"Feature","properties":{"art":"pfad"},"geometry":{"type":"LineString","coordinates":[[13.60111,52.58927],[13.60131,52.58938],[13.60217,52.58981],[13.60245,52.58993]]}},{"type":"Feature","properties":{"art":"strasse"},"geometry":{"type":"LineString","coordinates":[[13.58935,52.58876],[13.58935,52.58876],[13.58881,52.58907]]}},{"type":"Feature","properties":{"art":"strasse"},"geometry":{"type":"LineString","coordinates":[[13.58921,52.58936],[13.58893,52.5892]]}},{"type":"Feature","properties":{"art":"strasse"},"geometry":{"type":"LineString","coordinates":[[13.58804,52.58999],[13.58787,52.58989]]}},{"type":"Feature","properties":{"art":"strasse"},"geometry":{"type":"LineString","coordinates":[[13.58867,52.58967],[13.58843,52.58953]]}},{"type":"Feature","properties":{"art":"pfad"},"geometry":{"type":"LineString","coordinates":[[13.5993,52.58928],[13.59952,52.58921],[13.59967,52.58911],[13.59979,52.5889],[13.59986,52.58886],[13.59996,52.58885],[13.60013,52.58896],[13.60034,52.58905],[13.60095,52.58924],[13.60111,52.58927],[13.6012,52.58928],[13.60135,52.58928],[13.60147,52.58927],[13.60153,52.58923],[13.60164,52.58904]]}},{"type":"Feature","properties":{"art":"pfad"},"geometry":{"type":"LineString","coordinates":[[13.59939,52.59117],[13.59978,52.59152]]}},{"type":"Feature","properties":{"art":"pfad"},"geometry":{"type":"LineString","coordinates":[[13.59425,52.59052],[13.59445,52.59047],[13.59599,52.58899],[13.59713,52.588],[13.59726,52.58791],[13.59741,52.5879],[13.59759,52.58793],[13.59793,52.58812],[13.5993,52.58928],[13.60081,52.59054],[13.60155,52.59113]]}},{"type":"Feature","properties":{"art":"weg"},"geometry":{"type":"LineString","coordinates":[[13.60081,52.59054],[13.59939,52.59117],[13.59866,52.59149],[13.59632,52.59126],[13.59605,52.5913],[13.59593,52.59145],[13.59575,52.59157],[13.59555,52.5916],[13.59528,52.59162],[13.59508,52.59163]]}},{"type":"Feature","properties":{"art":"strasse"},"geometry":{"type":"LineString","coordinates":[[13.59669,52.59392],[13.59668,52.59393]]}},{"type":"Feature","properties":{"art":"strasse"},"geometry":{"type":"LineString","coordinates":[[13.5981,52.59431],[13.5972,52.59368],[13.59635,52.59308],[13.5962,52.59297],[13.59607,52.59285]]}},{"type":"Feature","properties":{"art":"strasse"},"geometry":{"type":"LineString","coordinates":[[13.59685,52.59403],[13.59683,52.59404]]}},{"type":"Feature","properties":{"art":"strasse"},"geometry":{"type":"LineString","coordinates":[[13.59702,52.59415],[13.597,52.59416]]}},{"type":"Feature","properties":{"art":"pfad"},"geometry":{"type":"LineString","coordinates":[[13.59791,52.59435],[13.597,52.59373],[13.59673,52.59356],[13.59615,52.59315],[13.59611,52.5931]]}},{"type":"Feature","properties":{"art":"strasse"},"geometry":{"type":"LineString","coordinates":[[13.59508,52.59163],[13.59425,52.59052],[13.59297,52.58882],[13.59263,52.58839],[13.59204,52.58762]]}},{"type":"Feature","properties":{"art":"strasse"},"geometry":{"type":"LineString","coordinates":[[13.59229,52.58877],[13.59253,52.58891],[13.59256,52.58893]]}},{"type":"Feature","properties":{"art":"strasse"},"geometry":{"type":"LineString","coordinates":[[13.59297,52.58882],[13.59286,52.58884],[13.59256,52.58893],[13.59251,52.58895]]}},{"type":"Feature","properties":{"art":"strasse"},"geometry":{"type":"LineString","coordinates":[[13.59251,52.58895],[13.59244,52.58897]]}},{"type":"Feature","properties":{"art":"pfad"},"geometry":{"type":"LineString","coordinates":[[13.59611,52.5931],[13.59607,52.59305],[13.59431,52.59077],[13.59286,52.58884],[13.59196,52.58766]]}},{"type":"Feature","properties":{"art":"weg"},"geometry":{"type":"LineString","coordinates":[[13.59251,52.58895],[13.59284,52.5894],[13.59293,52.58961],[13.59306,52.5898],[13.59313,52.58988],[13.59319,52.58999],[13.59318,52.59005]]}},{"type":"Feature","properties":{"art":"strasse"},"geometry":{"type":"LineString","coordinates":[[13.59607,52.59285],[13.59584,52.5926],[13.5953,52.59192],[13.59508,52.59163]]}},{"type":"Feature","properties":{"art":"pfad"},"geometry":{"type":"LineString","coordinates":[[13.59491,52.59225],[13.59494,52.59225],[13.59509,52.59226],[13.59514,52.59229],[13.59519,52.59234],[13.59521,52.59238],[13.59527,52.59242],[13.59532,52.59243],[13.59535,52.59246],[13.59537,52.59252],[13.59539,52.59261],[13.59543,52.59265],[13.59555,52.59266],[13.59579,52.59284],[13.59586,52.59295],[13.59592,52.59298],[13.59607,52.59305]]}},{"type":"Feature","properties":{"art":"strasse"},"geometry":{"type":"LineString","coordinates":[[13.59713,52.59425],[13.59711,52.59422],[13.59702,52.59415],[13.59685,52.59403],[13.59669,52.59392],[13.59643,52.59375]]}},{"type":"Feature","properties":{"art":"strasse"},"geometry":{"type":"LineString","coordinates":[[13.5895,52.58899],[13.58938,52.58892],[13.58893,52.5892],[13.58843,52.58953],[13.58787,52.58989],[13.58734,52.59023],[13.58756,52.59035]]}},{"type":"Feature","properties":{"art":"strasse"},"geometry":{"type":"LineString","coordinates":[[13.59561,52.60421],[13.59412,52.60316]]}},{"type":"Feature","properties":{"art":"pfad"},"geometry":{"type":"LineString","coordinates":[[13.58481,52.58849],[13.58479,52.58847],[13.58465,52.58829],[13.58464,52.58828]]}},{"type":"Feature","properties":{"art":"strasse"},"geometry":{"type":"LineString","coordinates":[[13.58468,52.58828],[13.58488,52.58851]]}},{"type":"Feature","properties":{"art":"strasse"},"geometry":{"type":"LineString","coordinates":[[13.58488,52.58851],[13.58527,52.58839]]}},{"type":"Feature","properties":{"art":"strasse"},"geometry":{"type":"LineString","coordinates":[[13.58589,52.5886],[13.58599,52.58872],[13.58604,52.58876],[13.58643,52.58892],[13.58643,52.58898],[13.58625,52.58913],[13.58613,52.58924],[13.58607,52.58927],[13.58602,52.58929],[13.58588,52.58943]]}},{"type":"Feature","properties":{"art":"strasse"},"geometry":{"type":"LineString","coordinates":[[13.58643,52.58892],[13.58659,52.58898]]}},{"type":"Feature","properties":{"art":"strasse"},"geometry":{"type":"LineString","coordinates":[[13.58581,52.58895],[13.58625,52.58913]]}},{"type":"Feature","properties":{"art":"strasse"},"geometry":{"type":"LineString","coordinates":[[13.58481,52.58854],[13.58486,52.58859],[13.58522,52.58873]]}},{"type":"Feature","properties":{"art":"pfad"},"geometry":{"type":"LineString","coordinates":[[13.58277,52.58907],[13.58284,52.58905],[13.58291,52.58903],[13.58295,52.58906],[13.58299,52.58906],[13.58304,52.58906],[13.58477,52.58852],[13.58481,52.58849]]}},{"type":"Feature","properties":{"art":"strasse"},"geometry":{"type":"LineString","coordinates":[[13.58291,52.58913],[13.58385,52.58884],[13.58411,52.58875],[13.58481,52.58854],[13.58488,52.58851]]}},{"type":"Feature","properties":{"art":"strasse"},"geometry":{"type":"LineString","coordinates":[[13.58411,52.58875],[13.58418,52.5888],[13.5844,52.58887],[13.58477,52.58901]]}},{"type":"Feature","properties":{"art":"pfad"},"geometry":{"type":"LineString","coordinates":[[13.58385,52.58884],[13.5838,52.58894],[13.58359,52.58915],[13.58352,52.5893],[13.58344,52.58939],[13.58342,52.58955]]}},{"type":"Feature","properties":{"art":"strasse"},"geometry":{"type":"LineString","coordinates":[[13.58297,52.5892],[13.58307,52.58933],[13.58312,52.58939],[13.58319,52.58948],[13.58374,52.59011],[13.58396,52.59038],[13.58401,52.59044],[13.58408,52.59049],[13.58423,52.59059]]}},{"type":"Feature","properties":{"art":"pfad"},"geometry":{"type":"LineString","coordinates":[[13.58319,52.58948],[13.58342,52.58955],[13.58385,52.58971],[13.58426,52.58982],[13.58511,52.59016],[13.58635,52.59062]]}},{"type":"Feature","properties":{"art":"strasse"},"geometry":{"type":"LineString","coordinates":[[13.58423,52.59059],[13.5855,52.59109],[13.58557,52.59113]]}},{"type":"Feature","properties":{"art":"strasse"},"geometry":{"type":"LineString","coordinates":[[13.58625,52.58913],[13.5863,52.58915]]}},{"type":"Feature","properties":{"art":"strasse"},"geometry":{"type":"LineString","coordinates":[[13.58599,52.58924],[13.58607,52.58927]]}},{"type":"Feature","properties":{"art":"pfad"},"geometry":{"type":"LineString","coordinates":[[13.58588,52.58943],[13.58593,52.58946],[13.58596,52.58947],[13.58611,52.58954],[13.58621,52.58961],[13.58633,52.58972],[13.58647,52.58983],[13.58669,52.58996],[13.58687,52.59007],[13.58705,52.59016]]}},{"type":"Feature","properties":{"art":"strasse"},"geometry":{"type":"LineString","coordinates":[[13.58677,52.58977],[13.58676,52.58981],[13.58699,52.58989],[13.5871,52.58995],[13.58723,52.59003]]}},{"type":"Feature","properties":{"art":"strasse"},"geometry":{"type":"LineString","coordinates":[[13.58723,52.59003],[13.58705,52.59016],[13.58635,52.59062],[13.58564,52.59111],[13.58557,52.59113]]}},{"type":"Feature","properties":{"art":"weg"},"geometry":{"type":"LineString","coordinates":[[13.58367,52.59321],[13.58325,52.59291]]}},{"type":"Feature","properties":{"art":"strasse"},"geometry":{"type":"LineString","coordinates":[[13.58266,52.59118],[13.58296,52.59109]]}},{"type":"Feature","properties":{"art":"strasse"},"geometry":{"type":"LineString","coordinates":[[13.58358,52.5909],[13.58379,52.59084],[13.58394,52.59078],[13.58405,52.59071],[13.58423,52.59059]]}},{"type":"Feature","properties":{"art":"strasse"},"geometry":{"type":"LineString","coordinates":[[13.58308,52.59167],[13.58342,52.59157]]}},{"type":"Feature","properties":{"art":"strasse"},"geometry":{"type":"LineString","coordinates":[[13.58557,52.59113],[13.58554,52.59115],[13.58507,52.59149]]}},{"type":"Feature","properties":{"art":"strasse"},"geometry":{"type":"LineString","coordinates":[[13.58404,52.59223],[13.58387,52.59235],[13.58377,52.59237]]}},{"type":"Feature","properties":{"art":"pfad"},"geometry":{"type":"LineString","coordinates":[[13.58371,52.59248],[13.58368,52.59247],[13.58361,52.59241],[13.58363,52.5924],[13.58376,52.59242],[13.58377,52.59237]]}},{"type":"Feature","properties":{"art":"pfad"},"geometry":{"type":"LineString","coordinates":[[13.58365,52.59259],[13.58364,52.59256],[13.58361,52.59254],[13.58362,52.59253],[13.58365,52.59252],[13.58369,52.5925],[13.5837,52.5925],[13.58372,52.5925],[13.58371,52.59248]]}},{"type":"Feature","properties":{"art":"pfad"},"geometry":{"type":"LineString","coordinates":[[13.58325,52.59291],[13.58353,52.59269],[13.58365,52.59259]]}},{"type":"Feature","properties":{"art":"strasse"},"geometry":{"type":"LineString","coordinates":[[13.58752,52.58984],[13.58744,52.58981],[13.587,52.58964]]}},{"type":"Feature","properties":{"art":"strasse"},"geometry":{"type":"LineString","coordinates":[[13.58795,52.58958],[13.58771,52.58972],[13.58752,52.58984],[13.58738,52.58993],[13.58723,52.59003]]}},{"type":"Feature","properties":{"art":"pfad"},"geometry":{"type":"LineString","coordinates":[[13.5845,52.60882],[13.58475,52.60901],[13.58488,52.60914],[13.58505,52.60928],[13.58512,52.60928],[13.58575,52.60906],[13.58666,52.60872],[13.58713,52.60859],[13.58743,52.60849],[13.58747,52.60847]]}},{"type":"Feature","properties":{"art":"pfad"},"geometry":{"type":"LineString","coordinates":[[13.58984,52.60751],[13.58992,52.60749],[13.59032,52.60734],[13.5907,52.60713],[13.5914,52.60683],[13.59179,52.60667],[13.5922,52.60644]]}},{"type":"Feature","properties":{"art":"pfad"},"geometry":{"type":"LineString","coordinates":[[13.59306,52.60604],[13.59408,52.60559],[13.59471,52.60536],[13.59515,52.6052],[13.59579,52.6049],[13.59636,52.6046]]}},{"type":"Feature","properties":{"art":"pfad"},"geometry":{"type":"LineString","coordinates":[[13.59636,52.6046],[13.59662,52.60438],[13.59668,52.60433]]}},{"type":"Feature","properties":{"art":"strasse"},"geometry":{"type":"LineString","coordinates":[[13.59636,52.6046],[13.59678,52.60474]]}},{"type":"Feature","properties":{"art":"strasse"},"geometry":{"type":"LineString","coordinates":[[13.59561,52.60421],[13.59605,52.60447],[13.59636,52.6046]]}},{"type":"Feature","properties":{"art":"strasse"},"geometry":{"type":"LineString","coordinates":[[13.64787,52.5695],[13.64855,52.56946],[13.64984,52.56942],[13.65054,52.56939],[13.65181,52.56934],[13.65182,52.56934]]}},{"type":"Feature","properties":{"art":"strasse"},"geometry":{"type":"LineString","coordinates":[[13.64682,52.56954],[13.64787,52.5695]]}},{"type":"Feature","properties":{"art":"pfad"},"geometry":{"type":"LineString","coordinates":[[13.64252,52.5763],[13.64254,52.57624],[13.6425,52.57617],[13.6425,52.57613],[13.64252,52.57609],[13.64264,52.576],[13.64288,52.5758],[13.64325,52.57544],[13.64329,52.57533],[13.64332,52.57527],[13.64336,52.57521],[13.64342,52.57516],[13.6436,52.57506],[13.64379,52.57485],[13.64418,52.57438],[13.64426,52.57428],[13.64437,52.57418],[13.64442,52.57412],[13.64448,52.57406],[13.64452,52.574],[13.64453,52.57398]]}},{"type":"Feature","properties":{"art":"pfad"},"geometry":{"type":"LineString","coordinates":[[13.64604,52.57215],[13.6461,52.57211],[13.64627,52.5719],[13.64632,52.57185],[13.64637,52.57181],[13.64643,52.57178],[13.64656,52.57172],[13.64669,52.57167],[13.6468,52.57164],[13.64683,52.5716],[13.64687,52.57156],[13.64688,52.57141],[13.64693,52.57119],[13.64695,52.57111],[13.64694,52.57106],[13.64689,52.57096],[13.64688,52.57093],[13.64687,52.57087],[13.64687,52.57081],[13.6469,52.57076],[13.64692,52.57071],[13.64697,52.57064],[13.64704,52.5706],[13.6471,52.57057],[13.64721,52.57056],[13.64735,52.57054],[13.64761,52.57054],[13.64783,52.57055],[13.64792,52.57055],[13.64802,52.57052],[13.64809,52.57049],[13.64822,52.57037],[13.64826,52.5703],[13.64828,52.57025],[13.6483,52.57017],[13.64832,52.57012],[13.6484,52.57006],[13.64852,52.56999],[13.64859,52.56995],[13.64871,52.56987],[13.64884,52.56983],[13.64901,52.56982],[13.64923,52.56981],[13.64947,52.56979],[13.64976,52.56975],[13.65002,52.56972],[13.65028,52.56971],[13.65046,52.56967],[13.65054,52.5696],[13.65054,52.56939]]}},{"type":"Feature","properties":{"art":"strasse"},"geometry":{"type":"LineString","coordinates":[[13.65084,52.57693],[13.65084,52.5769],[13.65085,52.57684],[13.65086,52.57676],[13.65087,52.57669]]}},{"type":"Feature","properties":{"art":"strasse"},"geometry":{"type":"LineString","coordinates":[[13.65115,52.5754],[13.65203,52.57422]]}},{"type":"Feature","properties":{"art":"strasse"},"geometry":{"type":"LineString","coordinates":[[13.65213,52.57349],[13.65215,52.57334]]}},{"type":"Feature","properties":{"art":"strasse"},"geometry":{"type":"LineString","coordinates":[[13.6481,52.57546],[13.64746,52.57544],[13.64668,52.57541],[13.64657,52.57541],[13.64655,52.57543],[13.64653,52.57561]]}},{"type":"Feature","properties":{"art":"strasse"},"geometry":{"type":"LineString","coordinates":[[13.64636,52.57573],[13.64604,52.57573]]}},{"type":"Feature","properties":{"art":"strasse"},"geometry":{"type":"LineString","coordinates":[[13.64682,52.56954],[13.64647,52.56955],[13.64588,52.56956],[13.64548,52.56956],[13.64447,52.56959],[13.6444,52.56959],[13.64369,52.56959]]}},{"type":"Feature","properties":{"art":"weg"},"geometry":{"type":"LineString","coordinates":[[13.63303,52.58241],[13.63249,52.5823],[13.63209,52.5822],[13.63172,52.5821],[13.63151,52.58203],[13.63124,52.58194],[13.63092,52.58181],[13.63068,52.58171],[13.6304,52.58157],[13.63008,52.5814],[13.62994,52.58131],[13.62966,52.58112],[13.62945,52.58095],[13.62934,52.58086],[13.62925,52.58079]]}},{"type":"Feature","properties":{"art":"pfad"},"geometry":{"type":"LineString","coordinates":[[13.64442,52.56919],[13.6444,52.56923]]}},{"type":"Feature","properties":{"art":"pfad"},"geometry":{"type":"LineString","coordinates":[[13.6444,52.56923],[13.64445,52.56944],[13.64446,52.56949],[13.64447,52.56959]]}},{"type":"Feature","properties":{"art":"pfad"},"geometry":{"type":"LineString","coordinates":[[13.6444,52.56923],[13.64432,52.56923],[13.64413,52.56925]]}},{"type":"Feature","properties":{"art":"pfad"},"geometry":{"type":"LineString","coordinates":[[13.6438,52.56936],[13.64379,52.56936]]}},{"type":"Feature","properties":{"art":"strasse"},"geometry":{"type":"LineString","coordinates":[[13.64294,52.57635],[13.64252,52.5763],[13.64231,52.57627],[13.6417,52.5762]]}},{"type":"Feature","properties":{"art":"pfad"},"geometry":{"type":"LineString","coordinates":[[13.63764,52.58081],[13.63757,52.58087],[13.63741,52.58138],[13.63751,52.5815],[13.63764,52.58165],[13.6377,52.58191]]}},{"type":"Feature","properties":{"art":"pfad"},"geometry":{"type":"LineString","coordinates":[[13.63774,52.58215],[13.63771,52.58244],[13.63771,52.5828],[13.63767,52.58307],[13.63766,52.58308],[13.63762,52.58317]]}},{"type":"Feature","properties":{"art":"weg"},"geometry":{"type":"LineString","coordinates":[[13.63707,52.58313],[13.63722,52.58313],[13.63735,52.58314],[13.63762,52.58317],[13.63774,52.58319],[13.6381,52.58326],[13.63821,52.58328],[13.63823,52.58328]]}},{"type":"Feature","properties":{"art":"weg"},"geometry":{"type":"LineString","coordinates":[[13.62931,52.58101],[13.62948,52.58113],[13.62956,52.58118],[13.62967,52.58123],[13.62977,52.5813],[13.62989,52.58143],[13.63014,52.58159]]}},{"type":"Feature","properties":{"art":"weg"},"geometry":{"type":"LineString","coordinates":[[13.62851,52.58254],[13.62855,52.5825],[13.62871,52.58234],[13.62885,52.58219],[13.62905,52.58195],[13.62922,52.58173],[13.62937,52.58153],[13.62943,52.58142],[13.62944,52.58133],[13.62942,52.58124],[13.62935,52.58114],[13.62932,52.58108],[13.62931,52.58101],[13.62928,52.58097],[13.62929,52.58092],[13.62932,52.58088],[13.62934,52.58086]]}},{"type":"Feature","properties":{"art":"weg"},"geometry":{"type":"LineString","coordinates":[[13.62956,52.58275],[13.62956,52.58269],[13.62951,52.58264],[13.62946,52.58262],[13.62936,52.58262],[13.62913,52.58269],[13.62892,52.5828],[13.62889,52.58282]]}},{"type":"Feature","properties":{"art":"weg"},"geometry":{"type":"LineString","coordinates":[[13.62888,52.5849],[13.62893,52.58486],[13.62916,52.58459],[13.62925,52.58445],[13.62927,52.58421],[13.62923,52.58377],[13.62921,52.58364],[13.62921,52.58354],[13.62922,52.58347],[13.62924,52.5834],[13.62931,52.58326],[13.62951,52.58286],[13.62956,52.58275]]}},{"type":"Feature","properties":{"art":"weg"},"geometry":{"type":"LineString","coordinates":[[13.63707,52.58313],[13.63701,52.58316],[13.63671,52.58323],[13.63644,52.58329],[13.63621,52.58334],[13.63613,52.58338],[13.63599,52.58346],[13.63583,52.58347],[13.63565,52.58344],[13.63546,52.5834],[13.6353,52.58339],[13.63518,52.58342],[13.63506,52.58349],[13.63494,52.58363],[13.63483,52.58392],[13.6348,52.58419],[13.63473,52.58437],[13.63475,52.58451],[13.63474,52.58459],[13.6347,52.58467],[13.63454,52.58471],[13.63428,52.58476],[13.63396,52.58485],[13.63388,52.58506],[13.63383,52.58542],[13.63378,52.58561],[13.63373,52.5858],[13.63366,52.58589],[13.6335,52.58598],[13.63338,52.58604],[13.63324,52.58615],[13.633,52.58632],[13.63264,52.58659],[13.63253,52.58665],[13.63241,52.5867],[13.63225,52.5867],[13.6321,52.58665],[13.63129,52.58638],[13.63093,52.58627],[13.63069,52.58621],[13.63049,52.5865],[13.63014,52.58693],[13.63,52.58709]]}},{"type":"Feature","properties":{"art":"weg"},"geometry":{"type":"LineString","coordinates":[[13.61367,52.59926],[13.61337,52.59941],[13.61326,52.59947],[13.61315,52.59951]]}},{"type":"Feature","properties":{"art":"pfad"},"geometry":{"type":"LineString","coordinates":[[13.61168,52.5999],[13.61177,52.59964],[13.61179,52.59961],[13.61187,52.59946],[13.61194,52.59943],[13.61205,52.59942],[13.61217,52.59944],[13.6126,52.59959],[13.61316,52.59973],[13.61332,52.59977]]}},{"type":"Feature","properties":{"art":"pfad"},"geometry":{"type":"LineString","coordinates":[[13.6093,52.60051],[13.60939,52.60047],[13.60959,52.60044],[13.60985,52.60043],[13.61021,52.60041],[13.61038,52.60037],[13.6106,52.6003],[13.61079,52.60021],[13.61106,52.6001],[13.61123,52.60004],[13.61139,52.59997],[13.61157,52.59992],[13.61168,52.5999],[13.61178,52.59999],[13.61189,52.60004],[13.61204,52.60006],[13.61207,52.60008],[13.61213,52.60012],[13.61219,52.60018],[13.61219,52.60025],[13.61217,52.60029],[13.61219,52.60031],[13.61222,52.60036],[13.61226,52.60043],[13.61231,52.6005],[13.61241,52.60058],[13.61248,52.60064],[13.61262,52.60072],[13.61277,52.60079],[13.61298,52.60086],[13.61311,52.60093],[13.61325,52.60101],[13.61334,52.60112],[13.61345,52.60122],[13.61363,52.60135]]}},{"type":"Feature","properties":{"art":"pfad"},"geometry":{"type":"LineString","coordinates":[[13.60898,52.60087],[13.60895,52.6008],[13.60897,52.60076],[13.609,52.60072],[13.60903,52.60069],[13.60911,52.60063],[13.60916,52.6006],[13.60921,52.60056],[13.6093,52.60051]]}},{"type":"Feature","properties":{"art":"weg"},"geometry":{"type":"LineString","coordinates":[[13.60898,52.60087],[13.60927,52.60148]]}},{"type":"Feature","properties":{"art":"strasse"},"geometry":{"type":"LineString","coordinates":[[13.61377,52.60137],[13.61363,52.60135],[13.61332,52.60135],[13.61269,52.60135],[13.61242,52.60136],[13.61212,52.60137],[13.61179,52.60138],[13.61155,52.60139],[13.61153,52.60139],[13.6115,52.60139],[13.61127,52.6014],[13.61123,52.6014],[13.61098,52.60141],[13.6106,52.60142],[13.61038,52.60143],[13.61005,52.60145],[13.60927,52.60148]]}},{"type":"Feature","properties":{"art":"pfad"},"geometry":{"type":"LineString","coordinates":[[13.61345,52.60175],[13.61349,52.60171],[13.61356,52.60162],[13.6136,52.60156],[13.61359,52.60151]]}},{"type":"Feature","properties":{"art":"strasse"},"geometry":{"type":"LineString","coordinates":[[13.67199,52.57785],[13.67139,52.57735],[13.67077,52.57691]]}},{"type":"Feature","properties":{"art":"weg"},"geometry":{"type":"LineString","coordinates":[[13.66683,52.57551],[13.66681,52.57555],[13.66674,52.57571],[13.66672,52.57577],[13.66672,52.57583],[13.66672,52.57585],[13.66677,52.57591],[13.66688,52.57597],[13.6675,52.57636],[13.66827,52.57684],[13.6689,52.57722],[13.66947,52.57756],[13.66978,52.57774]]}},{"type":"Feature","properties":{"art":"pfad"},"geometry":{"type":"LineString","coordinates":[[13.66572,52.5783],[13.6657,52.57824],[13.66573,52.57812],[13.66578,52.57797],[13.66593,52.57763],[13.66604,52.57738],[13.66616,52.57709],[13.66627,52.57682],[13.66636,52.57664],[13.66645,52.5765],[13.66648,52.57632],[13.66662,52.57596],[13.66672,52.57585]]}},{"type":"Feature","properties":{"art":"strasse"},"geometry":{"type":"LineString","coordinates":[[13.64891,52.57666],[13.64891,52.57662],[13.64896,52.57648],[13.64897,52.57643]]}},{"type":"Feature","properties":{"art":"strasse"},"geometry":{"type":"LineString","coordinates":[[13.64844,52.5764],[13.64841,52.57663],[13.64839,52.57676],[13.64838,52.57681]]}},{"type":"Feature","properties":{"art":"strasse"},"geometry":{"type":"LineString","coordinates":[[13.6477,52.57678],[13.6477,52.57673],[13.64771,52.57667],[13.64767,52.57654],[13.64769,52.57636]]}},{"type":"Feature","properties":{"art":"strasse"},"geometry":{"type":"LineString","coordinates":[[13.64829,52.57649],[13.64841,52.57663]]}},{"type":"Feature","properties":{"art":"strasse"},"geometry":{"type":"LineString","coordinates":[[13.65067,52.57668],[13.65068,52.57668],[13.65077,52.57673],[13.65086,52.57676]]}},{"type":"Feature","properties":{"art":"strasse"},"geometry":{"type":"LineString","coordinates":[[13.64888,52.57683],[13.6489,52.57673],[13.64891,52.57666],[13.65086,52.57676]]}},{"type":"Feature","properties":{"art":"strasse"},"geometry":{"type":"LineString","coordinates":[[13.65371,52.57707],[13.65342,52.57705],[13.65287,52.57703],[13.652,52.57699],[13.65159,52.57697],[13.65084,52.57693],[13.64888,52.57683],[13.64838,52.57681],[13.6477,52.57678],[13.64646,52.57671],[13.64597,52.57669],[13.6454,52.57665],[13.64509,52.57661],[13.64496,52.5766],[13.64299,52.57636],[13.64294,52.57635]]}},{"type":"Feature","properties":{"art":"strasse"},"geometry":{"type":"LineString","coordinates":[[13.652,52.57699],[13.65202,52.57683]]}},{"type":"Feature","properties":{"art":"strasse"},"geometry":{"type":"LineString","coordinates":[[13.67365,52.57755],[13.67369,52.57771]]}},{"type":"Feature","properties":{"art":"strasse"},"geometry":{"type":"LineString","coordinates":[[13.67199,52.57785],[13.67369,52.57771],[13.6741,52.57767]]}},{"type":"Feature","properties":{"art":"pfad"},"geometry":{"type":"LineString","coordinates":[[13.66978,52.57774],[13.67009,52.57792],[13.67017,52.57797]]}},{"type":"Feature","properties":{"art":"strasse"},"geometry":{"type":"LineString","coordinates":[[13.67208,52.57795],[13.67199,52.57785]]}},{"type":"Feature","properties":{"art":"strasse"},"geometry":{"type":"LineString","coordinates":[[13.66501,52.57834],[13.66572,52.5783],[13.66605,52.57828],[13.66696,52.57821],[13.66734,52.57818],[13.66912,52.57805],[13.67017,52.57797],[13.67074,52.57793]]}},{"type":"Feature","properties":{"art":"strasse"},"geometry":{"type":"LineString","coordinates":[[13.67118,52.5779],[13.67126,52.57789],[13.67199,52.57785]]}},{"type":"Feature","properties":{"art":"strasse"},"geometry":{"type":"LineString","coordinates":[[13.65342,52.57705],[13.65341,52.57713],[13.6534,52.57726],[13.65344,52.57728],[13.65358,52.57732],[13.65404,52.57738]]}},{"type":"Feature","properties":{"art":"strasse"},"geometry":{"type":"LineString","coordinates":[[13.65287,52.57703],[13.65286,52.57711],[13.65284,52.57725],[13.6534,52.57726],[13.65341,52.57731],[13.6533,52.57825],[13.65398,52.57828]]}},{"type":"Feature","properties":{"art":"strasse"},"geometry":{"type":"LineString","coordinates":[[13.65159,52.57697],[13.65145,52.57835],[13.65138,52.57909],[13.65146,52.57917]]}},{"type":"Feature","properties":{"art":"strasse"},"geometry":{"type":"LineString","coordinates":[[13.65145,52.57835],[13.65321,52.57843],[13.65327,52.5784],[13.6533,52.57825]]}},{"type":"Feature","properties":{"art":"strasse"},"geometry":{"type":"LineString","coordinates":[[13.65327,52.5784],[13.65325,52.57845],[13.65322,52.57868]]}},{"type":"Feature","properties":{"art":"strasse"},"geometry":{"type":"LineString","coordinates":[[13.65316,52.57906],[13.65315,52.57915]]}},{"type":"Feature","properties":{"art":"weg"},"geometry":{"type":"LineString","coordinates":[[13.65223,52.58115],[13.65193,52.58106],[13.65018,52.581]]}},{"type":"Feature","properties":{"art":"weg"},"geometry":{"type":"LineString","coordinates":[[13.65002,52.58099],[13.64944,52.58097],[13.64913,52.58093],[13.64816,52.58069],[13.64743,52.58051],[13.64675,52.58037],[13.64649,52.5803],[13.64625,52.58019],[13.64612,52.58009],[13.64495,52.57908],[13.64403,52.57787],[13.64332,52.57695],[13.64293,52.5764],[13.64294,52.57635]]}},{"type":"Feature","properties":{"art":"weg"},"geometry":{"type":"LineString","coordinates":[[13.65146,52.57917],[13.65144,52.57926],[13.65141,52.57934],[13.65137,52.57943],[13.65123,52.57963],[13.65117,52.57968],[13.65111,52.57982],[13.65105,52.57989],[13.65093,52.57992],[13.6507,52.57996],[13.65048,52.58001],[13.65036,52.58002],[13.65026,52.57999],[13.65014,52.57999],[13.64981,52.57999],[13.6482,52.57982],[13.64697,52.57951],[13.64495,52.57908]]}},{"type":"Feature","properties":{"art":"strasse"},"geometry":{"type":"LineString","coordinates":[[13.65347,52.58009],[13.65346,52.58008],[13.65337,52.58001],[13.65288,52.57982],[13.65285,52.57975],[13.65288,52.57965],[13.65293,52.5795],[13.65293,52.57942],[13.65297,52.57933],[13.65303,52.57927],[13.6531,52.57921],[13.65315,52.57915]]}},{"type":"Feature","properties":{"art":"strasse"},"geometry":{"type":"LineString","coordinates":[[13.67234,52.5782],[13.67223,52.57811],[13.67208,52.57795]]}},{"type":"Feature","properties":{"art":"weg"},"geometry":{"type":"LineString","coordinates":[[13.67056,52.58692],[13.67068,52.58659],[13.67086,52.58627],[13.67102,52.58603],[13.67114,52.58588],[13.67136,52.5857],[13.67154,52.58555],[13.67187,52.585],[13.6721,52.58465],[13.6722,52.5844],[13.67253,52.58436],[13.67398,52.58427],[13.67488,52.58423],[13.67533,52.58433],[13.67566,52.58439],[13.67592,52.58442],[13.67622,52.5844],[13.67662,52.58436],[13.67707,52.58435],[13.67744,52.58436]]}},{"type":"Feature","properties":{"art":"pfad"},"geometry":{"type":"LineString","coordinates":[[13.67744,52.58436],[13.67738,52.58439],[13.677,52.58461],[13.67667,52.58505],[13.67619,52.58588],[13.67606,52.58598],[13.67588,52.58604],[13.67555,52.58609],[13.67492,52.58612],[13.67467,52.58609],[13.6743,52.5861],[13.67234,52.58657],[13.67117,52.58673],[13.67075,52.58679],[13.67056,52.58692],[13.67051,52.58715]]}},{"type":"Feature","properties":{"art":"pfad"},"geometry":{"type":"LineString","coordinates":[[13.67222,52.58845],[13.67285,52.58811],[13.67477,52.58671],[13.67503,52.58647],[13.675,52.58634],[13.67492,52.58612]]}},{"type":"Feature","properties":{"art":"weg"},"geometry":{"type":"LineString","coordinates":[[13.6715,52.58868],[13.67209,52.58876],[13.67253,52.58879],[13.67279,52.58884]]}},{"type":"Feature","properties":{"art":"pfad"},"geometry":{"type":"LineString","coordinates":[[13.65298,52.58793],[13.65299,52.58793],[13.65324,52.58791],[13.65337,52.58787],[13.65347,52.58782],[13.65434,52.58698],[13.65451,52.58682],[13.65458,52.5867],[13.65462,52.58644],[13.65462,52.58642]]}},{"type":"Feature","properties":{"art":"pfad"},"geometry":{"type":"LineString","coordinates":[[13.65948,52.58773],[13.65942,52.58779],[13.65917,52.58791],[13.65867,52.5881],[13.65846,52.58821],[13.65835,52.5883],[13.65831,52.58837],[13.65832,52.5885],[13.65832,52.5885]]}},{"type":"Feature","properties":{"art":"pfad"},"geometry":{"type":"LineString","coordinates":[[13.65868,52.59033],[13.65865,52.59043],[13.65859,52.59055],[13.65859,52.59065],[13.65863,52.59074]]}},{"type":"Feature","properties":{"art":"pfad"},"geometry":{"type":"LineString","coordinates":[[13.65791,52.59112],[13.65785,52.5911],[13.65758,52.59102],[13.65747,52.59094],[13.65741,52.59084],[13.65735,52.5906],[13.65728,52.59045],[13.65718,52.59029],[13.6571,52.59023],[13.65696,52.59017],[13.65678,52.59013],[13.65633,52.59005],[13.65615,52.59],[13.65601,52.58993],[13.65522,52.58936],[13.65511,52.58933],[13.65501,52.58934],[13.65492,52.58935],[13.6547,52.58944]]}},{"type":"Feature","properties":{"art":"weg"},"geometry":{"type":"LineString","coordinates":[[13.67279,52.58884],[13.67276,52.58879],[13.67222,52.58845],[13.67062,52.58739],[13.67054,52.58725],[13.67051,52.58715]]}},{"type":"Feature","properties":{"art":"strasse"},"geometry":{"type":"LineString","coordinates":[[13.67279,52.58884],[13.67302,52.58886],[13.67416,52.58906],[13.67572,52.58936],[13.67597,52.58943],[13.67618,52.58951],[13.67635,52.58955],[13.67704,52.58965]]}},{"type":"Feature","properties":{"art":"strasse"},"geometry":{"type":"LineString","coordinates":[[13.67215,52.58964],[13.6725,52.58925],[13.67279,52.58884]]}},{"type":"Feature","properties":{"art":"weg"},"geometry":{"type":"LineString","coordinates":[[13.68412,52.59769],[13.6842,52.59768],[13.68429,52.59767],[13.68438,52.59767],[13.68448,52.59768],[13.68467,52.59772]]}},{"type":"Feature","properties":{"art":"strasse"},"geometry":{"type":"LineString","coordinates":[[13.67546,52.60503],[13.67534,52.60497],[13.67519,52.60506]]}},{"type":"Feature","properties":{"art":"weg"},"geometry":{"type":"LineString","coordinates":[[13.63384,52.58258],[13.63303,52.58241]]}},{"type":"Feature","properties":{"art":"weg"},"geometry":{"type":"LineString","coordinates":[[13.63384,52.58258],[13.63445,52.5827],[13.63518,52.58285],[13.63602,52.58298],[13.63627,52.58301],[13.63669,52.58307],[13.63707,52.58313]]}},{"type":"Feature","properties":{"art":"pfad"},"geometry":{"type":"LineString","coordinates":[[13.63333,52.58465],[13.63334,52.58456],[13.63336,52.58436],[13.63339,52.58423],[13.63342,52.58412],[13.63349,52.58404],[13.63356,52.58401],[13.63369,52.58397],[13.63403,52.58393],[13.63426,52.58392],[13.63438,52.58393],[13.63448,52.58396],[13.63461,52.58396],[13.63483,52.58392]]}},{"type":"Feature","properties":{"art":"pfad"},"geometry":{"type":"LineString","coordinates":[[13.63069,52.58621],[13.63071,52.58615],[13.6308,52.58603],[13.63109,52.58571],[13.63125,52.58551],[13.63154,52.58518],[13.63179,52.5849],[13.63193,52.58471],[13.63208,52.58458],[13.63232,52.58456],[13.63287,52.58461],[13.63333,52.58465],[13.63341,52.58471],[13.63363,52.5848],[13.63378,52.58483],[13.63396,52.58485]]}},{"type":"Feature","properties":{"art":"strasse"},"geometry":{"type":"LineString","coordinates":[[13.61377,52.60137],[13.61381,52.60133],[13.61382,52.60127],[13.61362,52.60059],[13.61359,52.60043],[13.6135,52.60014],[13.61344,52.59997],[13.61336,52.59983],[13.61332,52.59977],[13.6133,52.59973],[13.61315,52.59951],[13.61289,52.59914],[13.61263,52.5988]]}},{"type":"Feature","properties":{"art":"strasse"},"geometry":{"type":"LineString","coordinates":[[13.61388,52.60139],[13.61377,52.60137]]}},{"type":"Feature","properties":{"art":"strasse"},"geometry":{"type":"LineString","coordinates":[[13.61427,52.60149],[13.61401,52.60142],[13.61388,52.60139]]}},{"type":"Feature","properties":{"art":"strasse"},"geometry":{"type":"LineString","coordinates":[[13.61377,52.60137],[13.61367,52.60146],[13.61359,52.60151],[13.61305,52.60174]]}},{"type":"Feature","properties":{"art":"strasse"},"geometry":{"type":"LineString","coordinates":[[13.58796,52.58812],[13.58876,52.58904],[13.58881,52.58907]]}},{"type":"Feature","properties":{"art":"strasse"},"geometry":{"type":"LineString","coordinates":[[13.58881,52.58907],[13.58795,52.58958]]}},{"type":"Feature","properties":{"art":"pfad"},"geometry":{"type":"LineString","coordinates":[[13.58283,52.58915],[13.58277,52.58907],[13.58256,52.58884]]}},{"type":"Feature","properties":{"art":"strasse"},"geometry":{"type":"LineString","coordinates":[[13.58264,52.58879],[13.58284,52.58905],[13.58291,52.58913]]}},{"type":"Feature","properties":{"art":"strasse"},"geometry":{"type":"LineString","coordinates":[[13.57761,52.58538],[13.57782,52.58533]]}},{"type":"Feature","properties":{"art":"strasse"},"geometry":{"type":"LineString","coordinates":[[13.57849,52.5864],[13.57874,52.58634]]}},{"type":"Feature","properties":{"art":"strasse"},"geometry":{"type":"LineString","coordinates":[[13.57852,52.58644],[13.57863,52.5864],[13.57876,52.58636]]}},{"type":"Feature","properties":{"art":"strasse"},"geometry":{"type":"LineString","coordinates":[[13.57931,52.58735],[13.57955,52.58728]]}},{"type":"Feature","properties":{"art":"strasse"},"geometry":{"type":"LineString","coordinates":[[13.57679,52.58443],[13.57761,52.58538],[13.57766,52.58544],[13.57849,52.5864],[13.57852,52.58644],[13.57931,52.58735],[13.57964,52.58774],[13.58023,52.58843],[13.58061,52.58887],[13.58121,52.58957],[13.58131,52.58962],[13.58174,52.59012],[13.58216,52.5906],[13.58266,52.59118],[13.58268,52.59122],[13.58308,52.59167],[13.5836,52.59228],[13.58367,52.59234],[13.58377,52.59237]]}},{"type":"Feature","properties":{"art":"strasse"},"geometry":{"type":"LineString","coordinates":[[13.57964,52.58774],[13.57976,52.58771],[13.57988,52.58767]]}},{"type":"Feature","properties":{"art":"pfad"},"geometry":{"type":"LineString","coordinates":[[13.58094,52.59027],[13.58051,52.58979],[13.58043,52.58971],[13.58002,52.58928],[13.5796,52.58871],[13.57912,52.58818],[13.57879,52.58783],[13.57835,52.58737],[13.57785,52.58682],[13.57752,52.58644],[13.57721,52.58607],[13.57702,52.58583]]}},{"type":"Feature","properties":{"art":"strasse"},"geometry":{"type":"LineString","coordinates":[[13.58023,52.58843],[13.58049,52.58834]]}},{"type":"Feature","properties":{"art":"pfad"},"geometry":{"type":"LineString","coordinates":[[13.58043,52.58971],[13.57987,52.58987],[13.57927,52.59001],[13.57846,52.59014],[13.5778,52.59021],[13.57706,52.59035],[13.5765,52.59041]]}},{"type":"Feature","properties":{"art":"pfad"},"geometry":{"type":"LineString","coordinates":[[13.57722,52.58562],[13.57744,52.58553],[13.57754,52.58549],[13.57766,52.58544]]}},{"type":"Feature","properties":{"art":"weg"},"geometry":{"type":"LineString","coordinates":[[13.5765,52.59041],[13.57662,52.59059],[13.57672,52.59069],[13.577,52.59095],[13.57733,52.59116],[13.57759,52.59128],[13.57791,52.59145]]}},{"type":"Feature","properties":{"art":"pfad"},"geometry":{"type":"LineString","coordinates":[[13.57791,52.59145],[13.57796,52.59151],[13.57806,52.59162],[13.57811,52.5918],[13.57549,52.59442],[13.57553,52.59451],[13.57623,52.59482],[13.57654,52.59503],[13.57701,52.59516],[13.57751,52.5953],[13.57781,52.59544],[13.57794,52.5955],[13.57871,52.59572],[13.57891,52.59586]]}},{"type":"Feature","properties":{"art":"pfad"},"geometry":{"type":"LineString","coordinates":[[13.57744,52.59644],[13.57789,52.59641],[13.57816,52.59626],[13.57854,52.596],[13.57871,52.59572]]}},{"type":"Feature","properties":{"art":"strasse"},"geometry":{"type":"LineString","coordinates":[[13.58061,52.58887],[13.58089,52.58878]]}},{"type":"Feature","properties":{"art":"strasse"},"geometry":{"type":"LineString","coordinates":[[13.58291,52.58913],[13.58297,52.5892]]}},{"type":"Feature","properties":{"art":"strasse"},"geometry":{"type":"LineString","coordinates":[[13.58131,52.58962],[13.58155,52.58955]]}},{"type":"Feature","properties":{"art":"strasse"},"geometry":{"type":"LineString","coordinates":[[13.58196,52.58942],[13.58283,52.58915],[13.58291,52.58913]]}},{"type":"Feature","properties":{"art":"strasse"},"geometry":{"type":"LineString","coordinates":[[13.58307,52.58933],[13.58301,52.5894],[13.58251,52.58973],[13.58246,52.58972]]}},{"type":"Feature","properties":{"art":"pfad"},"geometry":{"type":"LineString","coordinates":[[13.58153,52.59019],[13.58158,52.59017],[13.58149,52.59006],[13.58156,52.59003],[13.58166,52.59015],[13.58174,52.59012]]}},{"type":"Feature","properties":{"art":"strasse"},"geometry":{"type":"LineString","coordinates":[[13.58216,52.5906],[13.58239,52.59048]]}},{"type":"Feature","properties":{"art":"strasse"},"geometry":{"type":"LineString","coordinates":[[13.58245,52.59045],[13.58249,52.59043],[13.5827,52.59027]]}},{"type":"Feature","properties":{"art":"pfad"},"geometry":{"type":"LineString","coordinates":[[13.58268,52.59122],[13.5826,52.59124],[13.58251,52.59112],[13.58243,52.59115],[13.58252,52.59127],[13.58248,52.59128]]}},{"type":"Feature","properties":{"art":"pfad"},"geometry":{"type":"LineString","coordinates":[[13.57803,52.59651],[13.57891,52.59586],[13.57943,52.59547],[13.58149,52.59394],[13.58325,52.59291]]}},{"type":"Feature","properties":{"art":"pfad"},"geometry":{"type":"LineString","coordinates":[[13.58094,52.59027],[13.58122,52.59058],[13.58125,52.59076],[13.58148,52.59104],[13.58181,52.59146],[13.58226,52.59198],[13.58272,52.59243],[13.58325,52.59291],[13.58299,52.59283],[13.58246,52.59262],[13.58174,52.59224],[13.58081,52.5919],[13.5804,52.59177],[13.57998,52.59167],[13.57927,52.59147],[13.57845,52.59121],[13.57796,52.59151]]}},{"type":"Feature","properties":{"art":"strasse"},"geometry":{"type":"LineString","coordinates":[[13.57819,52.59695],[13.57805,52.59686],[13.57894,52.59633],[13.5792,52.59617]]}},{"type":"Feature","properties":{"art":"pfad"},"geometry":{"type":"LineString","coordinates":[[13.57897,52.59635],[13.57894,52.59633]]}},{"type":"Feature","properties":{"art":"pfad"},"geometry":{"type":"LineString","coordinates":[[13.5739,52.58643],[13.57418,52.58638],[13.5742,52.58634],[13.57436,52.58613],[13.57446,52.58598],[13.57448,52.58567],[13.57449,52.58553]]}},{"type":"Feature","properties":{"art":"pfad"},"geometry":{"type":"LineString","coordinates":[[13.5737,52.58613],[13.57387,52.58633],[13.5739,52.58643],[13.57395,52.58659]]}},{"type":"Feature","properties":{"art":"pfad"},"geometry":{"type":"LineString","coordinates":[[13.57435,52.58567],[13.57448,52.58567]]}},{"type":"Feature","properties":{"art":"pfad"},"geometry":{"type":"LineString","coordinates":[[13.57548,52.58672],[13.57505,52.58658]]}},{"type":"Feature","properties":{"art":"pfad"},"geometry":{"type":"LineString","coordinates":[[13.57475,52.58649],[13.5747,52.58647],[13.57443,52.5864],[13.5743,52.58655],[13.57425,52.58664]]}},{"type":"Feature","properties":{"art":"pfad"},"geometry":{"type":"LineString","coordinates":[[13.57372,52.587],[13.57387,52.58673],[13.57397,52.58668],[13.57412,52.58665],[13.57425,52.58664],[13.57438,52.58664],[13.57451,52.58666]]}},{"type":"Feature","properties":{"art":"pfad"},"geometry":{"type":"LineString","coordinates":[[13.57003,52.58926],[13.57025,52.58928],[13.57044,52.58933],[13.5707,52.58944],[13.57083,52.5895],[13.57124,52.58978],[13.57142,52.58997],[13.57188,52.59011],[13.57221,52.59019],[13.57251,52.59024],[13.57255,52.59032],[13.57268,52.59045],[13.57293,52.59055],[13.57321,52.59063],[13.57337,52.59069],[13.57344,52.59065],[13.57351,52.59028],[13.57355,52.59013],[13.57368,52.58991],[13.57379,52.5897],[13.57388,52.58954],[13.57397,52.58945],[13.57414,52.58943],[13.57433,52.58945],[13.57459,52.58951],[13.57479,52.58955],[13.57503,52.58955],[13.57517,52.58948],[13.57512,52.58923],[13.57509,52.58893],[13.57501,52.58873],[13.57504,52.58853],[13.57519,52.58841],[13.57545,52.58834],[13.57565,52.58823],[13.57602,52.58811],[13.57636,52.58806]]}},{"type":"Feature","properties":{"art":"pfad"},"geometry":{"type":"LineString","coordinates":[[13.5766,52.58803],[13.57748,52.58789],[13.57811,52.58787],[13.57879,52.58783]]}},{"type":"Feature","properties":{"art":"pfad"},"geometry":{"type":"LineString","coordinates":[[13.57517,52.58948],[13.57517,52.58964],[13.57513,52.58973],[13.57497,52.58976],[13.57476,52.58975],[13.57459,52.58973],[13.57437,52.58971],[13.57416,52.58971],[13.57397,52.5897],[13.57379,52.5897]]}},{"type":"Feature","properties":{"art":"pfad"},"geometry":{"type":"LineString","coordinates":[[13.57337,52.59069],[13.57376,52.59091],[13.57439,52.59116],[13.57474,52.59131],[13.57501,52.59144],[13.5753,52.59156]]}},{"type":"Feature","properties":{"art":"pfad"},"geometry":{"type":"LineString","coordinates":[[13.57192,52.59171],[13.57219,52.59172],[13.57237,52.59177],[13.57256,52.59186],[13.57287,52.59199],[13.57312,52.5921],[13.57346,52.59224],[13.57384,52.59223],[13.57426,52.59223],[13.57453,52.59216],[13.57464,52.59203],[13.5749,52.59189],[13.57508,52.59172],[13.5753,52.59156],[13.57539,52.5915],[13.57576,52.59133],[13.57615,52.59109],[13.5764,52.59097],[13.57672,52.59069]]}},{"type":"Feature","properties":{"art":"pfad"},"geometry":{"type":"LineString","coordinates":[[13.57719,52.58575],[13.5773,52.5857],[13.57722,52.58562],[13.57692,52.58531],[13.57669,52.58502],[13.57636,52.58474],[13.57611,52.58447]]}},{"type":"Feature","properties":{"art":"pfad"},"geometry":{"type":"LineString","coordinates":[[13.57546,52.587],[13.57552,52.5868],[13.57551,52.58676],[13.57548,52.58672],[13.57592,52.58643],[13.57616,52.58629],[13.57659,52.58606],[13.57702,52.58583],[13.57719,52.58575]]}},{"type":"Feature","properties":{"art":"pfad"},"geometry":{"type":"LineString","coordinates":[[13.57451,52.58666],[13.57479,52.58675]]}},{"type":"Feature","properties":{"art":"pfad"},"geometry":{"type":"LineString","coordinates":[[13.57516,52.58688],[13.57546,52.587],[13.57549,52.587],[13.57597,52.58729]]}},{"type":"Feature","properties":{"art":"pfad"},"geometry":{"type":"LineString","coordinates":[[13.57605,52.58771],[13.57603,52.588],[13.57602,52.58811],[13.57609,52.58899],[13.57617,52.58956],[13.57638,52.59015],[13.5765,52.59041]]}},{"type":"Feature","properties":{"art":"strasse"},"geometry":{"type":"LineString","coordinates":[[13.57355,52.59999],[13.57366,52.59997],[13.57378,52.59993],[13.57403,52.59977],[13.57443,52.59945],[13.57647,52.59763],[13.57673,52.59739]]}},{"type":"Feature","properties":{"art":"pfad"},"geometry":{"type":"LineString","coordinates":[[13.57357,52.60005],[13.57376,52.60003],[13.5739,52.59997],[13.57447,52.59947],[13.57644,52.59781],[13.57652,52.59766]]}},{"type":"Feature","properties":{"art":"pfad"},"geometry":{"type":"LineString","coordinates":[[13.57395,52.58659],[13.57397,52.58668]]}},{"type":"Feature","properties":{"art":"pfad"},"geometry":{"type":"LineString","coordinates":[[13.57072,52.59532],[13.57081,52.59531],[13.57148,52.59532],[13.57179,52.59536],[13.57211,52.59546],[13.57235,52.59552],[13.57262,52.59545],[13.57309,52.59531],[13.57346,52.59521],[13.57369,52.5952],[13.57395,52.59521],[13.57413,52.59521],[13.57442,52.59514],[13.57489,52.59502],[13.57519,52.59483],[13.57553,52.59451]]}},{"type":"Feature","properties":{"art":"strasse"},"geometry":{"type":"LineString","coordinates":[[13.57285,52.59983],[13.57279,52.59988],[13.57278,52.5999],[13.57268,52.60008]]}},{"type":"Feature","properties":{"art":"strasse"},"geometry":{"type":"LineString","coordinates":[[13.57355,52.59999],[13.57357,52.60005]]}},{"type":"Feature","properties":{"art":"pfad"},"geometry":{"type":"LineString","coordinates":[[13.57489,52.59502],[13.57492,52.59531],[13.57487,52.59563],[13.5748,52.59589],[13.57481,52.59619],[13.5747,52.59657]]}},{"type":"Feature","properties":{"art":"pfad"},"geometry":{"type":"LineString","coordinates":[[13.57803,52.59651],[13.57797,52.5965],[13.57783,52.59651],[13.57763,52.59661],[13.57754,52.59651],[13.57744,52.59644],[13.57632,52.59653],[13.57568,52.59656],[13.57491,52.59658],[13.5747,52.59657],[13.57418,52.59659],[13.57316,52.59663],[13.57296,52.59665],[13.57229,52.59667],[13.57143,52.5967],[13.57098,52.59671],[13.57065,52.59672],[13.57052,52.59672]]}},{"type":"Feature","properties":{"art":"strasse"},"geometry":{"type":"LineString","coordinates":[[13.57443,52.59945],[13.57447,52.59947],[13.57467,52.59955]]}},{"type":"Feature","properties":{"art":"strasse"},"geometry":{"type":"LineString","coordinates":[[13.57467,52.59955],[13.57479,52.59961],[13.57503,52.59971]]}},{"type":"Feature","properties":{"art":"strasse"},"geometry":{"type":"LineString","coordinates":[[13.57357,52.60005],[13.57355,52.60016],[13.57347,52.60025],[13.57315,52.60048]]}},{"type":"Feature","properties":{"art":"strasse"},"geometry":{"type":"LineString","coordinates":[[13.57479,52.59961],[13.57472,52.59978]]}},{"type":"Feature","properties":{"art":"pfad"},"geometry":{"type":"LineString","coordinates":[[13.57652,52.59766],[13.57664,52.59758],[13.57674,52.59758],[13.57677,52.59756],[13.57706,52.59731],[13.57803,52.59651]]}},{"type":"Feature","properties":{"art":"strasse"},"geometry":{"type":"LineString","coordinates":[[13.57623,52.59825],[13.57658,52.59796],[13.57678,52.59781],[13.57689,52.59773],[13.57808,52.59704]]}},{"type":"Feature","properties":{"art":"strasse"},"geometry":{"type":"LineString","coordinates":[[13.57647,52.59763],[13.57652,52.59766],[13.57663,52.59771]]}},{"type":"Feature","properties":{"art":"strasse"},"geometry":{"type":"LineString","coordinates":[[13.57663,52.59771],[13.57678,52.59781],[13.57698,52.59793]]}},{"type":"Feature","properties":{"art":"pfad"},"geometry":{"type":"LineString","coordinates":[[13.58512,52.60928],[13.58509,52.60933],[13.58482,52.60943],[13.58453,52.60961],[13.58411,52.60985],[13.58401,52.60988],[13.58388,52.60988],[13.5838,52.60988],[13.58367,52.60984],[13.58356,52.60982],[13.58349,52.60983],[13.58305,52.61007],[13.58287,52.61012],[13.58272,52.6102],[13.58259,52.61022],[13.58239,52.61019],[13.58227,52.61022]]}}]}