{"type":"FeatureCollection","features":[{"type":"Feature","properties":{"art":"weg"},"geometry":{"type":"LineString","coordinates":[[13.81121,52.97955],[13.81111,52.97987],[13.81089,52.98063],[13.81053,52.98156],[13.81029,52.98204],[13.81001,52.98274],[13.80996,52.98285],[13.80972,52.98328],[13.80955,52.9837],[13.8095,52.98387]]}},{"type":"Feature","properties":{"art":"weg"},"geometry":{"type":"LineString","coordinates":[[13.80949,52.98391],[13.80945,52.98406],[13.80942,52.98417],[13.80952,52.98431]]}},{"type":"Feature","properties":{"art":"weg"},"geometry":{"type":"LineString","coordinates":[[13.82326,53.00134],[13.82334,53.00133]]}},{"type":"Feature","properties":{"art":"pfad"},"geometry":{"type":"LineString","coordinates":[[13.80952,52.98431],[13.81001,52.98404]]}},{"type":"Feature","properties":{"art":"pfad"},"geometry":{"type":"LineString","coordinates":[[13.81349,52.985],[13.81348,52.98515],[13.81348,52.98559],[13.81348,52.98567]]}},{"type":"Feature","properties":{"art":"pfad"},"geometry":{"type":"LineString","coordinates":[[13.8105,52.985],[13.80914,52.98457]]}},{"type":"Feature","properties":{"art":"weg"},"geometry":{"type":"LineString","coordinates":[[13.81469,52.98799],[13.81381,52.98812],[13.81345,52.98809],[13.81341,52.98806],[13.81307,52.98784],[13.81258,52.98734],[13.8123,52.98698],[13.81172,52.98641],[13.81136,52.98601],[13.81085,52.98548],[13.8105,52.985]]}},{"type":"Feature","properties":{"art":"weg"},"geometry":{"type":"LineString","coordinates":[[13.79825,52.99051],[13.79843,52.99047],[13.79897,52.99039],[13.7997,52.99028],[13.80009,52.99018],[13.80076,52.99002],[13.80205,52.98965],[13.80372,52.9892],[13.80399,52.98915],[13.80461,52.98895],[13.80488,52.98878],[13.80559,52.98827],[13.80573,52.98817],[13.80656,52.98752],[13.8076,52.98645],[13.80821,52.98572],[13.80876,52.98505],[13.80914,52.98457],[13.80935,52.9844],[13.80952,52.98431]]}},{"type":"Feature","properties":{"art":"pfad"},"geometry":{"type":"LineString","coordinates":[[13.80573,52.98817],[13.80635,52.98831],[13.80702,52.98846],[13.8077,52.98851],[13.80867,52.98852],[13.8094,52.98859],[13.8096,52.98855],[13.80993,52.98841],[13.81013,52.98836],[13.81042,52.98834],[13.81079,52.98833],[13.81113,52.98828],[13.81166,52.98828],[13.81229,52.98824],[13.81307,52.98819],[13.81328,52.98816],[13.81341,52.98806]]}},{"type":"Feature","properties":{"art":"weg"},"geometry":{"type":"LineString","coordinates":[[13.81587,53.00094],[13.81724,52.99938],[13.8177,52.99851],[13.81764,52.99829],[13.81748,52.99808],[13.81677,52.99722],[13.81612,52.99662],[13.81598,52.99636],[13.81592,52.996],[13.81579,52.99577],[13.81577,52.99503],[13.81549,52.99456],[13.81528,52.99346],[13.81461,52.99215],[13.81456,52.99177],[13.81436,52.99144],[13.81434,52.99112],[13.81413,52.99056],[13.81434,52.99035],[13.81498,52.99008],[13.81529,52.98986],[13.81555,52.98947],[13.81469,52.98799],[13.81442,52.98753],[13.8142,52.98719]]}},{"type":"Feature","properties":{"art":"weg"},"geometry":{"type":"LineString","coordinates":[[13.8142,52.98719],[13.81412,52.98706],[13.81415,52.987],[13.81423,52.98704],[13.8142,52.98719]]}},{"type":"Feature","properties":{"art":"weg"},"geometry":{"type":"LineString","coordinates":[[13.80255,52.9941],[13.80319,52.99433],[13.80378,52.99453],[13.80437,52.99638],[13.80507,52.99819],[13.80564,52.99974],[13.80594,53.00124]]}},{"type":"Feature","properties":{"art":"weg"},"geometry":{"type":"LineString","coordinates":[[13.81587,53.00094],[13.81679,53.00096],[13.81863,53.00102],[13.81999,53.00105],[13.82056,53.00111]]}},{"type":"Feature","properties":{"art":"weg"},"geometry":{"type":"LineString","coordinates":[[13.79978,53.00117],[13.80075,53.00112],[13.80195,53.00095],[13.8027,53.00091],[13.80594,53.00124],[13.80731,53.00122],[13.81015,53.00108],[13.81319,53.00093],[13.81463,53.00093],[13.81587,53.00094]]}},{"type":"Feature","properties":{"art":"weg"},"geometry":{"type":"LineString","coordinates":[[13.82056,53.00111],[13.82094,53.00114],[13.82152,53.00129],[13.8219,53.00136],[13.82255,53.00138],[13.82278,53.00137]]}},{"type":"Feature","properties":{"art":"weg"},"geometry":{"type":"LineString","coordinates":[[13.82278,53.00137],[13.82326,53.00134]]}},{"type":"Feature","properties":{"art":"pfad"},"geometry":{"type":"LineString","coordinates":[[13.80885,52.99969],[13.81017,52.99969],[13.81095,52.99978],[13.81173,52.99995],[13.81226,53.00022],[13.81282,53.00052],[13.81305,53.00067],[13.81319,53.00093],[13.81321,53.00118],[13.81313,53.00157],[13.81301,53.00179],[13.81283,53.00206],[13.81268,53.00229],[13.81237,53.0025],[13.81204,53.00272],[13.81152,53.00292],[13.81093,53.00302],[13.81003,53.00318],[13.80926,53.00331],[13.80857,53.00347],[13.80787,53.00358],[13.80717,53.00366],[13.80645,53.0038],[13.80564,53.00385],[13.8051,53.00392],[13.80443,53.00396],[13.80404,53.00398],[13.80354,53.00398],[13.80319,53.00395],[13.80247,53.00407],[13.80202,53.00428],[13.80176,53.0044],[13.80122,53.00448],[13.80076,53.00471]]}},{"type":"Feature","properties":{"art":"weg"},"geometry":{"type":"LineString","coordinates":[[13.81854,53.00371],[13.81827,53.00372],[13.81808,53.00373],[13.81793,53.00375],[13.8178,53.00377],[13.81766,53.00379],[13.81747,53.00381],[13.81729,53.00385],[13.81697,53.0039],[13.81672,53.00393],[13.8165,53.00394],[13.81634,53.00395],[13.81616,53.00398],[13.81585,53.00401]]}},{"type":"Feature","properties":{"art":"weg"},"geometry":{"type":"LineString","coordinates":[[13.81587,53.00094],[13.81589,53.0013],[13.81561,53.00205],[13.81551,53.00245],[13.8157,53.00286],[13.81575,53.00309],[13.81588,53.00372],[13.81585,53.00401],[13.81579,53.00463],[13.81537,53.00527],[13.81517,53.00555],[13.81506,53.00684],[13.81436,53.0078],[13.81393,53.0083],[13.81389,53.00835],[13.81271,53.0092],[13.81264,53.00975],[13.81221,53.01064],[13.81187,53.01145]]}},{"type":"Feature","properties":{"art":"weg"},"geometry":{"type":"LineString","coordinates":[[13.81537,53.00527],[13.81498,53.00508],[13.81463,53.00498],[13.81423,53.00487],[13.81372,53.00484],[13.81341,53.00485],[13.81289,53.00491],[13.81225,53.0051],[13.81169,53.00527],[13.81109,53.00542],[13.8103,53.00558],[13.80961,53.00574],[13.80871,53.00592],[13.80794,53.0061],[13.80723,53.00639],[13.80667,53.00669],[13.80614,53.007],[13.80536,53.00741],[13.80461,53.00773]]}},{"type":"Feature","properties":{"art":"weg"},"geometry":{"type":"LineString","coordinates":[[13.81086,53.01265],[13.81096,53.01252],[13.81187,53.01145],[13.81814,53.01076],[13.81827,53.00761],[13.81925,53.0066],[13.81893,53.0049],[13.81854,53.00371],[13.81831,53.00301],[13.81769,53.00202],[13.81679,53.00096]]}},{"type":"Feature","properties":{"art":"pfad"},"geometry":{"type":"LineString","coordinates":[[13.81393,53.0083],[13.81347,53.0084],[13.81314,53.00842],[13.81292,53.00847],[13.81276,53.00856],[13.81244,53.00869],[13.81224,53.00883],[13.81194,53.00885],[13.81156,53.00881],[13.81122,53.00872],[13.81083,53.00865],[13.81042,53.00853],[13.81018,53.00845],[13.80997,53.00822],[13.80974,53.00804],[13.80945,53.00788],[13.80911,53.00764],[13.80872,53.00731],[13.80838,53.00712],[13.80812,53.00699],[13.8078,53.00691],[13.80756,53.00697],[13.80738,53.00704]]}},{"type":"Feature","properties":{"art":"strasse"},"geometry":{"type":"LineString","coordinates":[[13.80288,53.00625],[13.80417,53.00734],[13.80461,53.00773],[13.80526,53.00823],[13.80828,53.01001],[13.81086,53.01265],[13.81183,53.01361],[13.81284,53.01462],[13.81331,53.01501],[13.8142,53.0157],[13.81463,53.01603],[13.8151,53.01641],[13.81556,53.01687]]}},{"type":"Feature","properties":{"art":"weg"},"geometry":{"type":"LineString","coordinates":[[13.82423,53.00789],[13.82215,53.0091],[13.82126,53.00974],[13.82025,53.01044],[13.82012,53.01053],[13.81994,53.01181],[13.82002,53.01265],[13.81987,53.01289],[13.81959,53.01304],[13.81871,53.01346],[13.81677,53.0142],[13.81491,53.01535],[13.81437,53.01564],[13.8142,53.0157]]}},{"type":"Feature","properties":{"art":"pfad"},"geometry":{"type":"LineString","coordinates":[[13.90611,52.97037],[13.90602,52.97058],[13.90589,52.97088],[13.90577,52.97103],[13.9053,52.97135],[13.90495,52.97154],[13.90501,52.97163],[13.90528,52.97168],[13.90555,52.9717],[13.90574,52.97171],[13.90575,52.97172]]}},{"type":"Feature","properties":{"art":"weg"},"geometry":{"type":"LineString","coordinates":[[13.8827,52.97667],[13.88219,52.97667],[13.88118,52.97653],[13.8789,52.97528],[13.87848,52.97502],[13.87846,52.97501]]}},{"type":"Feature","properties":{"art":"weg"},"geometry":{"type":"LineString","coordinates":[[13.83017,53.01353],[13.83109,53.01333]]}},{"type":"Feature","properties":{"art":"weg"},"geometry":{"type":"LineString","coordinates":[[13.82699,53.01462],[13.82713,53.01458],[13.8282,53.01407],[13.83017,53.01353]]}},{"type":"Feature","properties":{"art":"weg"},"geometry":{"type":"LineString","coordinates":[[13.82405,53.01489],[13.82607,53.01471]]}},{"type":"Feature","properties":{"art":"weg"},"geometry":{"type":"LineString","coordinates":[[13.82321,53.01504],[13.82384,53.01493],[13.82405,53.01489]]}},{"type":"Feature","properties":{"art":"weg"},"geometry":{"type":"LineString","coordinates":[[13.82384,53.01493],[13.82376,53.01504],[13.82377,53.01518]]}},{"type":"Feature","properties":{"art":"weg"},"geometry":{"type":"LineString","coordinates":[[13.82321,53.01504],[13.82346,53.01505],[13.82377,53.01518],[13.82413,53.01552],[13.82455,53.01573],[13.82544,53.01595],[13.82592,53.016],[13.82649,53.01592]]}},{"type":"Feature","properties":{"art":"weg"},"geometry":{"type":"LineString","coordinates":[[13.82025,53.01044],[13.82289,53.0104],[13.82301,53.01046],[13.82313,53.01109],[13.82353,53.01181],[13.82396,53.0126],[13.82405,53.01326],[13.82296,53.01409],[13.82261,53.01466],[13.82224,53.01509],[13.82195,53.01554]]}},{"type":"Feature","properties":{"art":"weg"},"geometry":{"type":"LineString","coordinates":[[13.81086,53.01265],[13.81081,53.01271],[13.80872,53.0144],[13.80708,53.01487],[13.80538,53.01507],[13.80405,53.01519],[13.80313,53.01526],[13.80282,53.01532],[13.80255,53.01542]]}},{"type":"Feature","properties":{"art":"pfad"},"geometry":{"type":"LineString","coordinates":[[13.80967,53.0167],[13.81128,53.01678],[13.81291,53.01664],[13.8141,53.01626],[13.81463,53.01603]]}},{"type":"Feature","properties":{"art":"weg"},"geometry":{"type":"LineString","coordinates":[[13.81658,53.01805],[13.81842,53.01717],[13.81943,53.0167],[13.82077,53.01617],[13.82195,53.01554],[13.82321,53.01504]]}},{"type":"Feature","properties":{"art":"weg"},"geometry":{"type":"LineString","coordinates":[[13.81559,53.01691],[13.81579,53.01684],[13.81588,53.01682],[13.81594,53.01682],[13.81598,53.01685],[13.81604,53.01691]]}},{"type":"Feature","properties":{"art":"weg"},"geometry":{"type":"LineString","coordinates":[[13.81569,53.01702],[13.81588,53.01696],[13.81604,53.01691],[13.81613,53.01689]]}},{"type":"Feature","properties":{"art":"pfad"},"geometry":{"type":"LineString","coordinates":[[13.80405,53.01519],[13.80593,53.01595],[13.80732,53.01641],[13.80881,53.01659],[13.80967,53.0167],[13.81017,53.01867]]}},{"type":"Feature","properties":{"art":"weg"},"geometry":{"type":"LineString","coordinates":[[13.81842,53.01717],[13.82261,53.01715]]}},{"type":"Feature","properties":{"art":"strasse"},"geometry":{"type":"LineString","coordinates":[[13.81556,53.01687],[13.81559,53.01691],[13.81569,53.01702],[13.81658,53.01805],[13.81664,53.01812]]}},{"type":"Feature","properties":{"art":"strasse"},"geometry":{"type":"LineString","coordinates":[[13.81676,53.01905],[13.81722,53.01899]]}},{"type":"Feature","properties":{"art":"pfad"},"geometry":{"type":"LineString","coordinates":[[13.84691,53.01623],[13.84573,53.01656],[13.84501,53.01679],[13.84459,53.01702],[13.84358,53.01733],[13.84278,53.01772],[13.84234,53.01792],[13.84205,53.01803]]}},{"type":"Feature","properties":{"art":"pfad"},"geometry":{"type":"LineString","coordinates":[[13.84205,53.01803],[13.84128,53.01818],[13.84083,53.01822],[13.83952,53.0186],[13.83794,53.01942],[13.83608,53.02051],[13.83538,53.021]]}},{"type":"Feature","properties":{"art":"pfad"},"geometry":{"type":"LineString","coordinates":[[13.84486,53.01865],[13.84488,53.01882],[13.84483,53.01892],[13.8443,53.01907],[13.84352,53.01925],[13.84322,53.01931],[13.84292,53.01936],[13.84247,53.01946],[13.8423,53.01949],[13.84206,53.01953],[13.84168,53.01959],[13.84032,53.01993],[13.83999,53.02001],[13.83957,53.02008],[13.83921,53.02018],[13.8389,53.02028],[13.83815,53.02042],[13.83769,53.02053],[13.8374,53.02057],[13.83685,53.02069],[13.83624,53.02082],[13.83566,53.02096],[13.83538,53.021]]}},{"type":"Feature","properties":{"art":"pfad"},"geometry":{"type":"LineString","coordinates":[[13.84227,53.02368],[13.84206,53.02265],[13.8421,53.0216],[13.84201,53.02021],[13.84206,53.01953],[13.84211,53.01878],[13.84208,53.01831],[13.84205,53.01803]]}},{"type":"Feature","properties":{"art":"weg"},"geometry":{"type":"LineString","coordinates":[[13.82807,53.02145],[13.8285,53.0214]]}},{"type":"Feature","properties":{"art":"pfad"},"geometry":{"type":"LineString","coordinates":[[13.83538,53.021],[13.8339,53.02134],[13.83298,53.02151],[13.83248,53.02163],[13.83202,53.02174],[13.83097,53.02194],[13.8309,53.0221]]}},{"type":"Feature","properties":{"art":"weg"},"geometry":{"type":"LineString","coordinates":[[13.8285,53.0214],[13.82875,53.02138],[13.82893,53.02138],[13.82909,53.02141],[13.83073,53.02203]]}},{"type":"Feature","properties":{"art":"pfad"},"geometry":{"type":"LineString","coordinates":[[13.83538,53.021],[13.83449,53.02176],[13.83408,53.02233],[13.83369,53.02293],[13.83365,53.02299]]}},{"type":"Feature","properties":{"art":"pfad"},"geometry":{"type":"LineString","coordinates":[[13.80847,53.01921],[13.80892,53.01924]]}},{"type":"Feature","properties":{"art":"weg"},"geometry":{"type":"LineString","coordinates":[[13.8084,53.01905],[13.80847,53.01921],[13.80757,53.01961],[13.8064,53.02035],[13.80587,53.02068],[13.80567,53.02089]]}},{"type":"Feature","properties":{"art":"strasse"},"geometry":{"type":"LineString","coordinates":[[13.81664,53.01812],[13.81703,53.01861],[13.81716,53.01886],[13.81722,53.01899],[13.81727,53.0192],[13.81731,53.01947],[13.81736,53.01991],[13.81735,53.02035],[13.81738,53.02048],[13.81743,53.02062],[13.81764,53.02108],[13.81771,53.02133],[13.81781,53.02177],[13.818,53.02197],[13.81835,53.02227],[13.81867,53.0226]]}},{"type":"Feature","properties":{"art":"pfad"},"geometry":{"type":"LineString","coordinates":[[13.81132,53.02078],[13.81122,53.02092]]}},{"type":"Feature","properties":{"art":"pfad"},"geometry":{"type":"LineString","coordinates":[[13.80567,53.02089],[13.80656,53.02098],[13.80712,53.02122],[13.80852,53.02128],[13.81,53.02125],[13.811,53.02107],[13.81122,53.02092],[13.81156,53.02104],[13.81203,53.02112],[13.8125,53.02112],[13.81298,53.02121],[13.81329,53.02131]]}},{"type":"Feature","properties":{"art":"strasse"},"geometry":{"type":"LineString","coordinates":[[13.79478,53.02118],[13.79517,53.02114],[13.79581,53.02101],[13.79633,53.02074],[13.79711,53.02033],[13.7977,53.01998],[13.79858,53.01945],[13.79902,53.01931],[13.79939,53.01925],[13.80047,53.01916],[13.80233,53.01909],[13.80354,53.01904],[13.80508,53.01895],[13.80648,53.01896],[13.80801,53.01904],[13.8084,53.01905],[13.80996,53.01869],[13.81017,53.01867],[13.8161,53.01819],[13.81664,53.01812]]}},{"type":"Feature","properties":{"art":"pfad"},"geometry":{"type":"LineString","coordinates":[[13.81344,53.02148],[13.81329,53.02131]]}},{"type":"Feature","properties":{"art":"pfad"},"geometry":{"type":"LineString","coordinates":[[13.81344,53.02148],[13.81406,53.02152],[13.81449,53.02141],[13.81533,53.02137],[13.81564,53.02136],[13.81624,53.02141],[13.81738,53.02177],[13.81781,53.02203]]}},{"type":"Feature","properties":{"art":"weg"},"geometry":{"type":"LineString","coordinates":[[13.80405,53.02245],[13.80459,53.02208],[13.80506,53.02127],[13.80567,53.02089]]}},{"type":"Feature","properties":{"art":"strasse"},"geometry":{"type":"LineString","coordinates":[[13.81867,53.0226],[13.81873,53.02266]]}},{"type":"Feature","properties":{"art":"strasse"},"geometry":{"type":"LineString","coordinates":[[13.8188,53.02274],[13.81889,53.02273],[13.81904,53.02275],[13.81912,53.02278],[13.81914,53.02283],[13.8191,53.02289],[13.81902,53.02291]]}},{"type":"Feature","properties":{"art":"strasse"},"geometry":{"type":"LineString","coordinates":[[13.81873,53.02266],[13.8188,53.02274],[13.81887,53.0228],[13.81894,53.02285],[13.81902,53.02291],[13.81919,53.02301]]}},{"type":"Feature","properties":{"art":"pfad"},"geometry":{"type":"LineString","coordinates":[[13.81919,53.02289],[13.81945,53.02302],[13.81956,53.02307]]}},{"type":"Feature","properties":{"art":"weg"},"geometry":{"type":"LineString","coordinates":[[13.83073,53.02203],[13.8309,53.0221],[13.83259,53.02274],[13.83365,53.02299]]}},{"type":"Feature","properties":{"art":"weg"},"geometry":{"type":"LineString","coordinates":[[13.83365,53.02299],[13.8336,53.02308],[13.83345,53.02336]]}},{"type":"Feature","properties":{"art":"strasse"},"geometry":{"type":"LineString","coordinates":[[13.83034,53.03446],[13.83034,53.03437],[13.83057,53.03218],[13.83031,53.03076],[13.83013,53.03028],[13.83,53.03004],[13.82984,53.02981],[13.82958,53.02949],[13.82914,53.02902],[13.82888,53.02878],[13.82866,53.02864],[13.82828,53.02845],[13.82718,53.02794],[13.82669,53.02767],[13.82624,53.02739],[13.82365,53.02567],[13.82341,53.02554]]}},{"type":"Feature","properties":{"art":"pfad"},"geometry":{"type":"LineString","coordinates":[[13.85558,53.02324],[13.85538,53.02315],[13.85527,53.02307],[13.85522,53.02292],[13.85522,53.0229]]}},{"type":"Feature","properties":{"art":"weg"},"geometry":{"type":"LineString","coordinates":[[13.83365,53.02299],[13.83739,53.02352],[13.84072,53.02364],[13.84227,53.02368],[13.84254,53.02368],[13.84379,53.02373],[13.84448,53.0239],[13.84851,53.02422],[13.849,53.02434],[13.84929,53.02444],[13.84931,53.02446],[13.84932,53.02447],[13.84951,53.02462],[13.84969,53.0249],[13.84989,53.02512],[13.85024,53.02526],[13.85052,53.02531],[13.85103,53.02528],[13.85234,53.02502]]}},{"type":"Feature","properties":{"art":"pfad"},"geometry":{"type":"LineString","coordinates":[[13.85124,53.04005],[13.85129,53.04019],[13.8512,53.04149],[13.85135,53.04179],[13.85089,53.04217]]}},{"type":"Feature","properties":{"art":"pfad"},"geometry":{"type":"LineString","coordinates":[[13.86142,53.04206],[13.86114,53.04211],[13.86053,53.04199],[13.85984,53.04191],[13.85918,53.04189],[13.8583,53.04198],[13.85761,53.04213],[13.85697,53.04218],[13.85478,53.0423],[13.85327,53.04234],[13.85244,53.04223],[13.85177,53.04214],[13.85089,53.04217],[13.85057,53.04227],[13.85016,53.0425],[13.84986,53.04285],[13.84985,53.04291]]}},{"type":"Feature","properties":{"art":"weg"},"geometry":{"type":"LineString","coordinates":[[13.85177,53.04214],[13.85318,53.04163]]}},{"type":"Feature","properties":{"art":"weg"},"geometry":{"type":"LineString","coordinates":[[13.82071,53.02618],[13.82073,53.0262],[13.82114,53.02703]]}},{"type":"Feature","properties":{"art":"pfad"},"geometry":{"type":"LineString","coordinates":[[13.82198,53.03624],[13.82186,53.0357]]}},{"type":"Feature","properties":{"art":"pfad"},"geometry":{"type":"LineString","coordinates":[[13.81971,53.0316],[13.81922,53.03082],[13.81933,53.03054],[13.82032,53.02944],[13.82106,53.02867],[13.82118,53.02831],[13.82137,53.02763],[13.82114,53.02703]]}},{"type":"Feature","properties":{"art":"pfad"},"geometry":{"type":"LineString","coordinates":[[13.79397,53.03381],[13.79581,53.03418],[13.79662,53.03436],[13.79743,53.03438],[13.7984,53.03425],[13.80063,53.03399],[13.80105,53.03393],[13.80192,53.03383],[13.80312,53.03434],[13.80465,53.03465],[13.80561,53.03475],[13.80653,53.03481],[13.80715,53.03517],[13.80779,53.03557],[13.80826,53.03605],[13.80832,53.03635],[13.80872,53.0367],[13.80918,53.03736],[13.80911,53.03812],[13.80883,53.03874],[13.80877,53.03905],[13.80892,53.03931],[13.80959,53.0392]]}},{"type":"Feature","properties":{"art":"pfad"},"geometry":{"type":"LineString","coordinates":[[13.82116,53.0366],[13.82152,53.03664],[13.82198,53.03624]]}},{"type":"Feature","properties":{"art":"pfad"},"geometry":{"type":"LineString","coordinates":[[13.82152,53.03664],[13.82128,53.03692]]}},{"type":"Feature","properties":{"art":"pfad"},"geometry":{"type":"LineString","coordinates":[[13.81519,53.04001],[13.81468,53.03993],[13.8142,53.0398],[13.81357,53.03966],[13.81311,53.03959],[13.81261,53.03957],[13.81193,53.03956],[13.81158,53.03955],[13.8111,53.03957],[13.8104,53.03962],[13.80984,53.03967],[13.80951,53.03967],[13.80929,53.03957],[13.809,53.03942],[13.80892,53.03931]]}},{"type":"Feature","properties":{"art":"pfad"},"geometry":{"type":"LineString","coordinates":[[13.81779,53.04037],[13.81772,53.04054],[13.81778,53.04086]]}},{"type":"Feature","properties":{"art":"pfad"},"geometry":{"type":"LineString","coordinates":[[13.81778,53.04086],[13.81777,53.04099],[13.81806,53.04173],[13.81825,53.04217],[13.81833,53.04229],[13.8183,53.04245],[13.81824,53.04289],[13.81831,53.0432],[13.81849,53.04342],[13.81854,53.04358],[13.8187,53.04381]]}},{"type":"Feature","properties":{"art":"pfad"},"geometry":{"type":"LineString","coordinates":[[13.819,53.04705],[13.81909,53.0469],[13.81892,53.04598],[13.81868,53.04468],[13.81877,53.04419],[13.81881,53.04398],[13.8188,53.04388],[13.8187,53.04381],[13.81849,53.04379],[13.81814,53.04377],[13.81736,53.04369],[13.81698,53.04368],[13.81627,53.04364],[13.8152,53.04351],[13.8148,53.04348],[13.81462,53.04354],[13.81438,53.04381],[13.8142,53.04381],[13.81369,53.04402],[13.81332,53.04397],[13.81246,53.04372],[13.81182,53.04359],[13.80988,53.04334],[13.80741,53.04311],[13.80602,53.04298],[13.80359,53.04218],[13.80256,53.04195],[13.79692,53.04179],[13.79617,53.0417],[13.79421,53.04114],[13.79148,53.04022],[13.79046,53.03976]]}},{"type":"Feature","properties":{"art":"strasse"},"geometry":{"type":"LineString","coordinates":[[13.84391,53.04831],[13.84331,53.04754],[13.843,53.04714],[13.84227,53.0455],[13.84152,53.04377],[13.84106,53.04281],[13.84065,53.04233],[13.84003,53.04194]]}},{"type":"Feature","properties":{"art":"weg"},"geometry":{"type":"LineString","coordinates":[[13.82937,53.04221],[13.82938,53.04238],[13.82935,53.04276],[13.82888,53.04344],[13.82796,53.04392],[13.82662,53.04436],[13.82574,53.0446],[13.82529,53.0448],[13.82496,53.04502],[13.82505,53.04577],[13.82549,53.04623],[13.82645,53.04687],[13.82745,53.04732],[13.82809,53.04761],[13.82919,53.04779],[13.83012,53.04802],[13.83068,53.04817],[13.8309,53.04829]]}},{"type":"Feature","properties":{"art":"strasse"},"geometry":{"type":"LineString","coordinates":[[13.84471,53.04448],[13.84227,53.0455]]}},{"type":"Feature","properties":{"art":"weg"},"geometry":{"type":"LineString","coordinates":[[13.84227,53.0455],[13.84109,53.046],[13.83917,53.04669],[13.83765,53.04717],[13.83654,53.04746],[13.83556,53.04758]]}},{"type":"Feature","properties":{"art":"weg"},"geometry":{"type":"LineString","coordinates":[[13.843,53.04714],[13.84484,53.04687]]}},{"type":"Feature","properties":{"art":"weg"},"geometry":{"type":"LineString","coordinates":[[13.84331,53.04754],[13.84352,53.04761],[13.84358,53.04764],[13.84389,53.04777],[13.8441,53.04788],[13.84425,53.04791],[13.84439,53.04791],[13.8445,53.0479],[13.84462,53.04783],[13.8447,53.04773],[13.84475,53.04758],[13.84485,53.04744],[13.84516,53.04692]]}},{"type":"Feature","properties":{"art":"weg"},"geometry":{"type":"LineString","coordinates":[[13.83556,53.04758],[13.83498,53.04765]]}},{"type":"Feature","properties":{"art":"weg"},"geometry":{"type":"LineString","coordinates":[[13.83498,53.04765],[13.83377,53.0477],[13.83274,53.04787],[13.83214,53.04797],[13.83165,53.04813],[13.83105,53.04827],[13.8309,53.04829],[13.83076,53.04831],[13.83015,53.04851],[13.82965,53.04867]]}},{"type":"Feature","properties":{"art":"pfad"},"geometry":{"type":"LineString","coordinates":[[13.86162,53.04247],[13.86141,53.04237],[13.86114,53.04211]]}},{"type":"Feature","properties":{"art":"pfad"},"geometry":{"type":"LineString","coordinates":[[13.84985,53.04291],[13.84983,53.04298]]}},{"type":"Feature","properties":{"art":"pfad"},"geometry":{"type":"LineString","coordinates":[[13.8608,53.05104],[13.8618,53.04984],[13.86216,53.04968],[13.86345,53.04928],[13.86386,53.04916],[13.86535,53.04869],[13.86601,53.04865]]}},{"type":"Feature","properties":{"art":"pfad"},"geometry":{"type":"LineString","coordinates":[[13.84476,53.04941],[13.8452,53.0493],[13.84607,53.049],[13.8467,53.0488],[13.84727,53.04886],[13.84794,53.04894],[13.85035,53.04855],[13.85157,53.04856],[13.8523,53.04884],[13.85255,53.04908],[13.85433,53.04936],[13.85546,53.04967],[13.85724,53.05033],[13.85799,53.05064],[13.85867,53.05058],[13.85927,53.05077],[13.86011,53.05095],[13.8608,53.05104]]}},{"type":"Feature","properties":{"art":"pfad"},"geometry":{"type":"LineString","coordinates":[[13.86495,53.05132],[13.86386,53.04916]]}},{"type":"Feature","properties":{"art":"pfad"},"geometry":{"type":"LineString","coordinates":[[13.86574,53.05134],[13.86533,53.05131],[13.86495,53.05132]]}},{"type":"Feature","properties":{"art":"pfad"},"geometry":{"type":"LineString","coordinates":[[13.8608,53.05104],[13.86228,53.05117],[13.86356,53.05126],[13.8642,53.05142],[13.86459,53.05159],[13.86515,53.05172]]}},{"type":"Feature","properties":{"art":"pfad"},"geometry":{"type":"LineString","coordinates":[[13.86594,53.05177],[13.86589,53.05179],[13.86515,53.05172]]}},{"type":"Feature","properties":{"art":"strasse"},"geometry":{"type":"LineString","coordinates":[[13.85422,53.05802],[13.85366,53.05711],[13.85233,53.05504],[13.85198,53.05473],[13.85142,53.05443],[13.84714,53.05249],[13.84476,53.04941],[13.84468,53.04931],[13.84391,53.04831]]}},{"type":"Feature","properties":{"art":"pfad"},"geometry":{"type":"LineString","coordinates":[[13.86495,53.05132],[13.86515,53.05172],[13.86576,53.05312]]}},{"type":"Feature","properties":{"art":"pfad"},"geometry":{"type":"LineString","coordinates":[[13.86594,53.05351],[13.86595,53.05354],[13.86655,53.05486]]}},{"type":"Feature","properties":{"art":"pfad"},"geometry":{"type":"LineString","coordinates":[[13.82574,53.0446],[13.8188,53.04388]]}},{"type":"Feature","properties":{"art":"weg"},"geometry":{"type":"LineString","coordinates":[[13.79617,53.0417],[13.79689,53.04247],[13.79723,53.04406],[13.79606,53.04591],[13.79629,53.04601],[13.79904,53.04715],[13.80118,53.04765],[13.80201,53.04779],[13.80357,53.04746],[13.80445,53.04698],[13.80572,53.04592],[13.80642,53.0454],[13.80693,53.04395],[13.80675,53.04346],[13.80602,53.04298]]}},{"type":"Feature","properties":{"art":"weg"},"geometry":{"type":"LineString","coordinates":[[13.81985,53.04849],[13.8197,53.04797],[13.8196,53.04784],[13.81905,53.04725],[13.819,53.04714],[13.819,53.04705]]}},{"type":"Feature","properties":{"art":"pfad"},"geometry":{"type":"LineString","coordinates":[[13.82965,53.04867],[13.82896,53.04877],[13.82805,53.04886],[13.82735,53.04901],[13.82666,53.04923],[13.82564,53.04971],[13.82508,53.04992],[13.82478,53.05001],[13.82442,53.05005],[13.8241,53.05004],[13.82304,53.04992],[13.82167,53.04993],[13.82056,53.04988],[13.82048,53.04992]]}},{"type":"Feature","properties":{"art":"pfad"},"geometry":{"type":"LineString","coordinates":[[13.82044,53.04994],[13.82036,53.04999],[13.81969,53.05016],[13.81947,53.05029],[13.81929,53.05039],[13.81888,53.05055],[13.81857,53.05064]]}},{"type":"Feature","properties":{"art":"pfad"},"geometry":{"type":"LineString","coordinates":[[13.82529,53.0448],[13.82448,53.04494],[13.8239,53.04513],[13.82302,53.04548],[13.82279,53.04559],[13.82266,53.04569],[13.82015,53.04801],[13.81994,53.04825],[13.81985,53.04849],[13.81981,53.04935],[13.81977,53.04957],[13.81939,53.04995],[13.81929,53.05039],[13.8192,53.0506],[13.8192,53.05125],[13.81937,53.05147],[13.81923,53.05286],[13.81895,53.05363],[13.81771,53.05504],[13.81697,53.05581],[13.81601,53.05696],[13.81592,53.05741]]}},{"type":"Feature","properties":{"art":"pfad"},"geometry":{"type":"LineString","coordinates":[[13.8265,53.05779],[13.82529,53.05713],[13.82378,53.05634],[13.82277,53.05542],[13.82102,53.05489],[13.82019,53.05455],[13.81958,53.0539],[13.81917,53.05364],[13.81895,53.05363],[13.81828,53.05358]]}},{"type":"Feature","properties":{"art":"pfad"},"geometry":{"type":"LineString","coordinates":[[13.815,53.05701],[13.81551,53.05717],[13.81592,53.05741],[13.81611,53.05753],[13.81618,53.05755],[13.81651,53.05772],[13.81677,53.05779],[13.81723,53.05786],[13.8177,53.0579],[13.81813,53.05795],[13.81887,53.05804],[13.81933,53.05804],[13.81965,53.05802],[13.82004,53.05796],[13.82039,53.05789],[13.82075,53.05783],[13.82119,53.05778],[13.82176,53.05771],[13.82206,53.05771],[13.82272,53.05774],[13.82349,53.05775],[13.82408,53.05772],[13.82463,53.05773]]}},{"type":"Feature","properties":{"art":"weg"},"geometry":{"type":"LineString","coordinates":[[13.84468,53.04931],[13.84279,53.04955],[13.84276,53.05142],[13.84162,53.0514]]}},{"type":"Feature","properties":{"art":"pfad"},"geometry":{"type":"LineString","coordinates":[[13.83274,53.04787],[13.83276,53.04805],[13.83271,53.04832],[13.83259,53.04851],[13.83229,53.04885],[13.83219,53.04907],[13.8323,53.04923],[13.83251,53.04959],[13.8326,53.05018],[13.83256,53.05052],[13.83285,53.05105],[13.83326,53.05167],[13.83307,53.05224],[13.83267,53.05295],[13.83265,53.05298]]}},{"type":"Feature","properties":{"art":"pfad"},"geometry":{"type":"LineString","coordinates":[[13.83261,53.05306],[13.83254,53.0532]]}},{"type":"Feature","properties":{"art":"pfad"},"geometry":{"type":"LineString","coordinates":[[13.82965,53.04867],[13.82933,53.04924],[13.82907,53.0498],[13.82881,53.05029],[13.82872,53.0505],[13.82857,53.05072],[13.82803,53.05196],[13.82754,53.05276],[13.82734,53.05334],[13.82744,53.05355],[13.82985,53.05337],[13.83197,53.05305]]}},{"type":"Feature","properties":{"art":"pfad"},"geometry":{"type":"LineString","coordinates":[[13.83262,53.05296],[13.83267,53.05295]]}},{"type":"Feature","properties":{"art":"pfad"},"geometry":{"type":"LineString","coordinates":[[13.83254,53.0532],[13.83237,53.0535],[13.83161,53.05509],[13.83124,53.05585],[13.83112,53.05611],[13.83098,53.05642],[13.83072,53.05693],[13.83059,53.05712],[13.83002,53.05724],[13.82879,53.05751],[13.82826,53.05765],[13.8265,53.05779],[13.82642,53.05779]]}},{"type":"Feature","properties":{"art":"pfad"},"geometry":{"type":"LineString","coordinates":[[13.82576,53.05782],[13.8254,53.05783],[13.82463,53.05773]]}},{"type":"Feature","properties":{"art":"weg"},"geometry":{"type":"LineString","coordinates":[[13.82676,53.05512],[13.83066,53.05575],[13.83124,53.05585],[13.83191,53.05598]]}},{"type":"Feature","properties":{"art":"weg"},"geometry":{"type":"LineString","coordinates":[[13.83259,53.05612],[13.83289,53.05618],[13.83408,53.05632],[13.83469,53.05645],[13.83588,53.05663],[13.8363,53.05672],[13.83689,53.0568],[13.83744,53.05686]]}},{"type":"Feature","properties":{"art":"weg"},"geometry":{"type":"LineString","coordinates":[[13.83059,53.05712],[13.83155,53.05723],[13.83255,53.0573],[13.83365,53.05724],[13.83588,53.05663]]}},{"type":"Feature","properties":{"art":"pfad"},"geometry":{"type":"LineString","coordinates":[[13.82826,53.05765],[13.82794,53.05807]]}},{"type":"Feature","properties":{"art":"pfad"},"geometry":{"type":"LineString","coordinates":[[13.8358,53.05704],[13.83579,53.05694],[13.83588,53.05663]]}},{"type":"Feature","properties":{"art":"pfad"},"geometry":{"type":"LineString","coordinates":[[13.84597,53.05864],[13.84532,53.05858],[13.8449,53.05851]]}},{"type":"Feature","properties":{"art":"pfad"},"geometry":{"type":"LineString","coordinates":[[13.84136,53.05739],[13.84117,53.0573],[13.84028,53.05707]]}},{"type":"Feature","properties":{"art":"pfad"},"geometry":{"type":"LineString","coordinates":[[13.81618,53.05755],[13.81659,53.05813],[13.81669,53.05825]]}}]}