{
"type": "FeatureCollection",
"name": "barnim_41_582_boden",
"crs": { "type": "name", "properties": { "name": "urn:ogc:def:crs:OGC:1.3:CRS84" } },
"xy_coordinate_resolution": 1e-05,
"features": [
{ "type": "Feature", "properties": { "boden": "Keine Bodengruppe kartiert" }, "geometry": { "type": "Polygon", "coordinates": [ [ [ 13.67595, 52.57523 ], [ 13.6759, 52.57499 ], [ 13.67565, 52.57456 ], [ 13.67445, 52.57465 ], [ 13.67412, 52.57451 ], [ 13.6745, 52.575 ], [ 13.67459, 52.57524 ], [ 13.67455, 52.57539 ], [ 13.67436, 52.57545 ], [ 13.67375, 52.57546 ], [ 13.67352, 52.57554 ], [ 13.67344, 52.57566 ], [ 13.67358, 52.57589 ], [ 13.67407, 52.57558 ], [ 13.67505, 52.57547 ], [ 13.67588, 52.57545 ], [ 13.67595, 52.57523 ] ] ] } },
{ "type": "Feature", "properties": { "boden": "100 % kräftig, nass (NK1)" }, "geometry": { "type": "Polygon", "coordinates": [ [ [ 13.6759, 52.57499 ], [ 13.67595, 52.57523 ], [ 13.67588, 52.57545 ], [ 13.6769, 52.57543 ], [ 13.67714, 52.57708 ], [ 13.67723, 52.57706 ], [ 13.67741, 52.57711 ], [ 13.67748, 52.57722 ], [ 13.6774, 52.57732 ], [ 13.67718, 52.57736 ], [ 13.67719, 52.57739 ], [ 13.67923, 52.57724 ], [ 13.67881, 52.57498 ], [ 13.67735, 52.5754 ], [ 13.67728, 52.57517 ], [ 13.6776, 52.57483 ], [ 13.67763, 52.57463 ], [ 13.6774, 52.57438 ], [ 13.67565, 52.57456 ], [ 13.6759, 52.57499 ] ], [ [ 13.67764, 52.57604 ], [ 13.67756, 52.57615 ], [ 13.67738, 52.57619 ], [ 13.67721, 52.57615 ], [ 13.67714, 52.57604 ], [ 13.67721, 52.57593 ], [ 13.67739, 52.57589 ], [ 13.67757, 52.57593 ], [ 13.67764, 52.57604 ] ] ] } },
{ "type": "Feature", "properties": { "boden": "100 % kräftig, nass (NK1)" }, "geometry": { "type": "Polygon", "coordinates": [ [ [ 13.67739, 52.57589 ], [ 13.67721, 52.57593 ], [ 13.67714, 52.57604 ], [ 13.67721, 52.57615 ], [ 13.67738, 52.57619 ], [ 13.67756, 52.57615 ], [ 13.67764, 52.57604 ], [ 13.67757, 52.57593 ], [ 13.67739, 52.57589 ] ] ] } },
{ "type": "Feature", "properties": { "boden": "100 % kräftig, nass (NK1)" }, "geometry": { "type": "Polygon", "coordinates": [ [ [ 13.67714, 52.57708 ], [ 13.67718, 52.57736 ], [ 13.6774, 52.57732 ], [ 13.67748, 52.57722 ], [ 13.67741, 52.57711 ], [ 13.67723, 52.57706 ], [ 13.67714, 52.57708 ] ] ] } },
{ "type": "Feature", "properties": { "boden": "100 % ziemlich arm, mäßig frisch (Z+2g)" }, "geometry": { "type": "Polygon", "coordinates": [ [ [ 13.67726, 52.58436 ], [ 13.67572, 52.5844 ], [ 13.67528, 52.5854 ], [ 13.67528, 52.58586 ], [ 13.67657, 52.58592 ], [ 13.67692, 52.58585 ], [ 13.6772, 52.58571 ], [ 13.6775, 52.58515 ], [ 13.67743, 52.58465 ], [ 13.67726, 52.58436 ] ] ] } },
{ "type": "Feature", "properties": { "boden": "100 % mittel, frisch (M1)" }, "geometry": { "type": "Polygon", "coordinates": [ [ [ 13.67743, 52.58465 ], [ 13.6775, 52.58515 ], [ 13.6772, 52.58571 ], [ 13.67692, 52.58585 ], [ 13.67657, 52.58592 ], [ 13.67528, 52.58586 ], [ 13.67519, 52.58629 ], [ 13.67527, 52.58649 ], [ 13.67572, 52.58707 ], [ 13.67592, 52.58713 ], [ 13.67788, 52.58682 ], [ 13.6788, 52.58613 ], [ 13.67878, 52.5861 ], [ 13.67955, 52.58596 ], [ 13.68033, 52.58551 ], [ 13.68023, 52.5854 ], [ 13.68043, 52.5853 ], [ 13.67849, 52.58362 ], [ 13.67834, 52.58388 ], [ 13.67776, 52.58393 ], [ 13.67753, 52.58425 ], [ 13.67726, 52.58436 ], [ 13.67743, 52.58465 ] ] ] } },
{ "type": "Feature", "properties": { "boden": "100 % mittel, frisch (M1)" }, "geometry": { "type": "Polygon", "coordinates": [ [ [ 13.67572, 52.58707 ], [ 13.67527, 52.58649 ], [ 13.67519, 52.58629 ], [ 13.67528, 52.58596 ], [ 13.67528, 52.5854 ], [ 13.67572, 52.5844 ], [ 13.6749, 52.58424 ], [ 13.67472, 52.58425 ], [ 13.67469, 52.58415 ], [ 13.67367, 52.58367 ], [ 13.67314, 52.58308 ], [ 13.67324, 52.58462 ], [ 13.67315, 52.58518 ], [ 13.67295, 52.58565 ], [ 13.67279, 52.58584 ], [ 13.67247, 52.586 ], [ 13.67156, 52.58615 ], [ 13.67151, 52.58774 ], [ 13.67217, 52.58784 ], [ 13.67269, 52.58785 ], [ 13.67306, 52.58792 ], [ 13.67339, 52.58807 ], [ 13.67358, 52.5885 ], [ 13.67394, 52.58899 ], [ 13.67642, 52.58943 ], [ 13.67611, 52.58885 ], [ 13.6754, 52.58802 ], [ 13.67592, 52.58713 ], [ 13.67572, 52.58707 ] ] ] } },
{ "type": "Feature", "properties": { "boden": "100 % mittel, mäßig frisch (M2)" }, "geometry": { "type": "Polygon", "coordinates": [ [ [ 13.67293, 52.58884 ], [ 13.67242, 52.58918 ], [ 13.67267, 52.58931 ], [ 13.67356, 52.58962 ], [ 13.6738, 52.58956 ], [ 13.67407, 52.58903 ], [ 13.67293, 52.58884 ] ] ] } },
{ "type": "Feature", "properties": { "boden": "100 % kräftig, nass (OK1)" }, "geometry": { "type": "Polygon", "coordinates": [ [ [ 13.68484, 52.59808 ], [ 13.68466, 52.59812 ], [ 13.68459, 52.59823 ], [ 13.68466, 52.59834 ], [ 13.68483, 52.59839 ], [ 13.68501, 52.59834 ], [ 13.68509, 52.59824 ], [ 13.68502, 52.59813 ], [ 13.68484, 52.59808 ] ] ] } },
{ "type": "Feature", "properties": { "boden": "100 % kräftig, nass (OK1)" }, "geometry": { "type": "Polygon", "coordinates": [ [ [ 13.68499, 52.60026 ], [ 13.68507, 52.60016 ], [ 13.68525, 52.60011 ], [ 13.68542, 52.60016 ], [ 13.68549, 52.60027 ], [ 13.68544, 52.60034 ], [ 13.68642, 52.60016 ], [ 13.68648, 52.60008 ], [ 13.68595, 52.59978 ], [ 13.68607, 52.59945 ], [ 13.68632, 52.59923 ], [ 13.68656, 52.59918 ], [ 13.68794, 52.59925 ], [ 13.68797, 52.59913 ], [ 13.68819, 52.59893 ], [ 13.68807, 52.59878 ], [ 13.68819, 52.59859 ], [ 13.68805, 52.59843 ], [ 13.6878, 52.5984 ], [ 13.68762, 52.59845 ], [ 13.68745, 52.59866 ], [ 13.68695, 52.59847 ], [ 13.68622, 52.59847 ], [ 13.6858, 52.59828 ], [ 13.68574, 52.59833 ], [ 13.68487, 52.59804 ], [ 13.68489, 52.59788 ], [ 13.68471, 52.59803 ], [ 13.6844, 52.5981 ], [ 13.68447, 52.59849 ], [ 13.68462, 52.59838 ], [ 13.68534, 52.59855 ], [ 13.68547, 52.59868 ], [ 13.68499, 52.59906 ], [ 13.68476, 52.59954 ], [ 13.68443, 52.59975 ], [ 13.68351, 52.59932 ], [ 13.68276, 52.59915 ], [ 13.68274, 52.59904 ], [ 13.68259, 52.59901 ], [ 13.68233, 52.59865 ], [ 13.68189, 52.59858 ], [ 13.68211, 52.59887 ], [ 13.68211, 52.59903 ], [ 13.68195, 52.59933 ], [ 13.68208, 52.5994 ], [ 13.68226, 52.59929 ], [ 13.68292, 52.59957 ], [ 13.68338, 52.59962 ], [ 13.68413, 52.60009 ], [ 13.68387, 52.60035 ], [ 13.68407, 52.60048 ], [ 13.68506, 52.60037 ], [ 13.68499, 52.60026 ] ], [ [ 13.68509, 52.59824 ], [ 13.68501, 52.59834 ], [ 13.68483, 52.59839 ], [ 13.68466, 52.59834 ], [ 13.68459, 52.59823 ], [ 13.68466, 52.59812 ], [ 13.68484, 52.59808 ], [ 13.68502, 52.59813 ], [ 13.68509, 52.59824 ] ] ] } },
{ "type": "Feature", "properties": { "boden": "100 % mittel, frisch (M1)" }, "geometry": { "type": "Polygon", "coordinates": [ [ [ 13.67344, 52.57566 ], [ 13.67352, 52.57554 ], [ 13.67375, 52.57546 ], [ 13.67436, 52.57545 ], [ 13.67455, 52.57539 ], [ 13.67459, 52.57524 ], [ 13.6745, 52.575 ], [ 13.67412, 52.57451 ], [ 13.67297, 52.57402 ], [ 13.67283, 52.57417 ], [ 13.67257, 52.57429 ], [ 13.67192, 52.57442 ], [ 13.6719, 52.57493 ], [ 13.67204, 52.57538 ], [ 13.67226, 52.57559 ], [ 13.67237, 52.57594 ], [ 13.67358, 52.57589 ], [ 13.67344, 52.57566 ] ] ] } },
{ "type": "Feature", "properties": { "boden": "100 % mittel, mäßig frisch (M+2)" }, "geometry": { "type": "Polygon", "coordinates": [ [ [ 13.67237, 52.57594 ], [ 13.67226, 52.57559 ], [ 13.67204, 52.57538 ], [ 13.6719, 52.57493 ], [ 13.67182, 52.57761 ], [ 13.67189, 52.57778 ], [ 13.67337, 52.57768 ], [ 13.6728, 52.57725 ], [ 13.67253, 52.57725 ], [ 13.67221, 52.577 ], [ 13.67226, 52.57681 ], [ 13.67389, 52.57666 ], [ 13.67382, 52.57633 ], [ 13.67358, 52.57589 ], [ 13.67237, 52.57594 ] ] ] } },
{ "type": "Feature", "properties": { "boden": "100 % ziemlich arm, mäßig frisch (Z+2)" }, "geometry": { "type": "Polygon", "coordinates": [ [ [ 13.67293, 52.58284 ], [ 13.67272, 52.58303 ], [ 13.6724, 52.58381 ], [ 13.67247, 52.58398 ], [ 13.67216, 52.58446 ], [ 13.67215, 52.58465 ], [ 13.67158, 52.58549 ], [ 13.67156, 52.58615 ], [ 13.67247, 52.586 ], [ 13.67279, 52.58584 ], [ 13.67295, 52.58565 ], [ 13.67315, 52.58518 ], [ 13.67324, 52.58462 ], [ 13.67314, 52.58308 ], [ 13.67293, 52.58284 ] ] ] } },
{ "type": "Feature", "properties": { "boden": "100 % mittel, mäßig frisch (M2)" }, "geometry": { "type": "Polygon", "coordinates": [ [ [ 13.67151, 52.588 ], [ 13.67254, 52.58872 ], [ 13.67394, 52.58899 ], [ 13.67358, 52.5885 ], [ 13.67339, 52.58807 ], [ 13.67306, 52.58792 ], [ 13.67269, 52.58785 ], [ 13.67217, 52.58784 ], [ 13.67151, 52.58774 ], [ 13.67151, 52.588 ] ] ] } },
{ "type": "Feature", "properties": { "boden": "100 % kräftig, nass (NK1)" }, "geometry": { "type": "Polygon", "coordinates": [ [ [ 13.67894, 52.60055 ], [ 13.67978, 52.60061 ], [ 13.68025, 52.60089 ], [ 13.68083, 52.60085 ], [ 13.68127, 52.60056 ], [ 13.6807, 52.60013 ], [ 13.68101, 52.5998 ], [ 13.68038, 52.59981 ], [ 13.68018, 52.59975 ], [ 13.6797, 52.59938 ], [ 13.67927, 52.59941 ], [ 13.67897, 52.59948 ], [ 13.67872, 52.59955 ], [ 13.67855, 52.59968 ], [ 13.6769, 52.59981 ], [ 13.67673, 52.60038 ], [ 13.67778, 52.60039 ], [ 13.67894, 52.60055 ] ] ] } },
{ "type": "Feature", "properties": { "boden": "100 % kräftig, nass (OK1)" }, "geometry": { "type": "Polygon", "coordinates": [ [ [ 13.68549, 52.60027 ], [ 13.68542, 52.60016 ], [ 13.68525, 52.60011 ], [ 13.68507, 52.60016 ], [ 13.68499, 52.60026 ], [ 13.68506, 52.60037 ], [ 13.68544, 52.60034 ], [ 13.68549, 52.60027 ] ] ] } },
{ "type": "Feature", "properties": { "boden": "100 % mittel, mäßig frisch (M2)" }, "geometry": { "type": "Polygon", "coordinates": [ [ [ 13.67878, 52.6005 ], [ 13.67746, 52.60122 ], [ 13.6777, 52.60152 ], [ 13.6764, 52.60116 ], [ 13.67489, 52.60142 ], [ 13.67452, 52.60158 ], [ 13.67413, 52.60167 ], [ 13.6729, 52.6017 ], [ 13.67213, 52.60425 ], [ 13.67542, 52.60463 ], [ 13.67811, 52.60283 ], [ 13.67894, 52.60055 ], [ 13.67878, 52.6005 ] ], [ [ 13.67488, 52.60256 ], [ 13.6748, 52.60267 ], [ 13.67463, 52.60271 ], [ 13.67445, 52.60266 ], [ 13.67438, 52.60255 ], [ 13.67446, 52.60245 ], [ 13.67464, 52.6024 ], [ 13.67481, 52.60245 ], [ 13.67488, 52.60256 ] ] ] } },
{ "type": "Feature", "properties": { "boden": "100 % mittel, mäßig frisch (M2)" }, "geometry": { "type": "Polygon", "coordinates": [ [ [ 13.67464, 52.6024 ], [ 13.67446, 52.60245 ], [ 13.67438, 52.60255 ], [ 13.67445, 52.60266 ], [ 13.67463, 52.60271 ], [ 13.6748, 52.60267 ], [ 13.67488, 52.60256 ], [ 13.67481, 52.60245 ], [ 13.67464, 52.6024 ] ] ] } },
{ "type": "Feature", "properties": { "boden": "100 % mittel, mäßig frisch (M+2)" }, "geometry": { "type": "Polygon", "coordinates": [ [ [ 13.70951, 52.59371 ], [ 13.70939, 52.59381 ], [ 13.70921, 52.59379 ], [ 13.70924, 52.59394 ], [ 13.70941, 52.59398 ], [ 13.70959, 52.59394 ], [ 13.70967, 52.59383 ], [ 13.7096, 52.59372 ], [ 13.70951, 52.59371 ] ] ] } },
{ "type": "Feature", "properties": { "boden": "100 % mittel, mäßig frisch (M+2)" }, "geometry": { "type": "Polygon", "coordinates": [ [ [ 13.71476, 52.58928 ], [ 13.71458, 52.58932 ], [ 13.7145, 52.58943 ], [ 13.71457, 52.58954 ], [ 13.71475, 52.58958 ], [ 13.71492, 52.58954 ], [ 13.715, 52.58943 ], [ 13.71493, 52.58933 ], [ 13.71476, 52.58928 ] ] ] } },
{ "type": "Feature", "properties": { "boden": "100 % mittel, mäßig frisch (M+2)" }, "geometry": { "type": "Polygon", "coordinates": [ [ [ 13.71256, 52.58943 ], [ 13.71239, 52.58947 ], [ 13.71231, 52.58958 ], [ 13.71238, 52.58968 ], [ 13.71256, 52.58973 ], [ 13.71273, 52.58969 ], [ 13.71281, 52.58958 ], [ 13.71274, 52.58947 ], [ 13.71256, 52.58943 ] ] ] } },
{ "type": "Feature", "properties": { "boden": "100 % mittel, mäßig frisch (M+2)" }, "geometry": { "type": "Polygon", "coordinates": [ [ [ 13.71518, 52.5897 ], [ 13.715, 52.58974 ], [ 13.71492, 52.58985 ], [ 13.71499, 52.58995 ], [ 13.71517, 52.59 ], [ 13.71535, 52.58996 ], [ 13.71542, 52.58985 ], [ 13.71535, 52.58974 ], [ 13.71518, 52.5897 ] ] ] } },
{ "type": "Feature", "properties": { "boden": "100 % mittel, mäßig frisch (M+2)" }, "geometry": { "type": "Polygon", "coordinates": [ [ [ 13.71545, 52.59216 ], [ 13.7159, 52.59065 ], [ 13.71596, 52.59031 ], [ 13.71587, 52.59006 ], [ 13.71565, 52.58968 ], [ 13.71527, 52.58926 ], [ 13.7139, 52.58829 ], [ 13.71271, 52.58858 ], [ 13.71216, 52.58884 ], [ 13.71149, 52.58936 ], [ 13.71079, 52.58955 ], [ 13.70913, 52.59024 ], [ 13.70889, 52.59061 ], [ 13.70882, 52.59099 ], [ 13.70868, 52.59124 ], [ 13.70874, 52.59159 ], [ 13.7087, 52.59205 ], [ 13.7088, 52.59272 ], [ 13.70856, 52.59274 ], [ 13.70881, 52.59274 ], [ 13.70886, 52.59285 ], [ 13.70911, 52.59306 ], [ 13.70914, 52.59316 ], [ 13.70959, 52.59331 ], [ 13.70961, 52.59354 ], [ 13.70949, 52.59366 ], [ 13.70967, 52.59383 ], [ 13.70959, 52.59394 ], [ 13.70941, 52.59398 ], [ 13.70924, 52.59394 ], [ 13.70918, 52.59384 ], [ 13.70907, 52.59404 ], [ 13.70973, 52.59411 ], [ 13.70985, 52.59438 ], [ 13.71019, 52.59472 ], [ 13.71026, 52.59469 ], [ 13.71059, 52.59422 ], [ 13.71074, 52.59351 ], [ 13.71069, 52.59304 ], [ 13.71056, 52.59287 ], [ 13.71027, 52.59274 ], [ 13.71012, 52.59239 ], [ 13.71031, 52.59151 ], [ 13.71049, 52.59121 ], [ 13.71073, 52.59105 ], [ 13.71097, 52.59091 ], [ 13.71179, 52.59063 ], [ 13.71258, 52.59055 ], [ 13.7136, 52.59085 ], [ 13.71397, 52.59107 ], [ 13.71424, 52.59108 ], [ 13.71416, 52.59117 ], [ 13.71424, 52.59136 ], [ 13.71482, 52.59231 ], [ 13.71545, 52.59216 ] ], [ [ 13.71542, 52.58985 ], [ 13.71535, 52.58996 ], [ 13.71517, 52.59 ], [ 13.71499, 52.58995 ], [ 13.71492, 52.58985 ], [ 13.715, 52.58974 ], [ 13.71518, 52.5897 ], [ 13.71535, 52.58974 ], [ 13.71542, 52.58985 ] ], [ [ 13.71281, 52.58958 ], [ 13.71273, 52.58969 ], [ 13.71256, 52.58973 ], [ 13.71238, 52.58968 ], [ 13.71231, 52.58958 ], [ 13.71239, 52.58947 ], [ 13.71256, 52.58943 ], [ 13.71274, 52.58947 ], [ 13.71281, 52.58958 ] ], [ [ 13.715, 52.58943 ], [ 13.71492, 52.58954 ], [ 13.71475, 52.58958 ], [ 13.71457, 52.58954 ], [ 13.7145, 52.58943 ], [ 13.71458, 52.58932 ], [ 13.71476, 52.58928 ], [ 13.71493, 52.58933 ], [ 13.715, 52.58943 ] ] ] } },
{ "type": "Feature", "properties": { "boden": "100 % kräftig, mäßig frisch (K2)" }, "geometry": { "type": "Polygon", "coordinates": [ [ [ 13.71482, 52.59231 ], [ 13.71416, 52.59117 ], [ 13.71424, 52.59108 ], [ 13.71397, 52.59107 ], [ 13.7136, 52.59085 ], [ 13.71258, 52.59055 ], [ 13.71179, 52.59063 ], [ 13.71097, 52.59091 ], [ 13.71049, 52.59121 ], [ 13.71021, 52.59178 ], [ 13.71012, 52.59239 ], [ 13.71027, 52.59274 ], [ 13.71056, 52.59287 ], [ 13.71069, 52.59304 ], [ 13.71073, 52.59375 ], [ 13.71049, 52.59443 ], [ 13.71019, 52.59472 ], [ 13.71022, 52.59495 ], [ 13.71004, 52.59548 ], [ 13.70997, 52.59547 ], [ 13.70968, 52.59603 ], [ 13.70974, 52.59627 ], [ 13.71031, 52.5968 ], [ 13.71115, 52.59657 ], [ 13.71202, 52.59595 ], [ 13.71217, 52.59578 ], [ 13.71246, 52.59562 ], [ 13.71326, 52.59544 ], [ 13.71325, 52.59533 ], [ 13.71314, 52.59529 ], [ 13.71236, 52.59525 ], [ 13.71216, 52.5952 ], [ 13.7121, 52.59502 ], [ 13.71222, 52.59489 ], [ 13.71383, 52.59484 ], [ 13.71413, 52.59467 ], [ 13.71428, 52.59428 ], [ 13.71457, 52.59392 ], [ 13.71473, 52.59361 ], [ 13.71482, 52.59231 ] ] ] } },
{ "type": "Feature", "properties": { "boden": "100 % kräftig, nass (NK2)" }, "geometry": { "type": "Polygon", "coordinates": [ [ [ 13.71482, 52.59231 ], [ 13.71473, 52.59361 ], [ 13.71457, 52.59392 ], [ 13.71428, 52.59428 ], [ 13.71413, 52.59467 ], [ 13.71383, 52.59484 ], [ 13.71222, 52.59489 ], [ 13.7121, 52.59502 ], [ 13.71216, 52.5952 ], [ 13.71236, 52.59525 ], [ 13.71314, 52.59529 ], [ 13.71325, 52.59533 ], [ 13.71326, 52.59544 ], [ 13.71246, 52.59562 ], [ 13.71217, 52.59578 ], [ 13.71202, 52.59595 ], [ 13.71115, 52.59657 ], [ 13.71064, 52.59674 ], [ 13.70928, 52.59698 ], [ 13.70941, 52.599 ], [ 13.71161, 52.59893 ], [ 13.71156, 52.59841 ], [ 13.71146, 52.59824 ], [ 13.71132, 52.59759 ], [ 13.71124, 52.59757 ], [ 13.71119, 52.59714 ], [ 13.71196, 52.5963 ], [ 13.71261, 52.59596 ], [ 13.71322, 52.59579 ], [ 13.71383, 52.59554 ], [ 13.71436, 52.59513 ], [ 13.7149, 52.59479 ], [ 13.71502, 52.59461 ], [ 13.71523, 52.59349 ], [ 13.71527, 52.59274 ], [ 13.71545, 52.59216 ], [ 13.71482, 52.59231 ] ] ] } },
{ "type": "Feature", "properties": { "boden": "100 % mittel, trocken (vermutet) (M3)" }, "geometry": { "type": "Polygon", "coordinates": [ [ [ 13.72798, 52.61289 ], [ 13.72787, 52.61308 ], [ 13.72838, 52.61306 ], [ 13.72851, 52.61299 ], [ 13.72844, 52.61292 ], [ 13.72827, 52.61288 ], [ 13.72798, 52.61289 ] ] ] } },
{ "type": "Feature", "properties": { "boden": "100 % mittel, mäßig frisch (M2)" }, "geometry": { "type": "Polygon", "coordinates": [ [ [ 13.72798, 52.61289 ], [ 13.72827, 52.61288 ], [ 13.72844, 52.61292 ], [ 13.72851, 52.61299 ], [ 13.72838, 52.61306 ], [ 13.72787, 52.61308 ], [ 13.72783, 52.61317 ], [ 13.73286, 52.61322 ], [ 13.73418, 52.61316 ], [ 13.73532, 52.61315 ], [ 13.73567, 52.61307 ], [ 13.73594, 52.61286 ], [ 13.7359, 52.61282 ], [ 13.73501, 52.61257 ], [ 13.72983, 52.6124 ], [ 13.72955, 52.61236 ], [ 13.72937, 52.61208 ], [ 13.72848, 52.61218 ], [ 13.72798, 52.61289 ] ] ] } },
{ "type": "Feature", "properties": { "boden": "100 % mittel, mäßig frisch (M2g)" }, "geometry": { "type": "Polygon", "coordinates": [ [ [ 13.72783, 52.61317 ], [ 13.72848, 52.61218 ], [ 13.72548, 52.6125 ], [ 13.72556, 52.61314 ], [ 13.72783, 52.61317 ] ] ] } }
]
}
