{"type":"FeatureCollection","features":[{"type":"Feature","properties":{"art":"weg"},"geometry":{"type":"LineString","coordinates":[[13.67719,52.57744],[13.67948,52.57727],[13.67994,52.57724]]}},{"type":"Feature","properties":{"art":"strasse"},"geometry":{"type":"LineString","coordinates":[[13.67987,52.57739],[13.6798,52.5774],[13.67854,52.57752],[13.67809,52.57757],[13.67781,52.57762],[13.67757,52.57762],[13.67701,52.57762],[13.67664,52.57764]]}},{"type":"Feature","properties":{"art":"strasse"},"geometry":{"type":"LineString","coordinates":[[13.67651,52.57749],[13.67719,52.57744]]}},{"type":"Feature","properties":{"art":"strasse"},"geometry":{"type":"LineString","coordinates":[[13.67891,52.58676],[13.67873,52.58643],[13.67857,52.58616],[13.67823,52.58566],[13.67792,52.58515],[13.67777,52.58487],[13.67744,52.58436],[13.6773,52.58412],[13.67708,52.58374]]}},{"type":"Feature","properties":{"art":"strasse"},"geometry":{"type":"LineString","coordinates":[[13.67199,52.57785],[13.67139,52.57735],[13.67077,52.57691]]}},{"type":"Feature","properties":{"art":"strasse"},"geometry":{"type":"LineString","coordinates":[[13.67365,52.57755],[13.67369,52.57771]]}},{"type":"Feature","properties":{"art":"strasse"},"geometry":{"type":"LineString","coordinates":[[13.67199,52.57785],[13.67369,52.57771],[13.6741,52.57767]]}},{"type":"Feature","properties":{"art":"pfad"},"geometry":{"type":"LineString","coordinates":[[13.66978,52.57774],[13.67009,52.57792],[13.67017,52.57797]]}},{"type":"Feature","properties":{"art":"strasse"},"geometry":{"type":"LineString","coordinates":[[13.67208,52.57795],[13.67199,52.57785]]}},{"type":"Feature","properties":{"art":"strasse"},"geometry":{"type":"LineString","coordinates":[[13.66501,52.57834],[13.66572,52.5783],[13.66605,52.57828],[13.66696,52.57821],[13.66734,52.57818],[13.66912,52.57805],[13.67017,52.57797],[13.67074,52.57793]]}},{"type":"Feature","properties":{"art":"strasse"},"geometry":{"type":"LineString","coordinates":[[13.67118,52.5779],[13.67126,52.57789],[13.67199,52.57785]]}},{"type":"Feature","properties":{"art":"strasse"},"geometry":{"type":"LineString","coordinates":[[13.67234,52.5782],[13.67223,52.57811],[13.67208,52.57795]]}},{"type":"Feature","properties":{"art":"weg"},"geometry":{"type":"LineString","coordinates":[[13.67056,52.58692],[13.67068,52.58659],[13.67086,52.58627],[13.67102,52.58603],[13.67114,52.58588],[13.67136,52.5857],[13.67154,52.58555],[13.67187,52.585],[13.6721,52.58465],[13.6722,52.5844],[13.67253,52.58436],[13.67398,52.58427],[13.67488,52.58423],[13.67533,52.58433],[13.67566,52.58439],[13.67592,52.58442],[13.67622,52.5844],[13.67662,52.58436],[13.67707,52.58435],[13.67744,52.58436]]}},{"type":"Feature","properties":{"art":"pfad"},"geometry":{"type":"LineString","coordinates":[[13.67744,52.58436],[13.67738,52.58439],[13.677,52.58461],[13.67667,52.58505],[13.67619,52.58588],[13.67606,52.58598],[13.67588,52.58604],[13.67555,52.58609],[13.67492,52.58612],[13.67467,52.58609],[13.6743,52.5861],[13.67234,52.58657],[13.67117,52.58673],[13.67075,52.58679],[13.67056,52.58692],[13.67051,52.58715]]}},{"type":"Feature","properties":{"art":"pfad"},"geometry":{"type":"LineString","coordinates":[[13.67222,52.58845],[13.67285,52.58811],[13.67477,52.58671],[13.67503,52.58647],[13.675,52.58634],[13.67492,52.58612]]}},{"type":"Feature","properties":{"art":"weg"},"geometry":{"type":"LineString","coordinates":[[13.6715,52.58868],[13.67209,52.58876],[13.67253,52.58879],[13.67279,52.58884]]}},{"type":"Feature","properties":{"art":"weg"},"geometry":{"type":"LineString","coordinates":[[13.67279,52.58884],[13.67276,52.58879],[13.67222,52.58845],[13.67062,52.58739],[13.67054,52.58725],[13.67051,52.58715]]}},{"type":"Feature","properties":{"art":"strasse"},"geometry":{"type":"LineString","coordinates":[[13.67215,52.58964],[13.6725,52.58925],[13.67279,52.58884]]}},{"type":"Feature","properties":{"art":"weg"},"geometry":{"type":"LineString","coordinates":[[13.68412,52.59769],[13.6842,52.59768],[13.68429,52.59767],[13.68438,52.59767],[13.68448,52.59768],[13.68467,52.59772]]}},{"type":"Feature","properties":{"art":"strasse"},"geometry":{"type":"LineString","coordinates":[[13.67279,52.58884],[13.67302,52.58886],[13.67416,52.58906],[13.67572,52.58936],[13.67597,52.58943],[13.67618,52.58951],[13.67635,52.58955],[13.67704,52.58965]]}},{"type":"Feature","properties":{"art":"weg"},"geometry":{"type":"LineString","coordinates":[[13.67746,52.60091],[13.67776,52.60075],[13.67879,52.60014],[13.67907,52.60001],[13.68057,52.59942],[13.68072,52.59936]]}},{"type":"Feature","properties":{"art":"weg"},"geometry":{"type":"LineString","coordinates":[[13.6813,52.5991],[13.68136,52.59906],[13.68147,52.59895],[13.68182,52.59844],[13.68206,52.59815]]}},{"type":"Feature","properties":{"art":"strasse"},"geometry":{"type":"LineString","coordinates":[[13.67827,52.60339],[13.67798,52.60323],[13.67783,52.60325],[13.67647,52.60416],[13.67534,52.60497]]}},{"type":"Feature","properties":{"art":"strasse"},"geometry":{"type":"LineString","coordinates":[[13.67683,52.60435],[13.67647,52.60416]]}},{"type":"Feature","properties":{"art":"strasse"},"geometry":{"type":"LineString","coordinates":[[13.67546,52.60503],[13.67534,52.60497],[13.67519,52.60506]]}},{"type":"Feature","properties":{"art":"strasse"},"geometry":{"type":"LineString","coordinates":[[13.68516,52.59765],[13.6851,52.59781]]}},{"type":"Feature","properties":{"art":"strasse"},"geometry":{"type":"LineString","coordinates":[[13.68467,52.59772],[13.6851,52.59781]]}},{"type":"Feature","properties":{"art":"strasse"},"geometry":{"type":"LineString","coordinates":[[13.68572,52.59794],[13.6853,52.59785],[13.6851,52.59781]]}},{"type":"Feature","properties":{"art":"strasse"},"geometry":{"type":"LineString","coordinates":[[13.68715,52.59806],[13.68715,52.59806]]}},{"type":"Feature","properties":{"art":"pfad"},"geometry":{"type":"LineString","coordinates":[[13.68815,52.59965],[13.68816,52.59963],[13.68827,52.59935],[13.68824,52.59928]]}},{"type":"Feature","properties":{"art":"strasse"},"geometry":{"type":"LineString","coordinates":[[13.68794,52.59969],[13.68804,52.59954],[13.68824,52.59928]]}},{"type":"Feature","properties":{"art":"weg"},"geometry":{"type":"LineString","coordinates":[[13.71312,52.588],[13.71313,52.58804]]}},{"type":"Feature","properties":{"art":"weg"},"geometry":{"type":"LineString","coordinates":[[13.7132,52.58811],[13.71339,52.58824],[13.71363,52.5883],[13.71395,52.58843],[13.71436,52.58864],[13.71484,52.58894],[13.71523,52.58915],[13.71555,52.58944],[13.7159,52.58982],[13.71598,52.58998],[13.71602,52.59054],[13.71534,52.59285],[13.71535,52.59306],[13.71543,52.59325],[13.71529,52.5938],[13.71522,52.59435],[13.71519,52.59445],[13.71505,52.59458],[13.71495,52.59475],[13.71478,52.59491],[13.71441,52.59514],[13.71424,52.59521],[13.71413,52.59529],[13.71408,52.59536],[13.71403,52.59549],[13.71365,52.59566],[13.713,52.59595],[13.71277,52.59602],[13.71227,52.59623],[13.71197,52.59653],[13.71176,52.5968],[13.71157,52.597],[13.71126,52.59706],[13.71108,52.59707],[13.71015,52.59677],[13.70931,52.5969]]}},{"type":"Feature","properties":{"art":"weg"},"geometry":{"type":"LineString","coordinates":[[13.71157,52.597],[13.71147,52.59729],[13.71159,52.59753],[13.71163,52.59779],[13.71164,52.59784],[13.71175,52.59821],[13.7118,52.59835],[13.71182,52.59852],[13.71182,52.59872],[13.71181,52.59882],[13.71181,52.59895],[13.71183,52.59906],[13.71184,52.59932]]}},{"type":"Feature","properties":{"art":"strasse"},"geometry":{"type":"LineString","coordinates":[[13.68782,52.59819],[13.68783,52.59816],[13.68782,52.59811],[13.68776,52.59797]]}},{"type":"Feature","properties":{"art":"strasse"},"geometry":{"type":"LineString","coordinates":[[13.68885,52.59845],[13.68885,52.59845]]}},{"type":"Feature","properties":{"art":"strasse"},"geometry":{"type":"LineString","coordinates":[[13.68885,52.59845],[13.68877,52.59843],[13.68862,52.59839],[13.68846,52.59835],[13.68821,52.59828],[13.68782,52.59819],[13.68715,52.59806],[13.68702,52.59804],[13.68689,52.59802]]}},{"type":"Feature","properties":{"art":"strasse"},"geometry":{"type":"LineString","coordinates":[[13.68683,52.59802],[13.68669,52.59803],[13.68643,52.59804],[13.68631,52.59803],[13.68617,52.59802],[13.68594,52.59798],[13.68572,52.59794]]}},{"type":"Feature","properties":{"art":"strasse"},"geometry":{"type":"LineString","coordinates":[[13.68886,52.59847],[13.68885,52.59845]]}},{"type":"Feature","properties":{"art":"strasse"},"geometry":{"type":"LineString","coordinates":[[13.68837,52.5991],[13.68874,52.59857],[13.68885,52.59845]]}},{"type":"Feature","properties":{"art":"pfad"},"geometry":{"type":"LineString","coordinates":[[13.68886,52.59852],[13.68885,52.59853],[13.68879,52.5986],[13.68869,52.59873],[13.68852,52.59899],[13.68849,52.59904],[13.68844,52.59929],[13.6884,52.59934]]}},{"type":"Feature","properties":{"art":"strasse"},"geometry":{"type":"LineString","coordinates":[[13.68824,52.59928],[13.68837,52.5991]]}},{"type":"Feature","properties":{"art":"strasse"},"geometry":{"type":"LineString","coordinates":[[13.68824,52.59928],[13.68832,52.59931],[13.68836,52.59933],[13.6884,52.59934]]}},{"type":"Feature","properties":{"art":"strasse"},"geometry":{"type":"LineString","coordinates":[[13.6884,52.59934],[13.6885,52.59936],[13.68862,52.59937]]}},{"type":"Feature","properties":{"art":"weg"},"geometry":{"type":"LineString","coordinates":[[13.71313,52.58804],[13.7132,52.58811]]}},{"type":"Feature","properties":{"art":"pfad"},"geometry":{"type":"LineString","coordinates":[[13.71505,52.59458],[13.71245,52.59431],[13.71239,52.59352],[13.71239,52.5925],[13.7124,52.59138],[13.71236,52.59081],[13.71245,52.58927],[13.71217,52.58893],[13.71339,52.58824]]}},{"type":"Feature","properties":{"art":"pfad"},"geometry":{"type":"LineString","coordinates":[[13.7294,52.61203],[13.7267,52.6123],[13.72547,52.61244],[13.72517,52.61246],[13.72475,52.61251]]}},{"type":"Feature","properties":{"art":"weg"},"geometry":{"type":"LineString","coordinates":[[13.72675,52.61355],[13.7266,52.61382],[13.72637,52.61416],[13.72626,52.61438],[13.72596,52.61487],[13.72579,52.61511],[13.72541,52.61548],[13.72535,52.61552]]}},{"type":"Feature","properties":{"art":"weg"},"geometry":{"type":"LineString","coordinates":[[13.73592,52.61234],[13.73594,52.61262],[13.73594,52.61271],[13.73568,52.61266],[13.73543,52.6126],[13.7351,52.61251],[13.73458,52.61246],[13.73409,52.61244],[13.73365,52.61243],[13.73319,52.61241],[13.73105,52.61236],[13.73057,52.61236],[13.73026,52.61236],[13.72996,52.61237],[13.72958,52.61242],[13.72934,52.61246]]}},{"type":"Feature","properties":{"art":"weg"},"geometry":{"type":"LineString","coordinates":[[13.72935,52.61165],[13.7294,52.61203],[13.72947,52.61232]]}},{"type":"Feature","properties":{"art":"pfad"},"geometry":{"type":"LineString","coordinates":[[13.75169,52.61729],[13.75164,52.61727],[13.75118,52.61717],[13.75001,52.61699],[13.74893,52.6168],[13.74791,52.61647],[13.74749,52.6162],[13.74652,52.61582],[13.74564,52.61543],[13.74513,52.61524],[13.74347,52.61456],[13.74239,52.61412],[13.74219,52.61406],[13.74191,52.614],[13.74133,52.61388],[13.74132,52.61388]]}},{"type":"Feature","properties":{"art":"pfad"},"geometry":{"type":"LineString","coordinates":[[13.73667,52.61288],[13.73604,52.61273],[13.73594,52.61271]]}},{"type":"Feature","properties":{"art":"weg"},"geometry":{"type":"LineString","coordinates":[[13.73604,52.61273],[13.73602,52.61281],[13.73596,52.61297],[13.73591,52.6131],[13.73589,52.61327],[13.73591,52.61345],[13.73592,52.61349]]}},{"type":"Feature","properties":{"art":"weg"},"geometry":{"type":"LineString","coordinates":[[13.72947,52.61232],[13.72945,52.61236],[13.72941,52.61241],[13.72934,52.61246]]}},{"type":"Feature","properties":{"art":"weg"},"geometry":{"type":"LineString","coordinates":[[13.72934,52.61246],[13.72811,52.61268],[13.72768,52.61276],[13.7274,52.61287],[13.72712,52.61304],[13.72693,52.61324],[13.72675,52.61355]]}},{"type":"Feature","properties":{"art":"weg"},"geometry":{"type":"LineString","coordinates":[[13.72947,52.61232],[13.72958,52.61242],[13.72977,52.61263],[13.72986,52.61274],[13.72994,52.61283],[13.73011,52.61304],[13.73022,52.61318],[13.73033,52.61331],[13.73039,52.61341],[13.73042,52.61351],[13.73046,52.61368],[13.73048,52.6139],[13.73049,52.61403],[13.73052,52.61416],[13.73058,52.61428],[13.7307,52.61474],[13.73078,52.61506],[13.73082,52.61523],[13.73092,52.61564],[13.731,52.616],[13.73104,52.61618],[13.73124,52.617],[13.73139,52.61764],[13.73145,52.61788],[13.73149,52.61805]]}},{"type":"Feature","properties":{"art":"strasse"},"geometry":{"type":"LineString","coordinates":[[13.75197,52.61706],[13.75175,52.61724],[13.75173,52.61726]]}},{"type":"Feature","properties":{"art":"pfad"},"geometry":{"type":"LineString","coordinates":[[13.75105,52.61673],[13.75106,52.61682],[13.75118,52.61717]]}}]}