{
"type": "FeatureCollection",
"name": "barnim_39_587_boden",
"crs": { "type": "name", "properties": { "name": "urn:ogc:def:crs:OGC:1.3:CRS84" } },
"xy_coordinate_resolution": 1e-05,
"features": [
{ "type": "Feature", "properties": { "boden": "100 % mittel, mäßig frisch (M2)" }, "geometry": { "type": "Polygon", "coordinates": [ [ [ 13.50831, 52.97089 ], [ 13.50736, 52.97028 ], [ 13.50699, 52.97041 ], [ 13.50693, 52.97053 ], [ 13.50701, 52.97065 ], [ 13.50722, 52.9707 ], [ 13.50745, 52.97066 ], [ 13.5074, 52.97075 ], [ 13.50749, 52.97088 ], [ 13.50769, 52.97093 ], [ 13.5079, 52.97087 ], [ 13.5078, 52.971 ], [ 13.50789, 52.97113 ], [ 13.50809, 52.97118 ], [ 13.50831, 52.97112 ], [ 13.50839, 52.97099 ], [ 13.50831, 52.97089 ] ] ] } },
{ "type": "Feature", "properties": { "boden": "100 % mittel, mäßig frisch (M2)" }, "geometry": { "type": "Polygon", "coordinates": [ [ [ 13.50989, 52.97164 ], [ 13.50966, 52.97171 ], [ 13.5096, 52.97182 ], [ 13.50968, 52.97195 ], [ 13.50989, 52.972 ], [ 13.51011, 52.97194 ], [ 13.51019, 52.97181 ], [ 13.51008, 52.97169 ], [ 13.50989, 52.97164 ] ] ] } },
{ "type": "Feature", "properties": { "boden": "100 % mittel, mäßig frisch (M2)" }, "geometry": { "type": "Polygon", "coordinates": [ [ [ 13.51062, 52.97223 ], [ 13.51039, 52.9723 ], [ 13.51032, 52.97241 ], [ 13.51041, 52.97254 ], [ 13.51061, 52.97259 ], [ 13.51082, 52.97253 ], [ 13.51082, 52.9723 ], [ 13.51062, 52.97223 ] ] ] } },
{ "type": "Feature", "properties": { "boden": "100 % mittel, mäßig frisch (M2)" }, "geometry": { "type": "Polygon", "coordinates": [ [ [ 13.5094, 52.97024 ], [ 13.50989, 52.97118 ], [ 13.50942, 52.97146 ], [ 13.50885, 52.97123 ], [ 13.50831, 52.97089 ], [ 13.50839, 52.97099 ], [ 13.50831, 52.97112 ], [ 13.50809, 52.97118 ], [ 13.50789, 52.97113 ], [ 13.5078, 52.971 ], [ 13.5079, 52.97087 ], [ 13.50769, 52.97093 ], [ 13.50749, 52.97088 ], [ 13.5074, 52.97075 ], [ 13.50745, 52.97066 ], [ 13.50722, 52.9707 ], [ 13.50701, 52.97065 ], [ 13.50693, 52.97053 ], [ 13.50699, 52.97041 ], [ 13.50736, 52.97028 ], [ 13.50674, 52.97033 ], [ 13.50668, 52.97037 ], [ 13.50678, 52.97049 ], [ 13.5067, 52.97061 ], [ 13.50648, 52.97068 ], [ 13.50626, 52.9706 ], [ 13.50599, 52.97075 ], [ 13.50473, 52.97019 ], [ 13.50407, 52.97018 ], [ 13.5038, 52.97032 ], [ 13.50219, 52.97067 ], [ 13.50212, 52.97075 ], [ 13.51076, 52.97404 ], [ 13.51082, 52.97253 ], [ 13.51061, 52.97259 ], [ 13.51041, 52.97254 ], [ 13.51032, 52.97241 ], [ 13.51039, 52.9723 ], [ 13.51062, 52.97223 ], [ 13.51082, 52.9723 ], [ 13.51089, 52.97026 ], [ 13.5094, 52.97024 ] ], [ [ 13.50699, 52.97197 ], [ 13.50709, 52.9721 ], [ 13.50702, 52.97222 ], [ 13.50679, 52.97228 ], [ 13.50659, 52.97223 ], [ 13.5065, 52.97211 ], [ 13.50657, 52.97199 ], [ 13.5068, 52.97193 ], [ 13.50699, 52.97197 ] ], [ [ 13.51019, 52.97181 ], [ 13.51011, 52.97194 ], [ 13.50989, 52.972 ], [ 13.50968, 52.97195 ], [ 13.5096, 52.97182 ], [ 13.50966, 52.97171 ], [ 13.50989, 52.97164 ], [ 13.51008, 52.97169 ], [ 13.51019, 52.97181 ] ] ] } },
{ "type": "Feature", "properties": { "boden": "100 % ziemlich arm, mäßig frisch (Z2)" }, "geometry": { "type": "Polygon", "coordinates": [ [ [ 13.50049, 52.97013 ], [ 13.50212, 52.97075 ], [ 13.50219, 52.97067 ], [ 13.5038, 52.97032 ], [ 13.50407, 52.97018 ], [ 13.50049, 52.97013 ] ] ] } },
{ "type": "Feature", "properties": { "boden": "100 % mittel, mäßig frisch (M2)" }, "geometry": { "type": "Polygon", "coordinates": [ [ [ 13.50626, 52.9706 ], [ 13.50648, 52.97068 ], [ 13.5067, 52.97061 ], [ 13.50678, 52.97049 ], [ 13.50668, 52.97037 ], [ 13.50626, 52.9706 ] ] ] } },
{ "type": "Feature", "properties": { "boden": "100 % mittel, mäßig frisch (M2)" }, "geometry": { "type": "Polygon", "coordinates": [ [ [ 13.5068, 52.97193 ], [ 13.50657, 52.97199 ], [ 13.5065, 52.97211 ], [ 13.50659, 52.97223 ], [ 13.50679, 52.97228 ], [ 13.50702, 52.97222 ], [ 13.50709, 52.9721 ], [ 13.50699, 52.97197 ], [ 13.5068, 52.97193 ] ] ] } }
]
}
