{"type":"FeatureCollection","features":[{"type":"Feature","properties":{"art":"pfad"},"geometry":{"type":"LineString","coordinates":[[14.06641,52.86274],[14.06694,52.86271],[14.06837,52.86265],[14.06937,52.86261]]}},{"type":"Feature","properties":{"art":"strasse"},"geometry":{"type":"LineString","coordinates":[[14.06647,52.86269],[14.06659,52.86268],[14.06762,52.86264]]}},{"type":"Feature","properties":{"art":"strasse"},"geometry":{"type":"LineString","coordinates":[[14.06762,52.86264],[14.06922,52.86257]]}},{"type":"Feature","properties":{"art":"strasse"},"geometry":{"type":"LineString","coordinates":[[14.07048,52.86315],[14.07048,52.86315]]}},{"type":"Feature","properties":{"art":"weg"},"geometry":{"type":"LineString","coordinates":[[14.08096,52.87137],[14.08094,52.8714],[14.0807,52.87151],[14.08024,52.87154],[14.07986,52.87157],[14.07966,52.87158],[14.07914,52.87151],[14.07911,52.8715],[14.07846,52.87136],[14.0779,52.87124],[14.07759,52.87123],[14.07729,52.87134],[14.07618,52.87179],[14.07569,52.87199],[14.07532,52.87248],[14.0751,52.87269],[14.07501,52.87274],[14.07446,52.87265],[14.07299,52.87227],[14.07246,52.87212],[14.07225,52.87207],[14.07053,52.87166],[14.06967,52.87163],[14.06881,52.87171],[14.06759,52.87162]]}},{"type":"Feature","properties":{"art":"weg"},"geometry":{"type":"LineString","coordinates":[[14.07973,52.87153],[14.07985,52.87146],[14.07989,52.87137],[14.0799,52.87132]]}},{"type":"Feature","properties":{"art":"weg"},"geometry":{"type":"LineString","coordinates":[[14.07914,52.87151],[14.07918,52.87148],[14.07932,52.87145],[14.07934,52.8714]]}},{"type":"Feature","properties":{"art":"weg"},"geometry":{"type":"LineString","coordinates":[[14.08024,52.87154],[14.08036,52.87143],[14.08046,52.8714],[14.08061,52.8714]]}},{"type":"Feature","properties":{"art":"weg"},"geometry":{"type":"LineString","coordinates":[[14.07986,52.87157],[14.07989,52.87152],[14.07999,52.87146]]}},{"type":"Feature","properties":{"art":"strasse"},"geometry":{"type":"LineString","coordinates":[[14.05839,52.87429],[14.05848,52.87417],[14.05848,52.87411],[14.05847,52.87411]]}},{"type":"Feature","properties":{"art":"strasse"},"geometry":{"type":"LineString","coordinates":[[14.0593,52.87398],[14.05923,52.87396]]}},{"type":"Feature","properties":{"art":"strasse"},"geometry":{"type":"LineString","coordinates":[[14.05917,52.8742],[14.05862,52.87406]]}},{"type":"Feature","properties":{"art":"strasse"},"geometry":{"type":"LineString","coordinates":[[14.05931,52.87396],[14.0593,52.87398],[14.05917,52.8742],[14.05902,52.87445],[14.05895,52.87456],[14.05885,52.87472],[14.05879,52.87476]]}},{"type":"Feature","properties":{"art":"pfad"},"geometry":{"type":"LineString","coordinates":[[14.06127,52.87775],[14.06133,52.87761]]}},{"type":"Feature","properties":{"art":"pfad"},"geometry":{"type":"LineString","coordinates":[[14.06151,52.87582],[14.06153,52.87546],[14.06155,52.87523]]}},{"type":"Feature","properties":{"art":"strasse"},"geometry":{"type":"LineString","coordinates":[[14.05895,52.87456],[14.05894,52.87451],[14.0589,52.87447],[14.05885,52.87442],[14.05878,52.87438]]}},{"type":"Feature","properties":{"art":"weg"},"geometry":{"type":"LineString","coordinates":[[14.06059,52.87766],[14.06064,52.87752],[14.06065,52.87733],[14.06062,52.87592],[14.06062,52.8753],[14.06064,52.87473],[14.06076,52.87411]]}},{"type":"Feature","properties":{"art":"strasse"},"geometry":{"type":"LineString","coordinates":[[14.05816,52.87423],[14.05839,52.87429],[14.05878,52.87438],[14.05902,52.87445]]}},{"type":"Feature","properties":{"art":"strasse"},"geometry":{"type":"LineString","coordinates":[[14.05779,52.87452],[14.05785,52.87453],[14.05808,52.87456],[14.05857,52.87465]]}},{"type":"Feature","properties":{"art":"strasse"},"geometry":{"type":"LineString","coordinates":[[14.05808,52.87456],[14.058,52.87479]]}},{"type":"Feature","properties":{"art":"pfad"},"geometry":{"type":"LineString","coordinates":[[14.05713,52.87526],[14.05713,52.87526],[14.05721,52.87524]]}},{"type":"Feature","properties":{"art":"strasse"},"geometry":{"type":"LineString","coordinates":[[14.05721,52.87521],[14.05721,52.87524],[14.05719,52.87537],[14.05718,52.87545],[14.05715,52.8756],[14.05712,52.87571],[14.05707,52.8758],[14.05704,52.87586],[14.05697,52.8761],[14.05689,52.87633]]}},{"type":"Feature","properties":{"art":"weg"},"geometry":{"type":"LineString","coordinates":[[14.05704,52.87586],[14.05702,52.87577],[14.05702,52.87574],[14.05704,52.87547],[14.05706,52.8754],[14.05715,52.87531],[14.05721,52.87524]]}},{"type":"Feature","properties":{"art":"pfad"},"geometry":{"type":"LineString","coordinates":[[14.05701,52.87538],[14.05707,52.87535],[14.05715,52.87531]]}},{"type":"Feature","properties":{"art":"pfad"},"geometry":{"type":"LineString","coordinates":[[14.05684,52.87574],[14.05689,52.87575],[14.05702,52.87577]]}},{"type":"Feature","properties":{"art":"pfad"},"geometry":{"type":"LineString","coordinates":[[14.05746,52.87519],[14.05745,52.8752],[14.05755,52.87521]]}},{"type":"Feature","properties":{"art":"strasse"},"geometry":{"type":"LineString","coordinates":[[14.05756,52.87519],[14.05755,52.87521],[14.05754,52.87524]]}},{"type":"Feature","properties":{"art":"strasse"},"geometry":{"type":"LineString","coordinates":[[14.0576,52.87519],[14.05758,52.87525]]}},{"type":"Feature","properties":{"art":"strasse"},"geometry":{"type":"LineString","coordinates":[[14.05721,52.87524],[14.05734,52.87523],[14.05754,52.87524],[14.05758,52.87525],[14.05764,52.87525],[14.05794,52.87528],[14.05854,52.87536]]}},{"type":"Feature","properties":{"art":"strasse"},"geometry":{"type":"LineString","coordinates":[[14.05794,52.87528],[14.05793,52.87533]]}},{"type":"Feature","properties":{"art":"pfad"},"geometry":{"type":"LineString","coordinates":[[14.05719,52.87537],[14.05727,52.87538]]}},{"type":"Feature","properties":{"art":"pfad"},"geometry":{"type":"LineString","coordinates":[[14.05729,52.87538],[14.05731,52.87539]]}},{"type":"Feature","properties":{"art":"pfad"},"geometry":{"type":"LineString","coordinates":[[14.05724,52.87546],[14.05718,52.87545]]}},{"type":"Feature","properties":{"art":"strasse"},"geometry":{"type":"LineString","coordinates":[[14.05715,52.8756],[14.0572,52.87561]]}},{"type":"Feature","properties":{"art":"strasse"},"geometry":{"type":"LineString","coordinates":[[14.0574,52.87578],[14.05741,52.87573]]}},{"type":"Feature","properties":{"art":"weg"},"geometry":{"type":"LineString","coordinates":[[13.97595,52.85642],[13.97645,52.85637],[13.97845,52.85617]]}},{"type":"Feature","properties":{"art":"strasse"},"geometry":{"type":"LineString","coordinates":[[13.9514,52.85735],[13.95232,52.8577]]}},{"type":"Feature","properties":{"art":"pfad"},"geometry":{"type":"LineString","coordinates":[[14.0066,52.86095],[14.00656,52.86069]]}},{"type":"Feature","properties":{"art":"strasse"},"geometry":{"type":"LineString","coordinates":[[14.00809,52.86106],[14.00798,52.86099],[14.00785,52.86094],[14.00775,52.86091],[14.0076,52.86089],[14.00735,52.86088],[14.00729,52.86088],[14.00704,52.86089],[14.00675,52.86093],[14.0066,52.86095]]}},{"type":"Feature","properties":{"art":"strasse"},"geometry":{"type":"LineString","coordinates":[[14.01967,52.86263],[14.01965,52.8626],[14.01963,52.86256]]}},{"type":"Feature","properties":{"art":"strasse"},"geometry":{"type":"LineString","coordinates":[[14.02032,52.86252],[14.02031,52.86249],[14.02031,52.86247]]}},{"type":"Feature","properties":{"art":"strasse"},"geometry":{"type":"LineString","coordinates":[[14.02121,52.86254],[14.0212,52.86257],[14.0212,52.86258]]}},{"type":"Feature","properties":{"art":"pfad"},"geometry":{"type":"LineString","coordinates":[[14.0214,52.8626],[14.0214,52.86259],[14.0214,52.86255]]}},{"type":"Feature","properties":{"art":"strasse"},"geometry":{"type":"LineString","coordinates":[[14.02167,52.86264],[14.02168,52.86263],[14.02168,52.86261],[14.02168,52.8626]]}},{"type":"Feature","properties":{"art":"pfad"},"geometry":{"type":"LineString","coordinates":[[14.02168,52.86263],[14.02163,52.86263],[14.02162,52.86263],[14.02162,52.86264]]}},{"type":"Feature","properties":{"art":"strasse"},"geometry":{"type":"LineString","coordinates":[[14.01817,52.86332],[14.01815,52.86329],[14.01812,52.86326],[14.01808,52.8632],[14.01806,52.86313],[14.01807,52.86307],[14.01808,52.86302],[14.01811,52.86296],[14.01812,52.86295]]}},{"type":"Feature","properties":{"art":"pfad"},"geometry":{"type":"LineString","coordinates":[[14.01862,52.86318],[14.01875,52.86312]]}},{"type":"Feature","properties":{"art":"strasse"},"geometry":{"type":"LineString","coordinates":[[13.96115,52.86229],[13.96093,52.86275]]}},{"type":"Feature","properties":{"art":"strasse"},"geometry":{"type":"LineString","coordinates":[[13.96145,52.86233],[13.96114,52.86262]]}},{"type":"Feature","properties":{"art":"strasse"},"geometry":{"type":"LineString","coordinates":[[13.98467,52.86228],[13.98442,52.8624],[13.98431,52.86243],[13.98424,52.86245]]}},{"type":"Feature","properties":{"art":"strasse"},"geometry":{"type":"LineString","coordinates":[[13.99378,52.86264],[13.99377,52.86228]]}},{"type":"Feature","properties":{"art":"strasse"},"geometry":{"type":"LineString","coordinates":[[13.99955,52.86226],[13.99965,52.86234],[14.00006,52.86267]]}},{"type":"Feature","properties":{"art":"strasse"},"geometry":{"type":"LineString","coordinates":[[13.99466,52.86234],[13.99528,52.86243],[13.99535,52.86236]]}},{"type":"Feature","properties":{"art":"strasse"},"geometry":{"type":"LineString","coordinates":[[13.98431,52.86243],[13.98451,52.86246],[13.98471,52.86247]]}},{"type":"Feature","properties":{"art":"strasse"},"geometry":{"type":"LineString","coordinates":[[14.0066,52.86095],[14.0058,52.86107],[14.00454,52.86113]]}},{"type":"Feature","properties":{"art":"strasse"},"geometry":{"type":"LineString","coordinates":[[14.00841,52.86134],[14.00809,52.86106]]}},{"type":"Feature","properties":{"art":"strasse"},"geometry":{"type":"LineString","coordinates":[[14.00454,52.86113],[14.0032,52.86137],[14.00175,52.86174],[14.00119,52.86189],[14.00034,52.86221],[14.0001,52.86264],[14.00006,52.86267]]}},{"type":"Feature","properties":{"art":"strasse"},"geometry":{"type":"LineString","coordinates":[[14.00006,52.86267],[13.99978,52.86235],[13.99962,52.86222],[13.99961,52.8622]]}},{"type":"Feature","properties":{"art":"strasse"},"geometry":{"type":"LineString","coordinates":[[14.01383,52.86338],[14.01383,52.86325],[14.0138,52.86308],[14.01381,52.86298],[14.01397,52.86281],[14.01398,52.8628]]}},{"type":"Feature","properties":{"art":"strasse"},"geometry":{"type":"LineString","coordinates":[[14.01313,52.86371],[14.01309,52.86367],[14.01259,52.86365],[14.01218,52.86363],[14.01193,52.86359],[14.01171,52.86353],[14.01158,52.86348],[14.01143,52.86338],[14.0113,52.86324],[14.01119,52.8631],[14.01114,52.86299],[14.01097,52.86275],[14.01078,52.8626],[14.01037,52.86241],[14.00986,52.86213],[14.00906,52.86176],[14.00878,52.86159],[14.00841,52.86134]]}},{"type":"Feature","properties":{"art":"pfad"},"geometry":{"type":"LineString","coordinates":[[14.00629,52.86282],[14.00594,52.86262],[14.00561,52.86241],[14.00507,52.8623],[14.00464,52.86225],[14.004,52.86224]]}},{"type":"Feature","properties":{"art":"strasse"},"geometry":{"type":"LineString","coordinates":[[14.00609,52.86226],[14.00574,52.86202],[14.00496,52.86175],[14.00455,52.86166],[14.00423,52.86167],[14.00402,52.86168],[14.00359,52.8618],[14.0034,52.8619],[14.00323,52.86206],[14.00307,52.86212],[14.00291,52.86215],[14.0027,52.86215],[14.00209,52.86212],[14.00193,52.86214],[14.00149,52.86224],[14.00113,52.86234],[14.00092,52.86246],[14.00086,52.86252],[14.00085,52.86264],[14.00089,52.86281],[14.00156,52.86349],[14.00178,52.86376],[14.00184,52.86399],[14.00186,52.86421],[14.00173,52.86438],[14.00157,52.86452],[14.00126,52.86468],[14.0009,52.86478],[14.00072,52.86478],[14.00055,52.86478]]}},{"type":"Feature","properties":{"art":"strasse"},"geometry":{"type":"LineString","coordinates":[[14.01514,52.86438],[14.01498,52.86435],[14.01482,52.86432],[14.01468,52.86427],[14.01457,52.86421],[14.01438,52.8641],[14.01403,52.86389],[14.01388,52.86382],[14.01369,52.86375],[14.01351,52.86372],[14.01332,52.86371],[14.01313,52.86371],[14.01259,52.86376],[14.01236,52.86379],[14.01213,52.8638],[14.01187,52.8638],[14.01171,52.86379],[14.01156,52.86377],[14.0114,52.86374],[14.01122,52.86368],[14.01111,52.86362],[14.01078,52.86338],[14.01062,52.8633],[14.01043,52.86325],[14.01026,52.86323],[14.0101,52.86322],[14.0099,52.86322],[14.00951,52.86324],[14.00924,52.86324],[14.00902,52.86323],[14.00797,52.86314],[14.00666,52.86304],[14.00643,52.86292],[14.00629,52.86282],[14.00609,52.86226]]}},{"type":"Feature","properties":{"art":"strasse"},"geometry":{"type":"LineString","coordinates":[[13.96114,52.86262],[13.96124,52.86266]]}},{"type":"Feature","properties":{"art":"strasse"},"geometry":{"type":"LineString","coordinates":[[13.96114,52.86262],[13.96093,52.86275]]}},{"type":"Feature","properties":{"art":"strasse"},"geometry":{"type":"LineString","coordinates":[[13.96041,52.86263],[13.96066,52.86271],[13.96078,52.86277]]}},{"type":"Feature","properties":{"art":"strasse"},"geometry":{"type":"LineString","coordinates":[[13.96093,52.86275],[13.96078,52.86277],[13.96058,52.86289],[13.96048,52.86299],[13.96029,52.86321]]}},{"type":"Feature","properties":{"art":"strasse"},"geometry":{"type":"LineString","coordinates":[[14.00006,52.86267],[13.99995,52.86277],[13.9998,52.86285],[13.99952,52.86299]]}},{"type":"Feature","properties":{"art":"strasse"},"geometry":{"type":"LineString","coordinates":[[14.00055,52.86478],[14.00026,52.86473],[13.99994,52.86463],[13.99882,52.86426]]}},{"type":"Feature","properties":{"art":"strasse"},"geometry":{"type":"LineString","coordinates":[[13.99766,52.86386],[13.99722,52.86371],[13.99693,52.86355],[13.99685,52.86349]]}},{"type":"Feature","properties":{"art":"strasse"},"geometry":{"type":"LineString","coordinates":[[13.99602,52.86289],[13.99586,52.86282],[13.9954,52.86274],[13.99378,52.86264],[13.99262,52.86258],[13.99258,52.86258]]}},{"type":"Feature","properties":{"art":"weg"},"geometry":{"type":"LineString","coordinates":[[13.99262,52.86258],[13.99243,52.86321],[13.99225,52.86356],[13.99194,52.86384],[13.99168,52.86427],[13.9919,52.86454],[13.99218,52.86492]]}},{"type":"Feature","properties":{"art":"strasse"},"geometry":{"type":"LineString","coordinates":[[13.96009,52.86344],[13.96015,52.86337]]}},{"type":"Feature","properties":{"art":"strasse"},"geometry":{"type":"LineString","coordinates":[[13.9599,52.86384],[13.95974,52.86382],[13.95986,52.86368],[13.95997,52.86353],[13.96009,52.86344],[13.96031,52.86337]]}},{"type":"Feature","properties":{"art":"strasse"},"geometry":{"type":"LineString","coordinates":[[13.96093,52.86275],[13.96083,52.86283],[13.96031,52.86337],[13.9599,52.86384],[13.95974,52.86415],[13.9596,52.86449],[13.95957,52.86458],[13.95949,52.86473]]}},{"type":"Feature","properties":{"art":"strasse"},"geometry":{"type":"LineString","coordinates":[[14.02165,52.86258],[14.0214,52.86255],[14.02121,52.86254],[14.02101,52.86253],[14.02073,52.86252],[14.02052,52.86251],[14.02032,52.86252],[14.0201,52.86253],[14.01986,52.86257],[14.01967,52.86263],[14.01945,52.8627],[14.01935,52.86274]]}},{"type":"Feature","properties":{"art":"strasse"},"geometry":{"type":"LineString","coordinates":[[14.0187,52.86309],[14.01866,52.86311],[14.01856,52.86316],[14.01844,52.86321],[14.01817,52.86332],[14.01815,52.86333],[14.01811,52.86334],[14.0171,52.8637],[14.01668,52.86386],[14.01638,52.864],[14.01633,52.86402]]}},{"type":"Feature","properties":{"art":"pfad"},"geometry":{"type":"LineString","coordinates":[[14.01818,52.86335],[14.01848,52.86324],[14.01862,52.86318]]}},{"type":"Feature","properties":{"art":"pfad"},"geometry":{"type":"LineString","coordinates":[[14.0182,52.86337],[14.01818,52.86335],[14.01817,52.86335],[14.01815,52.86333]]}},{"type":"Feature","properties":{"art":"pfad"},"geometry":{"type":"LineString","coordinates":[[14.01837,52.86373],[14.0182,52.86346],[14.0182,52.86345],[14.01825,52.86343]]}},{"type":"Feature","properties":{"art":"pfad"},"geometry":{"type":"LineString","coordinates":[[14.02072,52.86453],[14.02092,52.86444],[14.0211,52.86436],[14.02134,52.86416],[14.02152,52.86399],[14.02157,52.86392],[14.0217,52.86371],[14.02172,52.86361],[14.02176,52.86359],[14.02186,52.86356],[14.02188,52.86354],[14.0219,52.8635]]}},{"type":"Feature","properties":{"art":"pfad"},"geometry":{"type":"LineString","coordinates":[[14.01644,52.86404],[14.01638,52.864]]}},{"type":"Feature","properties":{"art":"pfad"},"geometry":{"type":"LineString","coordinates":[[14.01901,52.86433],[14.01911,52.86429],[14.01916,52.86418],[14.01916,52.86411],[14.01911,52.86402],[14.01911,52.86393],[14.01911,52.86387],[14.01904,52.86384],[14.01889,52.86385],[14.01868,52.86388],[14.01856,52.8639]]}},{"type":"Feature","properties":{"art":"pfad"},"geometry":{"type":"LineString","coordinates":[[14.01848,52.86388],[14.0184,52.86399],[14.01813,52.86406],[14.01791,52.86419],[14.01766,52.8643]]}},{"type":"Feature","properties":{"art":"strasse"},"geometry":{"type":"LineString","coordinates":[[14.01633,52.86402],[14.01587,52.86427],[14.01567,52.86435],[14.01548,52.86438],[14.01532,52.86439],[14.01514,52.86438]]}},{"type":"Feature","properties":{"art":"strasse"},"geometry":{"type":"LineString","coordinates":[[14.0159,52.86429],[14.01599,52.86429]]}},{"type":"Feature","properties":{"art":"weg"},"geometry":{"type":"LineString","coordinates":[[14.01592,52.86431],[14.0159,52.86429],[14.01587,52.86427]]}},{"type":"Feature","properties":{"art":"strasse"},"geometry":{"type":"LineString","coordinates":[[14.01599,52.86429],[14.01602,52.86429],[14.01605,52.86432]]}},{"type":"Feature","properties":{"art":"strasse"},"geometry":{"type":"LineString","coordinates":[[14.01592,52.86431],[14.01597,52.86433],[14.01608,52.86441]]}},{"type":"Feature","properties":{"art":"pfad"},"geometry":{"type":"LineString","coordinates":[[14.01996,52.86474],[14.01992,52.86472],[14.01938,52.86478],[14.01922,52.86478],[14.01911,52.86473],[14.01891,52.86457],[14.01892,52.8645],[14.01893,52.86446],[14.01897,52.8644],[14.01901,52.86433],[14.01896,52.86429],[14.01881,52.86425],[14.01867,52.86429],[14.01856,52.86442]]}},{"type":"Feature","properties":{"art":"weg"},"geometry":{"type":"LineString","coordinates":[[14.0213,52.86541],[14.02102,52.86547],[14.0209,52.86553],[14.0208,52.86558],[14.02068,52.86565]]}},{"type":"Feature","properties":{"art":"weg"},"geometry":{"type":"LineString","coordinates":[[14.02043,52.8658],[14.02068,52.86565],[14.02065,52.86548],[14.02051,52.86532],[14.02037,52.86514],[14.02016,52.86495],[14.01996,52.86474],[14.02046,52.86461],[14.02072,52.86453]]}},{"type":"Feature","properties":{"art":"pfad"},"geometry":{"type":"LineString","coordinates":[[14.01856,52.86442],[14.01829,52.86454],[14.01806,52.86463],[14.0178,52.86478],[14.01768,52.86487],[14.01763,52.86493],[14.01796,52.86491],[14.0178,52.86507],[14.01762,52.86519],[14.01749,52.86533],[14.01767,52.86548],[14.01782,52.86565],[14.01782,52.86578],[14.01788,52.86603]]}},{"type":"Feature","properties":{"art":"weg"},"geometry":{"type":"LineString","coordinates":[[14.02159,52.86677],[14.02056,52.86599],[14.02043,52.86586],[14.02043,52.8658]]}},{"type":"Feature","properties":{"art":"pfad"},"geometry":{"type":"LineString","coordinates":[[14.02043,52.8658],[14.0202,52.86579],[14.01966,52.8658],[14.01943,52.86569],[14.01924,52.86555],[14.01898,52.86554],[14.01874,52.86558],[14.01854,52.86577],[14.01788,52.86603],[14.0177,52.86625],[14.01737,52.86644],[14.01684,52.86691],[14.01646,52.86699],[14.01618,52.86705],[14.01603,52.86706],[14.01577,52.86706],[14.01555,52.86712],[14.01548,52.86713]]}},{"type":"Feature","properties":{"art":"pfad"},"geometry":{"type":"LineString","coordinates":[[14.02191,52.86866],[14.0219,52.86866],[14.02174,52.86858],[14.0217,52.8685],[14.02171,52.86839],[14.02176,52.86823],[14.0218,52.86784],[14.02205,52.86711],[14.02207,52.86702],[14.02199,52.86693],[14.02181,52.86682],[14.02165,52.86664],[14.02153,52.86657],[14.02105,52.8662],[14.02093,52.86609],[14.0209,52.86597],[14.02093,52.86579],[14.02095,52.86568],[14.02094,52.86561],[14.0209,52.86553]]}},{"type":"Feature","properties":{"art":"weg"},"geometry":{"type":"LineString","coordinates":[[14.02155,52.86877],[14.02138,52.86857],[14.02127,52.86838],[14.02127,52.86819],[14.02132,52.86804],[14.02155,52.86791],[14.02159,52.86778],[14.0217,52.8675],[14.02178,52.86721],[14.02159,52.86677]]}},{"type":"Feature","properties":{"art":"pfad"},"geometry":{"type":"LineString","coordinates":[[14.01847,52.86874],[14.01812,52.86863],[14.01763,52.86856],[14.01724,52.86842],[14.01678,52.86814],[14.01651,52.86802],[14.01618,52.86804],[14.01586,52.86819],[14.01579,52.86843],[14.01562,52.86867],[14.01576,52.86903],[14.0159,52.8695],[14.01592,52.86957]]}},{"type":"Feature","properties":{"art":"weg"},"geometry":{"type":"LineString","coordinates":[[14.02155,52.86877],[14.02114,52.86874],[14.02076,52.86872]]}},{"type":"Feature","properties":{"art":"weg"},"geometry":{"type":"LineString","coordinates":[[14.02053,52.8687],[14.02051,52.8687],[14.02019,52.86869],[14.01967,52.86871],[14.0187,52.86873],[14.01847,52.86874],[14.01817,52.86875],[14.01787,52.86889],[14.01772,52.86905],[14.01716,52.86918],[14.0169,52.8693],[14.01663,52.8695],[14.01592,52.86957],[14.01546,52.86987],[14.01525,52.87],[14.01506,52.87031]]}},{"type":"Feature","properties":{"art":"weg"},"geometry":{"type":"LineString","coordinates":[[14.02163,52.86878],[14.02155,52.86877]]}},{"type":"Feature","properties":{"art":"weg"},"geometry":{"type":"LineString","coordinates":[[14.01525,52.87],[14.01489,52.86991]]}},{"type":"Feature","properties":{"art":"pfad"},"geometry":{"type":"LineString","coordinates":[[14.01955,52.8708],[14.01977,52.87076],[14.01995,52.87075]]}},{"type":"Feature","properties":{"art":"pfad"},"geometry":{"type":"LineString","coordinates":[[14.01544,52.87089],[14.01601,52.87099],[14.0169,52.8712],[14.01722,52.87118],[14.01786,52.87098],[14.01918,52.87086],[14.01942,52.87081],[14.01955,52.8708]]}},{"type":"Feature","properties":{"art":"pfad"},"geometry":{"type":"LineString","coordinates":[[14.01884,52.87502],[14.01873,52.87498],[14.01854,52.87479],[14.01843,52.87465]]}},{"type":"Feature","properties":{"art":"pfad"},"geometry":{"type":"LineString","coordinates":[[14.01839,52.87461],[14.01818,52.87435],[14.01794,52.87391],[14.0177,52.87362],[14.01744,52.8734],[14.01728,52.87323],[14.01705,52.87302],[14.017,52.87294],[14.01707,52.87288],[14.0174,52.87283],[14.01801,52.87279],[14.01829,52.87272],[14.01847,52.87263],[14.01866,52.87238],[14.01878,52.87214],[14.01894,52.87204],[14.01926,52.87195]]}},{"type":"Feature","properties":{"art":"pfad"},"geometry":{"type":"LineString","coordinates":[[14.01939,52.87149],[14.01922,52.8715],[14.01908,52.87152],[14.019,52.87149],[14.01895,52.87144],[14.01894,52.87138],[14.01901,52.87122],[14.01909,52.87109],[14.01931,52.8709],[14.01955,52.8708]]}},{"type":"Feature","properties":{"art":"pfad"},"geometry":{"type":"LineString","coordinates":[[14.01369,52.87427],[14.01464,52.87445],[14.01535,52.87461],[14.01587,52.87472],[14.01627,52.87489]]}},{"type":"Feature","properties":{"art":"strasse"},"geometry":{"type":"LineString","coordinates":[[14.04933,52.86573],[14.04933,52.86572]]}},{"type":"Feature","properties":{"art":"strasse"},"geometry":{"type":"LineString","coordinates":[[14.04955,52.86575],[14.04955,52.86574]]}},{"type":"Feature","properties":{"art":"pfad"},"geometry":{"type":"LineString","coordinates":[[14.05031,52.86609],[14.05124,52.86606],[14.0515,52.86603],[14.05185,52.86606],[14.05198,52.86608]]}},{"type":"Feature","properties":{"art":"weg"},"geometry":{"type":"LineString","coordinates":[[14.05089,52.86731],[14.0509,52.86724],[14.05094,52.86704],[14.05096,52.86688],[14.05084,52.8668],[14.05063,52.86671],[14.04925,52.86643]]}},{"type":"Feature","properties":{"art":"strasse"},"geometry":{"type":"LineString","coordinates":[[14.0476,52.86595],[14.04808,52.86603]]}},{"type":"Feature","properties":{"art":"pfad"},"geometry":{"type":"LineString","coordinates":[[14.04808,52.86603],[14.04817,52.86603],[14.04841,52.866],[14.04866,52.866],[14.04883,52.86598],[14.04897,52.86597],[14.04906,52.86599],[14.04913,52.86599],[14.04914,52.866],[14.04935,52.86601],[14.04957,52.86603],[14.04982,52.86608],[14.04998,52.86609],[14.05004,52.86609],[14.05007,52.86608],[14.05011,52.86607],[14.05023,52.86609]]}},{"type":"Feature","properties":{"art":"strasse"},"geometry":{"type":"LineString","coordinates":[[14.04913,52.86599],[14.04889,52.86606],[14.04868,52.8661],[14.04838,52.86613]]}},{"type":"Feature","properties":{"art":"weg"},"geometry":{"type":"LineString","coordinates":[[14.05043,52.86883],[14.05053,52.86823],[14.05055,52.86816],[14.05072,52.86792]]}},{"type":"Feature","properties":{"art":"weg"},"geometry":{"type":"LineString","coordinates":[[14.03914,52.88379],[14.03913,52.88379],[14.03882,52.88383],[14.03858,52.88384],[14.03841,52.88383],[14.03818,52.88379],[14.03777,52.8837]]}},{"type":"Feature","properties":{"art":"pfad"},"geometry":{"type":"LineString","coordinates":[[13.98405,52.86257],[13.98403,52.86272],[13.98381,52.86327],[13.98385,52.86336],[13.98381,52.86381],[13.98439,52.86427],[13.98485,52.86461],[13.98525,52.86482],[13.98582,52.86491],[13.98626,52.86493],[13.98641,52.86535],[13.9866,52.8657],[13.98811,52.86574],[13.98894,52.86592],[13.98999,52.86638]]}},{"type":"Feature","properties":{"art":"pfad"},"geometry":{"type":"LineString","coordinates":[[14.00041,52.86572],[14.00017,52.86567],[13.99997,52.8655],[13.99973,52.86523],[13.99951,52.86506],[13.99921,52.86493],[13.99898,52.86485],[13.99872,52.86483],[13.99852,52.86486],[13.99838,52.86498],[13.99816,52.8653],[13.99801,52.86546]]}},{"type":"Feature","properties":{"art":"weg"},"geometry":{"type":"LineString","coordinates":[[13.97315,52.86461],[13.97391,52.86466],[13.97411,52.8647],[13.9743,52.86477],[13.97448,52.86494],[13.97449,52.86499]]}},{"type":"Feature","properties":{"art":"weg"},"geometry":{"type":"LineString","coordinates":[[13.97454,52.86523],[13.97456,52.8653],[13.97507,52.86623]]}},{"type":"Feature","properties":{"art":"strasse"},"geometry":{"type":"LineString","coordinates":[[13.9596,52.86449],[13.95953,52.8645],[13.95937,52.86463]]}},{"type":"Feature","properties":{"art":"pfad"},"geometry":{"type":"LineString","coordinates":[[13.95981,52.86537],[13.9605,52.86522],[13.96031,52.86485],[13.96041,52.86451],[13.96074,52.86418],[13.96098,52.86406],[13.96127,52.86401],[13.96147,52.86402],[13.96167,52.86407]]}},{"type":"Feature","properties":{"art":"strasse"},"geometry":{"type":"LineString","coordinates":[[13.95957,52.86458],[13.95965,52.86463],[13.95979,52.86483],[13.95981,52.86496],[13.95982,52.86497],[13.95981,52.86523],[13.95981,52.86537],[13.95978,52.86556]]}},{"type":"Feature","properties":{"art":"strasse"},"geometry":{"type":"LineString","coordinates":[[13.95949,52.86473],[13.95929,52.86495],[13.9592,52.86503]]}},{"type":"Feature","properties":{"art":"strasse"},"geometry":{"type":"LineString","coordinates":[[13.95846,52.86607],[13.9582,52.86651]]}},{"type":"Feature","properties":{"art":"strasse"},"geometry":{"type":"LineString","coordinates":[[13.96287,52.86819],[13.96268,52.86813],[13.96214,52.86765],[13.96205,52.86763],[13.96195,52.86764],[13.96156,52.8677],[13.96129,52.86768],[13.96097,52.86757],[13.96081,52.86747],[13.96008,52.86685],[13.95999,52.86667],[13.95974,52.86615],[13.95978,52.86556]]}},{"type":"Feature","properties":{"art":"pfad"},"geometry":{"type":"LineString","coordinates":[[13.96211,52.86759],[13.96211,52.86737]]}},{"type":"Feature","properties":{"art":"pfad"},"geometry":{"type":"LineString","coordinates":[[13.96205,52.86763],[13.96211,52.86759],[13.96244,52.86755],[13.96288,52.86763]]}},{"type":"Feature","properties":{"art":"strasse"},"geometry":{"type":"LineString","coordinates":[[14.01351,52.86372],[14.01364,52.86359],[14.01383,52.86338]]}},{"type":"Feature","properties":{"art":"weg"},"geometry":{"type":"LineString","coordinates":[[14.00916,52.86464],[14.00918,52.86455],[14.00929,52.86446],[14.00957,52.86435],[14.00986,52.86412],[14.00999,52.86393],[14.01005,52.86373],[14.01,52.86355],[14.0099,52.86337],[14.0099,52.86322]]}},{"type":"Feature","properties":{"art":"weg"},"geometry":{"type":"LineString","coordinates":[[14.0114,52.86374],[14.01135,52.86381],[14.01126,52.86396],[14.01097,52.86411],[14.00988,52.86437],[14.00955,52.86447]]}},{"type":"Feature","properties":{"art":"weg"},"geometry":{"type":"LineString","coordinates":[[14.01185,52.86673],[14.01223,52.86684],[14.01241,52.86689],[14.01269,52.86698],[14.01295,52.86692],[14.01318,52.86681],[14.01349,52.86663],[14.01395,52.86638],[14.01424,52.86624],[14.01452,52.86611],[14.0149,52.86598],[14.01522,52.86589],[14.01537,52.86581],[14.01558,52.86564],[14.01567,52.86551],[14.01576,52.86527],[14.0158,52.86497],[14.01588,52.86461],[14.01592,52.86434],[14.01592,52.86431]]}},{"type":"Feature","properties":{"art":"pfad"},"geometry":{"type":"LineString","coordinates":[[14.01215,52.86737],[14.01208,52.8672],[14.01199,52.867],[14.01188,52.86679],[14.01185,52.86673],[14.01179,52.86661],[14.01179,52.86648],[14.01179,52.86632],[14.01178,52.86624],[14.01166,52.86617],[14.01138,52.86601],[14.01132,52.86594],[14.01112,52.86579],[14.01092,52.86572],[14.01064,52.86568],[14.0104,52.8656],[14.01034,52.86554],[14.01035,52.86548],[14.01047,52.86534],[14.01058,52.86518],[14.0106,52.86503],[14.01054,52.86496],[14.01045,52.86486],[14.01031,52.86477],[14.01011,52.86471],[14.00993,52.86471],[14.00955,52.8647],[14.00922,52.86471],[14.00916,52.86464],[14.00943,52.86451],[14.00955,52.86447]]}},{"type":"Feature","properties":{"art":"pfad"},"geometry":{"type":"LineString","coordinates":[[14.01133,52.86763],[14.01114,52.86748],[14.01085,52.86733],[14.01067,52.86726],[14.0105,52.86724],[14.01036,52.86719],[14.01018,52.86719],[14.01001,52.86723],[14.00978,52.86716],[14.00932,52.86707],[14.00886,52.86694],[14.00841,52.86676],[14.00811,52.86652],[14.00765,52.8663],[14.00735,52.86615],[14.00714,52.866],[14.00703,52.86585],[14.00699,52.86574],[14.00699,52.86552],[14.00702,52.86533],[14.00715,52.86521],[14.00763,52.86517],[14.00807,52.86499],[14.00836,52.86484],[14.00883,52.86473],[14.00916,52.86464]]}},{"type":"Feature","properties":{"art":"pfad"},"geometry":{"type":"LineString","coordinates":[[14.01548,52.86713],[14.0154,52.86714],[14.01514,52.86732],[14.01439,52.86735],[14.01397,52.86747],[14.01363,52.86749],[14.01329,52.86755],[14.01215,52.8675]]}},{"type":"Feature","properties":{"art":"weg"},"geometry":{"type":"LineString","coordinates":[[14.01215,52.8675],[14.01215,52.86737]]}},{"type":"Feature","properties":{"art":"weg"},"geometry":{"type":"LineString","coordinates":[[14.0072,52.87071],[14.00657,52.87029],[14.00634,52.87005],[14.00597,52.8697],[14.00533,52.86909],[14.00476,52.86845],[14.00418,52.86768],[14.00378,52.86694],[14.00352,52.86649],[14.0031,52.86599],[14.00247,52.86537],[14.00185,52.86506],[14.00126,52.86468]]}},{"type":"Feature","properties":{"art":"weg"},"geometry":{"type":"LineString","coordinates":[[14.01215,52.8675],[14.01204,52.8681],[14.012,52.86856],[14.01226,52.86886],[14.01278,52.86906],[14.0134,52.86931]]}},{"type":"Feature","properties":{"art":"pfad"},"geometry":{"type":"LineString","coordinates":[[13.97507,52.86623],[13.97542,52.86638],[13.97695,52.86677]]}},{"type":"Feature","properties":{"art":"pfad"},"geometry":{"type":"LineString","coordinates":[[13.97724,52.86684],[13.97733,52.86686],[13.97736,52.86687]]}},{"type":"Feature","properties":{"art":"strasse"},"geometry":{"type":"LineString","coordinates":[[13.95946,52.86794],[13.95883,52.86736],[13.95847,52.86721],[13.95795,52.8672],[13.95771,52.86718]]}},{"type":"Feature","properties":{"art":"strasse"},"geometry":{"type":"LineString","coordinates":[[13.96156,52.8677],[13.96175,52.8678],[13.96189,52.86786]]}},{"type":"Feature","properties":{"art":"pfad"},"geometry":{"type":"LineString","coordinates":[[13.95994,52.87087],[13.95989,52.87067],[13.95955,52.86988],[13.95953,52.86967],[13.95956,52.86954],[13.96002,52.86924],[13.96062,52.86875],[13.96068,52.86865],[13.96069,52.86858],[13.96066,52.86851],[13.96039,52.86818],[13.96036,52.86816]]}},{"type":"Feature","properties":{"art":"pfad"},"geometry":{"type":"LineString","coordinates":[[13.96033,52.86813],[13.95988,52.86778],[13.95944,52.86735],[13.95928,52.86706],[13.95917,52.86703],[13.95891,52.86702],[13.95874,52.86705],[13.95841,52.86705],[13.95837,52.86703],[13.95824,52.86676],[13.95807,52.86667]]}},{"type":"Feature","properties":{"art":"pfad"},"geometry":{"type":"LineString","coordinates":[[13.96268,52.86813],[13.96284,52.86826],[13.96286,52.86834],[13.96283,52.86845],[13.96354,52.86938],[13.9636,52.86951]]}},{"type":"Feature","properties":{"art":"pfad"},"geometry":{"type":"LineString","coordinates":[[13.99398,52.86948],[13.99492,52.86879],[13.99564,52.86821],[13.9964,52.86776],[13.99658,52.86718],[13.99737,52.86674],[13.99723,52.86607],[13.99744,52.86569],[13.99759,52.86558],[13.99801,52.86546]]}},{"type":"Feature","properties":{"art":"weg"},"geometry":{"type":"LineString","coordinates":[[14.00072,52.86478],[14.00079,52.86496],[14.00082,52.86517],[14.00073,52.86535],[14.00053,52.86558],[14.00041,52.86572],[14.00035,52.86586],[14.00032,52.86609],[14.00034,52.86633],[14.00043,52.86683],[14.00047,52.86726],[14.00055,52.86774],[14.00065,52.86812],[14.0008,52.8688],[14.00088,52.86941],[14.00085,52.86969],[14.00072,52.86993],[14.00057,52.87011],[14.00046,52.87029],[14.00036,52.87043],[14.00021,52.87056],[13.99987,52.8707],[13.99952,52.87078],[13.99934,52.87084],[13.99917,52.87091],[13.99905,52.87102],[13.99888,52.87124],[13.99867,52.87142],[13.99856,52.87154],[13.99845,52.87174],[13.9985,52.87183],[13.9986,52.87216],[13.99881,52.87274]]}},{"type":"Feature","properties":{"art":"strasse"},"geometry":{"type":"LineString","coordinates":[[13.9751,52.86343],[13.97582,52.86419],[13.97643,52.8647],[13.97714,52.86529],[13.97765,52.86586],[13.97776,52.86599],[13.97782,52.86617],[13.97792,52.86687],[13.97794,52.86691]]}},{"type":"Feature","properties":{"art":"pfad"},"geometry":{"type":"LineString","coordinates":[[13.99841,52.87025],[13.99833,52.87],[13.99836,52.86981],[13.99846,52.86959],[13.99859,52.86933],[13.99868,52.86914]]}},{"type":"Feature","properties":{"art":"pfad"},"geometry":{"type":"LineString","coordinates":[[13.99845,52.87174],[13.99836,52.8716],[13.99833,52.87147],[13.99832,52.87123],[13.99828,52.87087],[13.99836,52.87061],[13.99841,52.87025],[13.99813,52.87002],[13.99752,52.86951]]}},{"type":"Feature","properties":{"art":"pfad"},"geometry":{"type":"LineString","coordinates":[[13.98798,52.87131],[13.98807,52.87118],[13.98829,52.87087],[13.98868,52.87054],[13.98899,52.8703],[13.98963,52.86995]]}},{"type":"Feature","properties":{"art":"pfad"},"geometry":{"type":"LineString","coordinates":[[13.96821,52.87227],[13.96879,52.87219],[13.96948,52.87221],[13.97045,52.87238],[13.97169,52.87252],[13.97205,52.87229],[13.97278,52.87218],[13.97251,52.87175],[13.97265,52.87148],[13.97275,52.87142]]}},{"type":"Feature","properties":{"art":"pfad"},"geometry":{"type":"LineString","coordinates":[[13.97277,52.8714],[13.9733,52.87107],[13.97503,52.87041],[13.97542,52.87027],[13.97581,52.87013]]}},{"type":"Feature","properties":{"art":"pfad"},"geometry":{"type":"LineString","coordinates":[[13.98908,52.87196],[13.98919,52.87196],[13.99024,52.87212],[13.99083,52.87228],[13.99108,52.87229],[13.9915,52.87222]]}},{"type":"Feature","properties":{"art":"pfad"},"geometry":{"type":"LineString","coordinates":[[14.01226,52.86886],[14.01177,52.86867],[14.01127,52.8685],[14.01087,52.86836],[14.01045,52.86818],[14.00999,52.86805]]}},{"type":"Feature","properties":{"art":"pfad"},"geometry":{"type":"LineString","coordinates":[[14.00073,52.86535],[14.00142,52.86577],[14.00204,52.86644],[14.0021,52.86689],[14.00213,52.8682],[14.00232,52.86919],[14.00204,52.87038],[14.00175,52.87068],[14.00116,52.87131],[14.00013,52.87206],[14.00009,52.87254],[14.00044,52.87291],[14.0004,52.87358]]}},{"type":"Feature","properties":{"art":"pfad"},"geometry":{"type":"LineString","coordinates":[[14.01001,52.86861],[14.01039,52.86977],[14.01085,52.87109],[14.01109,52.87131]]}},{"type":"Feature","properties":{"art":"weg"},"geometry":{"type":"LineString","coordinates":[[14.01218,52.87249],[14.01177,52.87239],[14.01154,52.87222],[14.01135,52.87179],[14.0112,52.87145],[14.01109,52.87131],[14.01091,52.87127],[14.0106,52.87125],[14.01032,52.87125],[14.01008,52.8711],[14.0099,52.87071],[14.00959,52.87032],[14.00948,52.87004],[14.0091,52.8696],[14.00886,52.86927],[14.00876,52.86912],[14.00885,52.86902],[14.00919,52.86893],[14.00957,52.86884],[14.0099,52.86874],[14.01001,52.86861],[14.00999,52.86837],[14.01001,52.86819],[14.00999,52.86805],[14.01032,52.86791],[14.011,52.86774],[14.01133,52.86763],[14.0115,52.8676],[14.01191,52.86755],[14.01215,52.8675]]}},{"type":"Feature","properties":{"art":"weg"},"geometry":{"type":"LineString","coordinates":[[14.0134,52.86931],[14.01431,52.86962],[14.01484,52.86982],[14.01489,52.86991],[14.01506,52.87031],[14.01544,52.87089],[14.01501,52.87105],[14.01466,52.87129],[14.01454,52.87132],[14.0144,52.8713],[14.01421,52.87121],[14.014,52.87119],[14.0138,52.87123],[14.01342,52.87138]]}},{"type":"Feature","properties":{"art":"weg"},"geometry":{"type":"LineString","coordinates":[[14.01342,52.87138],[14.01331,52.87118],[14.01312,52.87098],[14.01272,52.87077],[14.01278,52.87048],[14.01276,52.87017],[14.01306,52.86996],[14.0134,52.86962],[14.0134,52.86931]]}},{"type":"Feature","properties":{"art":"pfad"},"geometry":{"type":"LineString","coordinates":[[14.00116,52.87131],[14.00134,52.8719]]}},{"type":"Feature","properties":{"art":"weg"},"geometry":{"type":"LineString","coordinates":[[14.01342,52.87138],[14.0131,52.87163],[14.01251,52.87194],[14.01239,52.87209],[14.01229,52.87241],[14.01218,52.87249]]}},{"type":"Feature","properties":{"art":"pfad"},"geometry":{"type":"LineString","coordinates":[[14.00498,52.8751],[14.00443,52.87414],[14.00251,52.87338],[14.00221,52.87318],[14.002,52.87293],[14.00164,52.87239],[14.00134,52.8719],[14.00177,52.87137],[14.00261,52.87066],[14.00315,52.86976],[14.00471,52.86926],[14.00533,52.86909]]}},{"type":"Feature","properties":{"art":"pfad"},"geometry":{"type":"LineString","coordinates":[[14.00634,52.87005],[14.00519,52.87075],[14.00463,52.87109],[14.00448,52.8715],[14.00456,52.87171],[14.00493,52.87176],[14.00542,52.87175],[14.00575,52.87205],[14.00627,52.87236],[14.00606,52.87288],[14.00498,52.8751],[14.00489,52.87548]]}},{"type":"Feature","properties":{"art":"pfad"},"geometry":{"type":"LineString","coordinates":[[13.96035,52.87075],[13.96043,52.8706],[13.96079,52.87017],[13.9607,52.87004],[13.9607,52.86997],[13.9609,52.86973],[13.96099,52.86957],[13.96112,52.86946],[13.96127,52.8694],[13.9615,52.86938],[13.96156,52.86936],[13.96154,52.8693],[13.96144,52.86919],[13.96141,52.86909],[13.96146,52.86896],[13.96167,52.86862],[13.96196,52.86829],[13.9617,52.86785],[13.96175,52.8678]]}},{"type":"Feature","properties":{"art":"pfad"},"geometry":{"type":"LineString","coordinates":[[13.96502,52.86994],[13.96506,52.86973],[13.96504,52.8695],[13.96484,52.86928]]}},{"type":"Feature","properties":{"art":"strasse"},"geometry":{"type":"LineString","coordinates":[[13.96732,52.87078],[13.96732,52.87128]]}},{"type":"Feature","properties":{"art":"pfad"},"geometry":{"type":"LineString","coordinates":[[13.9636,52.86951],[13.96261,52.86983],[13.96232,52.86986],[13.96197,52.86981],[13.96184,52.86984],[13.9615,52.87014],[13.96105,52.87049],[13.96067,52.87065]]}},{"type":"Feature","properties":{"art":"pfad"},"geometry":{"type":"LineString","coordinates":[[13.9666,52.87128],[13.96588,52.87072],[13.96578,52.8706],[13.96563,52.87039],[13.96502,52.86994],[13.96473,52.86976],[13.96428,52.86959],[13.96381,52.86949],[13.9636,52.86951]]}},{"type":"Feature","properties":{"art":"pfad"},"geometry":{"type":"LineString","coordinates":[[13.95612,52.87144],[13.9564,52.87138],[13.95686,52.87136],[13.95739,52.87142],[13.95804,52.87142],[13.95842,52.87138],[13.9585,52.87133],[13.9588,52.87115],[13.95934,52.87105],[13.95981,52.87098],[13.95994,52.87087],[13.96035,52.87075],[13.96067,52.87065],[13.96095,52.87072],[13.9612,52.87081],[13.96206,52.87105],[13.96266,52.87119],[13.96318,52.8712],[13.96365,52.87117]]}},{"type":"Feature","properties":{"art":"pfad"},"geometry":{"type":"LineString","coordinates":[[13.9585,52.87133],[13.9587,52.87133],[13.95908,52.87126],[13.95921,52.87126],[13.95954,52.87141],[13.9596,52.87169],[13.95959,52.8719],[13.95973,52.87213],[13.95996,52.87224],[13.96016,52.87228],[13.96083,52.87226],[13.96329,52.87303]]}},{"type":"Feature","properties":{"art":"weg"},"geometry":{"type":"LineString","coordinates":[[13.96701,52.87072],[13.9668,52.8711],[13.96673,52.87118],[13.9666,52.87128],[13.96653,52.87134],[13.9663,52.87154],[13.96566,52.87199],[13.96543,52.87228],[13.96505,52.87241],[13.96463,52.87255],[13.96448,52.87266],[13.96393,52.87285],[13.96364,52.87288],[13.96332,52.87298],[13.96329,52.87303],[13.9632,52.87316],[13.96331,52.8733],[13.96355,52.87346],[13.96351,52.8736],[13.96319,52.8739],[13.96299,52.87409],[13.96276,52.87421],[13.96239,52.87433],[13.96202,52.87438],[13.96175,52.87445]]}},{"type":"Feature","properties":{"art":"pfad"},"geometry":{"type":"LineString","coordinates":[[13.9609,52.87479],[13.95761,52.87434]]}},{"type":"Feature","properties":{"art":"weg"},"geometry":{"type":"LineString","coordinates":[[14.00996,52.87493],[14.00987,52.87474],[14.00945,52.87414],[14.00947,52.87393],[14.00957,52.87372],[14.00972,52.87351],[14.00993,52.87314],[14.00992,52.87271],[14.00973,52.87254],[14.00953,52.87249],[14.00931,52.87236],[14.00862,52.87168],[14.00809,52.87111],[14.00777,52.87092],[14.0072,52.87071]]}},{"type":"Feature","properties":{"art":"pfad"},"geometry":{"type":"LineString","coordinates":[[14.00456,52.87171],[14.00386,52.87228],[14.00221,52.87318],[14.00117,52.874]]}},{"type":"Feature","properties":{"art":"pfad"},"geometry":{"type":"LineString","coordinates":[[14.0072,52.87071],[14.00772,52.87115],[14.00806,52.87173],[14.00823,52.87216],[14.00818,52.8724],[14.00765,52.87286],[14.00747,52.87314],[14.00735,52.87347],[14.00731,52.87428],[14.00666,52.87505],[14.00655,52.87517],[14.00605,52.87582]]}},{"type":"Feature","properties":{"art":"weg"},"geometry":{"type":"LineString","coordinates":[[14.01218,52.87249],[14.01148,52.87294],[14.01113,52.87334],[14.0111,52.87367],[14.01113,52.87405],[14.01109,52.87437],[14.01034,52.8748],[14.00996,52.87493]]}},{"type":"Feature","properties":{"art":"weg"},"geometry":{"type":"LineString","coordinates":[[14.01465,52.87516],[14.01454,52.87511],[14.01441,52.8749],[14.01424,52.87472],[14.01369,52.87427],[14.01355,52.87417],[14.01326,52.87398],[14.0131,52.87371],[14.01304,52.87341],[14.01305,52.87308],[14.01297,52.87295],[14.01277,52.87275],[14.01246,52.87256],[14.01218,52.87249]]}},{"type":"Feature","properties":{"art":"weg"},"geometry":{"type":"LineString","coordinates":[[14.01034,52.8748],[14.00987,52.87474]]}},{"type":"Feature","properties":{"art":"weg"},"geometry":{"type":"LineString","coordinates":[[14.01027,52.87803],[14.00994,52.87764],[14.0096,52.87717],[14.00937,52.87695],[14.00923,52.87687],[14.00892,52.87677],[14.00878,52.87674],[14.00821,52.87656],[14.00764,52.87637],[14.00732,52.87624],[14.00671,52.87602],[14.00605,52.87582],[14.00518,52.87558],[14.00489,52.87548],[14.00408,52.87517],[14.00322,52.87485],[14.00261,52.87453],[14.00117,52.874],[14.0004,52.87358],[13.99978,52.87333],[13.99934,52.87321],[13.999,52.87314]]}},{"type":"Feature","properties":{"art":"pfad"},"geometry":{"type":"LineString","coordinates":[[14.00489,52.87548],[14.00434,52.87664]]}},{"type":"Feature","properties":{"art":"weg"},"geometry":{"type":"LineString","coordinates":[[14.00996,52.87493],[14.01006,52.8754],[14.01026,52.87596],[14.0105,52.87641],[14.01054,52.87651],[14.01055,52.87654],[14.01058,52.87679],[14.01061,52.87701],[14.0105,52.8773],[14.01045,52.87733],[14.01027,52.87803]]}},{"type":"Feature","properties":{"art":"pfad"},"geometry":{"type":"LineString","coordinates":[[14.01386,52.87698],[14.01365,52.87676],[14.01346,52.87644],[14.0132,52.87624]]}},{"type":"Feature","properties":{"art":"weg"},"geometry":{"type":"LineString","coordinates":[[13.999,52.87314],[13.99881,52.87274]]}},{"type":"Feature","properties":{"art":"weg"},"geometry":{"type":"LineString","coordinates":[[13.97233,52.87338],[13.97229,52.87312],[13.97216,52.87289],[13.97201,52.87269],[13.97169,52.87252]]}},{"type":"Feature","properties":{"art":"pfad"},"geometry":{"type":"LineString","coordinates":[[13.96916,52.8738],[13.97002,52.87375],[13.97072,52.87381],[13.97149,52.87376],[13.9718,52.87366],[13.97216,52.87348],[13.97233,52.87338],[13.97343,52.87333],[13.97388,52.87354]]}},{"type":"Feature","properties":{"art":"pfad"},"geometry":{"type":"LineString","coordinates":[[13.999,52.87314],[13.99902,52.8735],[13.99916,52.87406],[13.99919,52.87456],[13.99894,52.87504],[13.99862,52.87548],[13.99819,52.87609],[13.998,52.87662],[13.99755,52.87693],[13.99718,52.87737],[13.99709,52.87755]]}},{"type":"Feature","properties":{"art":"pfad"},"geometry":{"type":"LineString","coordinates":[[13.99125,52.87761],[13.99262,52.8776],[13.99366,52.87769]]}},{"type":"Feature","properties":{"art":"pfad"},"geometry":{"type":"LineString","coordinates":[[13.99125,52.87761],[13.98912,52.87761],[13.98862,52.87763],[13.98821,52.87762],[13.98777,52.87763],[13.98754,52.87765],[13.9873,52.87767],[13.98716,52.8777]]}},{"type":"Feature","properties":{"art":"pfad"},"geometry":{"type":"LineString","coordinates":[[13.99683,52.87758],[13.99649,52.87801],[13.99619,52.8781],[13.99366,52.87769]]}},{"type":"Feature","properties":{"art":"weg"},"geometry":{"type":"LineString","coordinates":[[14.03777,52.8837],[14.03816,52.88403],[14.0384,52.88417],[14.03856,52.88424],[14.03903,52.88446],[14.03966,52.88485],[14.041,52.88585],[14.04192,52.88665],[14.04233,52.88817],[14.04242,52.88855],[14.04264,52.8901],[14.04271,52.89127],[14.04276,52.8915],[14.0428,52.89159],[14.04466,52.89389],[14.04482,52.89403]]}},{"type":"Feature","properties":{"art":"weg"},"geometry":{"type":"LineString","coordinates":[[14.03582,52.88225],[14.03554,52.88207]]}},{"type":"Feature","properties":{"art":"weg"},"geometry":{"type":"LineString","coordinates":[[14.03777,52.8837],[14.03739,52.88335],[14.03726,52.8832],[14.03582,52.88225]]}},{"type":"Feature","properties":{"art":"weg"},"geometry":{"type":"LineString","coordinates":[[14.03571,52.88324],[14.03726,52.8832]]}},{"type":"Feature","properties":{"art":"pfad"},"geometry":{"type":"LineString","coordinates":[[14.03739,52.88335],[14.03687,52.88383],[14.03654,52.88433],[14.03631,52.88476],[14.03591,52.88534],[14.03552,52.88575],[14.03532,52.88612],[14.035,52.88642],[14.03498,52.88643]]}},{"type":"Feature","properties":{"art":"pfad"},"geometry":{"type":"LineString","coordinates":[[14.0343,52.88611],[14.03498,52.88643],[14.03513,52.88664],[14.0354,52.88697],[14.03576,52.8873],[14.03586,52.88742],[14.03613,52.88761],[14.03645,52.88782],[14.03674,52.88802],[14.03697,52.88827],[14.03721,52.88858],[14.03778,52.88873],[14.03841,52.88863],[14.03886,52.88866],[14.03944,52.88863],[14.03997,52.88844],[14.04048,52.88819],[14.04093,52.88812],[14.04154,52.88812],[14.04207,52.88817],[14.04233,52.88817]]}},{"type":"Feature","properties":{"art":"pfad"},"geometry":{"type":"LineString","coordinates":[[13.96176,52.87499],[13.9609,52.87479]]}},{"type":"Feature","properties":{"art":"weg"},"geometry":{"type":"LineString","coordinates":[[13.95746,52.87646],[13.95799,52.87613],[13.95878,52.87584],[13.95966,52.87537],[13.96028,52.87512],[13.9609,52.87479],[13.96175,52.87445]]}},{"type":"Feature","properties":{"art":"weg"},"geometry":{"type":"LineString","coordinates":[[13.96732,52.87128],[13.96736,52.8714],[13.9677,52.87196],[13.96821,52.87227],[13.96845,52.87242],[13.96916,52.8738],[13.96926,52.87425]]}},{"type":"Feature","properties":{"art":"weg"},"geometry":{"type":"LineString","coordinates":[[13.96776,52.87803],[13.96749,52.87815],[13.96731,52.87832],[13.96727,52.87843],[13.96734,52.87881],[13.96726,52.87889],[13.96656,52.87907],[13.96625,52.87917],[13.96574,52.87937],[13.9652,52.87946],[13.9646,52.87958],[13.96416,52.88004],[13.96384,52.88016],[13.96355,52.88045],[13.96352,52.88053]]}},{"type":"Feature","properties":{"art":"pfad"},"geometry":{"type":"LineString","coordinates":[[13.96175,52.87445],[13.96192,52.87469],[13.96222,52.87473],[13.96225,52.87481],[13.96242,52.87479],[13.96259,52.87481],[13.96287,52.87497],[13.96334,52.87512],[13.96383,52.87504],[13.96418,52.87506],[13.96451,52.87495],[13.96474,52.87483],[13.96507,52.87461],[13.96533,52.87418],[13.96559,52.87415],[13.96572,52.87418],[13.9659,52.87428],[13.96593,52.87456],[13.96584,52.87471],[13.9656,52.87488],[13.96555,52.87494]]}},{"type":"Feature","properties":{"art":"pfad"},"geometry":{"type":"LineString","coordinates":[[13.96738,52.87777],[13.96735,52.87784],[13.96691,52.87833],[13.96643,52.87823],[13.96594,52.87828],[13.9655,52.87838],[13.9649,52.87842],[13.96471,52.8786],[13.96419,52.87888],[13.9637,52.87906],[13.96332,52.8791],[13.96273,52.87923],[13.96231,52.87937],[13.9621,52.87937]]}},{"type":"Feature","properties":{"art":"pfad"},"geometry":{"type":"LineString","coordinates":[[13.96201,52.87937],[13.96181,52.87915],[13.96141,52.87889],[13.96132,52.87876],[13.96131,52.87845],[13.96128,52.8783],[13.96145,52.87803],[13.96168,52.87779],[13.96179,52.87763],[13.96192,52.87738],[13.96203,52.87731],[13.96214,52.87727],[13.96231,52.87715],[13.96288,52.87699],[13.963,52.87679],[13.96295,52.87664],[13.96289,52.87642],[13.96274,52.8763],[13.96239,52.8761],[13.96194,52.8758],[13.96148,52.87565],[13.96119,52.87553],[13.96122,52.8754],[13.96135,52.87527],[13.96176,52.87499],[13.96225,52.87481]]}},{"type":"Feature","properties":{"art":"pfad"},"geometry":{"type":"LineString","coordinates":[[13.96691,52.87833],[13.96731,52.87832]]}},{"type":"Feature","properties":{"art":"weg"},"geometry":{"type":"LineString","coordinates":[[13.96789,52.87836],[13.96747,52.8783],[13.96731,52.87832]]}},{"type":"Feature","properties":{"art":"pfad"},"geometry":{"type":"LineString","coordinates":[[13.9621,52.87937],[13.96201,52.87937]]}},{"type":"Feature","properties":{"art":"pfad"},"geometry":{"type":"LineString","coordinates":[[13.96928,52.88093],[13.96929,52.88103],[13.96957,52.88133],[13.96963,52.88154],[13.96951,52.88165],[13.96923,52.88182],[13.96899,52.88205],[13.96897,52.88238],[13.96889,52.8826],[13.96894,52.88282],[13.96896,52.88304],[13.96884,52.88324],[13.96862,52.88335],[13.96837,52.88339],[13.96822,52.88339],[13.96774,52.8833],[13.96747,52.88329],[13.96674,52.88333],[13.9661,52.88336],[13.96551,52.88332],[13.96514,52.88326],[13.96457,52.88322]]}},{"type":"Feature","properties":{"art":"pfad"},"geometry":{"type":"LineString","coordinates":[[14.01055,52.87654],[14.00958,52.87669],[14.00892,52.87677]]}},{"type":"Feature","properties":{"art":"weg"},"geometry":{"type":"LineString","coordinates":[[14.01151,52.87658],[14.01134,52.87673],[14.01107,52.877],[14.01074,52.87719],[14.0105,52.8773]]}},{"type":"Feature","properties":{"art":"pfad"},"geometry":{"type":"LineString","coordinates":[[13.99683,52.87758],[13.99709,52.87755],[13.998,52.87751],[13.99926,52.8773],[14.00071,52.87711],[14.00221,52.87688],[14.00281,52.87677],[14.00324,52.87676],[14.00465,52.87674],[14.00643,52.87677],[14.00731,52.87679],[14.0082,52.87681],[14.00856,52.87678],[14.00892,52.87677]]}},{"type":"Feature","properties":{"art":"pfad"},"geometry":{"type":"LineString","coordinates":[[14.0133,52.8759],[14.01328,52.87612],[14.0132,52.87624],[14.01281,52.87652],[14.01249,52.87685],[14.01257,52.87728],[14.01277,52.87765],[14.01338,52.87844],[14.0136,52.87886]]}},{"type":"Feature","properties":{"art":"weg"},"geometry":{"type":"LineString","coordinates":[[14.01045,52.87733],[14.00994,52.87764],[14.00841,52.87796],[14.00822,52.87801],[14.00745,52.87815],[14.00669,52.87833],[14.00617,52.87849],[14.00593,52.87864],[14.00545,52.8789],[14.00486,52.87928],[14.00449,52.87954],[14.00414,52.87977],[14.0039,52.87988]]}},{"type":"Feature","properties":{"art":"pfad"},"geometry":{"type":"LineString","coordinates":[[14.01038,52.87827],[14.01165,52.87851],[14.0136,52.87886],[14.01446,52.87903],[14.01458,52.87919]]}},{"type":"Feature","properties":{"art":"pfad"},"geometry":{"type":"LineString","coordinates":[[14.0074,52.8795],[14.00762,52.87932],[14.00781,52.87907],[14.00797,52.87877],[14.00818,52.87856],[14.00836,52.87819],[14.00841,52.87796]]}},{"type":"Feature","properties":{"art":"weg"},"geometry":{"type":"LineString","coordinates":[[14.01027,52.87803],[14.01038,52.87827],[14.01066,52.87892],[14.01083,52.87956],[14.01088,52.88],[14.01085,52.8803],[14.01091,52.88051]]}},{"type":"Feature","properties":{"art":"weg"},"geometry":{"type":"LineString","coordinates":[[14.01088,52.88],[14.01106,52.88009],[14.01126,52.88011],[14.01142,52.88009]]}},{"type":"Feature","properties":{"art":"pfad"},"geometry":{"type":"LineString","coordinates":[[14.0074,52.8795],[14.00722,52.87969],[14.00695,52.87991],[14.00666,52.88019],[14.00638,52.88029],[14.00559,52.88045],[14.00512,52.88062],[14.00441,52.88089],[14.00361,52.88099],[14.00319,52.88111],[14.00234,52.88154],[14.00215,52.88167]]}},{"type":"Feature","properties":{"art":"weg"},"geometry":{"type":"LineString","coordinates":[[13.99709,52.87755],[13.9971,52.87777],[13.99698,52.87802],[13.99688,52.8782],[13.99655,52.87837],[13.99627,52.87888],[13.99618,52.87915]]}},{"type":"Feature","properties":{"art":"pfad"},"geometry":{"type":"LineString","coordinates":[[14.0039,52.87988],[14.00298,52.87981],[14.00162,52.87977],[14.00119,52.87973],[14.0004,52.87968],[13.99958,52.87963],[13.99844,52.87949],[13.99781,52.87943],[13.99722,52.8794],[13.99666,52.87931],[13.99618,52.87915],[13.99545,52.87905],[13.99504,52.879],[13.99471,52.87889],[13.99434,52.87864],[13.99377,52.87819],[13.99304,52.87798],[13.99194,52.87779]]}},{"type":"Feature","properties":{"art":"pfad"},"geometry":{"type":"LineString","coordinates":[[13.99667,52.8829],[13.99655,52.8826],[13.99634,52.88201],[13.9963,52.88157],[13.99646,52.88044],[13.99666,52.87931]]}},{"type":"Feature","properties":{"art":"pfad"},"geometry":{"type":"LineString","coordinates":[[13.98157,52.88134],[13.98234,52.88113],[13.98278,52.88112],[13.98349,52.88103],[13.98379,52.88119],[13.98422,52.88128],[13.9845,52.88126],[13.98501,52.88117],[13.98579,52.8811],[13.9862,52.88103],[13.98643,52.88101],[13.98695,52.88117],[13.98727,52.88118],[13.98765,52.88114]]}},{"type":"Feature","properties":{"art":"pfad"},"geometry":{"type":"LineString","coordinates":[[14.00137,52.88152],[14.00112,52.8817],[14.00019,52.88186],[13.99966,52.88203],[13.99915,52.88207],[13.99871,52.8821],[13.99833,52.88215],[13.99767,52.88232],[13.9971,52.8826],[13.99667,52.8829],[13.99654,52.88307]]}},{"type":"Feature","properties":{"art":"weg"},"geometry":{"type":"LineString","coordinates":[[13.98678,52.87681],[13.98686,52.87696],[13.98716,52.8777],[13.98725,52.87788],[13.98769,52.87877],[13.98775,52.87896],[13.98774,52.8791],[13.9877,52.87924],[13.98758,52.87951],[13.98756,52.87965],[13.98757,52.8798],[13.98767,52.87998],[13.98805,52.88033],[13.98841,52.88068],[13.9893,52.88158],[13.98973,52.88207],[13.99015,52.88239],[13.99083,52.88285],[13.99097,52.883],[13.99141,52.88368],[13.99159,52.88387],[13.99178,52.88405],[13.99245,52.88439],[13.99279,52.88467],[13.99385,52.88561],[13.99459,52.88619],[13.99484,52.88636],[13.99549,52.88671],[13.99558,52.88675],[13.99603,52.88706],[13.99684,52.88779],[13.99699,52.88793],[13.99817,52.88925]]}},{"type":"Feature","properties":{"art":"pfad"},"geometry":{"type":"LineString","coordinates":[[13.97875,52.88445],[13.97912,52.88399],[13.97931,52.88338],[13.9797,52.8827],[13.98002,52.88248],[13.9808,52.88235],[13.98115,52.88227],[13.98116,52.88216],[13.9813,52.88202],[13.98139,52.88147],[13.98157,52.88134]]}},{"type":"Feature","properties":{"art":"pfad"},"geometry":{"type":"LineString","coordinates":[[13.99583,52.88436],[13.99568,52.88398],[13.9957,52.8838],[13.99597,52.8836],[13.99628,52.88344],[13.99636,52.88333],[13.99631,52.88312]]}},{"type":"Feature","properties":{"art":"weg"},"geometry":{"type":"LineString","coordinates":[[13.98259,52.88737],[13.98265,52.88732],[13.98308,52.8866],[13.98356,52.88622],[13.98408,52.88599],[13.98461,52.88581],[13.98497,52.88568],[13.98537,52.88542],[13.98561,52.88509],[13.9862,52.88415],[13.98739,52.88177],[13.9876,52.88132],[13.98765,52.88114],[13.98781,52.88076],[13.98805,52.88033]]}},{"type":"Feature","properties":{"art":"pfad"},"geometry":{"type":"LineString","coordinates":[[13.99606,52.88319],[13.99636,52.88333],[13.99676,52.8836],[13.99704,52.88404],[13.99753,52.88441],[13.99782,52.8847],[13.99843,52.88508],[13.99855,52.88524],[13.99892,52.88548],[13.99921,52.88588],[14.00045,52.88604],[14.00082,52.88604]]}},{"type":"Feature","properties":{"art":"pfad"},"geometry":{"type":"LineString","coordinates":[[14.00122,52.88626],[14.0011,52.88616],[14.00086,52.88606],[14.00082,52.88604],[14.0005,52.88577],[14.00039,52.88554],[14.00031,52.8852],[14.00029,52.88494],[14.00017,52.88469],[13.99978,52.88436],[13.99967,52.8841],[13.99958,52.88394],[13.99913,52.8837],[13.99864,52.88335],[13.99834,52.88323],[13.99715,52.88301],[13.99654,52.88307],[13.99631,52.88312],[13.99606,52.88319],[13.99542,52.8833],[13.99469,52.88341],[13.99402,52.88356],[13.99327,52.88375],[13.99288,52.88395],[13.99245,52.88439]]}},{"type":"Feature","properties":{"art":"pfad"},"geometry":{"type":"LineString","coordinates":[[13.97501,52.88196],[13.97463,52.88205],[13.97425,52.88216],[13.97376,52.88241],[13.97357,52.88273],[13.97365,52.88317],[13.97373,52.88358],[13.97369,52.88392],[13.97374,52.88421],[13.97409,52.88462],[13.97419,52.88502],[13.9745,52.88541],[13.9746,52.88577],[13.97462,52.88593],[13.97472,52.88604],[13.97491,52.88631],[13.97517,52.88668],[13.97531,52.88694]]}},{"type":"Feature","properties":{"art":"pfad"},"geometry":{"type":"LineString","coordinates":[[13.99855,52.88626],[13.99815,52.88611],[13.99723,52.88533],[13.99716,52.88525],[13.997,52.8849],[13.9965,52.88466],[13.99583,52.88436],[13.99598,52.88464],[13.99595,52.88493],[13.99585,52.88516],[13.99572,52.88534],[13.99572,52.88558]]}},{"type":"Feature","properties":{"art":"weg"},"geometry":{"type":"LineString","coordinates":[[13.99238,52.89081],[13.99109,52.89079],[13.98979,52.89083],[13.98958,52.89078],[13.98905,52.89034],[13.98883,52.89007],[13.98841,52.88932],[13.98817,52.88911],[13.98781,52.88895],[13.98711,52.88877],[13.98566,52.88849],[13.98465,52.88838],[13.98409,52.88829],[13.98362,52.88818],[13.98336,52.88809],[13.98313,52.88789],[13.98259,52.88737],[13.98218,52.88701],[13.9819,52.88646],[13.98128,52.88589],[13.9806,52.88533],[13.97956,52.88483],[13.9792,52.88462],[13.97875,52.88445],[13.97752,52.88399],[13.97703,52.88372],[13.97659,52.88343],[13.97615,52.88306],[13.9751,52.88206],[13.97501,52.88196],[13.97471,52.8818],[13.97447,52.88173],[13.97421,52.88167],[13.97246,52.88133],[13.97202,52.88123],[13.97118,52.88105],[13.97073,52.881],[13.9702,52.88098],[13.96928,52.88093],[13.96867,52.88086],[13.96806,52.88083],[13.96746,52.88089],[13.96687,52.88093],[13.96551,52.88092]]}},{"type":"Feature","properties":{"art":"pfad"},"geometry":{"type":"LineString","coordinates":[[13.99938,52.8863],[13.99926,52.88595],[13.99921,52.88588]]}},{"type":"Feature","properties":{"art":"pfad"},"geometry":{"type":"LineString","coordinates":[[13.98461,52.88581],[13.9863,52.88586],[13.98712,52.88574],[13.9891,52.88632],[13.98936,52.88638],[13.99014,52.88644],[13.9909,52.88637],[13.99159,52.8864],[13.9939,52.88663],[13.99549,52.88671]]}},{"type":"Feature","properties":{"art":"pfad"},"geometry":{"type":"LineString","coordinates":[[13.97365,52.88634],[13.97342,52.88633],[13.9732,52.88642],[13.97304,52.88657],[13.97292,52.88657],[13.97238,52.88644],[13.97197,52.88615],[13.9715,52.88551],[13.97132,52.88511],[13.97104,52.88478],[13.97061,52.88445],[13.97041,52.88443],[13.97028,52.88451],[13.96998,52.88489],[13.96934,52.88504],[13.96919,52.88524],[13.96919,52.88541],[13.9693,52.88561],[13.96951,52.8858],[13.96955,52.88593],[13.96942,52.88601],[13.9688,52.8861],[13.96857,52.88621],[13.96813,52.8866],[13.96815,52.88673],[13.96863,52.8872],[13.96912,52.88745],[13.96916,52.88754],[13.96911,52.88764],[13.96904,52.88767],[13.9683,52.88761],[13.96807,52.88766],[13.9679,52.88779]]}},{"type":"Feature","properties":{"art":"pfad"},"geometry":{"type":"LineString","coordinates":[[13.97472,52.88604],[13.9746,52.88614],[13.97425,52.88638]]}},{"type":"Feature","properties":{"art":"pfad"},"geometry":{"type":"LineString","coordinates":[[13.97398,52.88644],[13.97365,52.88634]]}},{"type":"Feature","properties":{"art":"pfad"},"geometry":{"type":"LineString","coordinates":[[13.98218,52.88701],[13.97628,52.88602]]}},{"type":"Feature","properties":{"art":"pfad"},"geometry":{"type":"LineString","coordinates":[[13.95854,52.88496],[13.95893,52.88494],[13.95989,52.88476],[13.96037,52.88472],[13.96083,52.88455],[13.96086,52.88438],[13.9606,52.88415]]}},{"type":"Feature","properties":{"art":"strasse"},"geometry":{"type":"LineString","coordinates":[[13.96151,52.89234],[13.96184,52.89218],[13.96198,52.89203],[13.96207,52.89184],[13.96237,52.89091],[13.96251,52.88979],[13.96248,52.88958],[13.962,52.8888],[13.96159,52.88803],[13.96124,52.88769],[13.95974,52.88644],[13.95937,52.88614],[13.95859,52.88522],[13.95854,52.88496],[13.95842,52.88448],[13.95831,52.88425],[13.95804,52.88404],[13.95713,52.88336],[13.95681,52.88302],[13.95607,52.88193],[13.9561,52.88088],[13.95613,52.88042],[13.95603,52.87983],[13.95623,52.87911]]}},{"type":"Feature","properties":{"art":"pfad"},"geometry":{"type":"LineString","coordinates":[[13.96083,52.88455],[13.96098,52.88456],[13.96115,52.88465],[13.96136,52.88475],[13.96176,52.88525],[13.96222,52.88595],[13.96262,52.88632],[13.96283,52.88664],[13.96296,52.88685],[13.96329,52.88728],[13.96339,52.88753],[13.96327,52.88784],[13.96248,52.88835]]}},{"type":"Feature","properties":{"art":"pfad"},"geometry":{"type":"LineString","coordinates":[[13.9617,52.88667],[13.96226,52.88664],[13.96283,52.88664]]}},{"type":"Feature","properties":{"art":"pfad"},"geometry":{"type":"LineString","coordinates":[[13.9679,52.88779],[13.96743,52.88823],[13.96693,52.88845],[13.96654,52.88844],[13.96575,52.8883],[13.9653,52.88819],[13.96495,52.88796],[13.96329,52.88728],[13.9617,52.88667],[13.96131,52.88654],[13.95974,52.88644],[13.95755,52.88634],[13.95685,52.88639],[13.95633,52.8865],[13.95592,52.88663],[13.95453,52.88739],[13.95414,52.8879],[13.95406,52.88839]]}},{"type":"Feature","properties":{"art":"pfad"},"geometry":{"type":"LineString","coordinates":[[14.0011,52.88616],[14.00107,52.88592],[14.00095,52.88561],[14.00081,52.88528],[14.00096,52.8848],[14.00129,52.88453],[14.00153,52.88441],[14.00163,52.88387],[14.00181,52.88362],[14.00189,52.88332]]}},{"type":"Feature","properties":{"art":"pfad"},"geometry":{"type":"LineString","coordinates":[[14.00629,52.88605],[14.00626,52.88576],[14.00619,52.88538],[14.00574,52.88508],[14.00537,52.88502],[14.00522,52.885],[14.00513,52.88493]]}},{"type":"Feature","properties":{"art":"pfad"},"geometry":{"type":"LineString","coordinates":[[14.01061,52.88719],[14.0104,52.88689],[14.01031,52.88648],[14.01031,52.88622],[14.01011,52.88592],[14.00987,52.88556],[14.00954,52.88532],[14.00906,52.88511],[14.00853,52.88468],[14.00816,52.88398]]}},{"type":"Feature","properties":{"art":"weg"},"geometry":{"type":"LineString","coordinates":[[14.0147,52.88675],[14.0143,52.88682],[14.01324,52.8868],[14.01297,52.88683],[14.01261,52.88699],[14.01207,52.887],[14.01123,52.88714],[14.01081,52.88719],[14.01061,52.88719],[14.01042,52.88716],[14.00905,52.88707],[14.00769,52.88687],[14.0073,52.8867],[14.00629,52.88605]]}},{"type":"Feature","properties":{"art":"pfad"},"geometry":{"type":"LineString","coordinates":[[14.00575,52.89167],[14.00571,52.89134],[14.00568,52.89102],[14.00563,52.89076],[14.00563,52.89046],[14.00575,52.89025],[14.0061,52.89009],[14.00659,52.88997],[14.00686,52.88987],[14.00713,52.88976],[14.00732,52.88961],[14.00752,52.88941],[14.0076,52.88921],[14.00756,52.88898],[14.00735,52.88838],[14.00739,52.88808],[14.00726,52.88775],[14.00733,52.88746],[14.00722,52.88712],[14.00724,52.88686],[14.0073,52.8867]]}},{"type":"Feature","properties":{"art":"pfad"},"geometry":{"type":"LineString","coordinates":[[13.99572,52.88558],[13.99591,52.88602],[13.99631,52.88669],[13.99703,52.88717],[13.99704,52.88755],[13.99684,52.88779]]}},{"type":"Feature","properties":{"art":"pfad"},"geometry":{"type":"LineString","coordinates":[[13.9994,52.88717],[13.99944,52.88665],[13.99938,52.8863],[13.99912,52.88631],[13.99886,52.88632],[13.99865,52.88629],[13.99855,52.88626],[13.99843,52.88649],[13.99841,52.8868],[13.99856,52.88711]]}},{"type":"Feature","properties":{"art":"pfad"},"geometry":{"type":"LineString","coordinates":[[13.97608,52.88821],[13.97645,52.88782],[13.97696,52.88771],[13.97628,52.88602],[13.97499,52.88579],[13.9746,52.88577]]}},{"type":"Feature","properties":{"art":"pfad"},"geometry":{"type":"LineString","coordinates":[[13.9814,52.89259],[13.98169,52.8919],[13.98176,52.89175],[13.98286,52.89099],[13.9831,52.89083],[13.98354,52.89037],[13.98384,52.89021],[13.98431,52.89014],[13.98487,52.89004],[13.9852,52.8899],[13.98548,52.88963],[13.98554,52.88935],[13.98562,52.8886],[13.98566,52.88849],[13.98579,52.88832],[13.98682,52.88765],[13.98776,52.88727],[13.98936,52.88638],[13.98942,52.88635],[13.99254,52.88496],[13.99279,52.88467]]}},{"type":"Feature","properties":{"art":"pfad"},"geometry":{"type":"LineString","coordinates":[[13.96789,52.89167],[13.96823,52.89163],[13.96876,52.89164],[13.96931,52.89155],[13.96965,52.89156],[13.9699,52.89151],[13.97,52.89144],[13.97025,52.89111],[13.97066,52.89098],[13.97105,52.8906],[13.97118,52.89039],[13.97145,52.88965],[13.97208,52.88876],[13.97229,52.88845],[13.97251,52.88824],[13.97265,52.88792],[13.97272,52.88726],[13.9735,52.88647],[13.97398,52.88644],[13.97425,52.88638]]}},{"type":"Feature","properties":{"art":"pfad"},"geometry":{"type":"LineString","coordinates":[[14.03554,52.88207],[14.03582,52.88173]]}},{"type":"Feature","properties":{"art":"weg"},"geometry":{"type":"LineString","coordinates":[[14.02158,52.87551],[14.0208,52.87546],[14.02053,52.87541],[14.02008,52.87527],[14.01972,52.87519],[14.01884,52.87502]]}},{"type":"Feature","properties":{"art":"pfad"},"geometry":{"type":"LineString","coordinates":[[14.01667,52.87605],[14.01668,52.87583],[14.01669,52.87521],[14.01683,52.8749]]}},{"type":"Feature","properties":{"art":"weg"},"geometry":{"type":"LineString","coordinates":[[14.01884,52.87502],[14.01833,52.875],[14.01756,52.8749],[14.01683,52.8749],[14.01641,52.87489],[14.01627,52.87489],[14.01552,52.87492],[14.0152,52.87501],[14.01465,52.87516],[14.0133,52.8759],[14.0125,52.87622],[14.01189,52.87646],[14.01151,52.87658],[14.01058,52.87679]]}},{"type":"Feature","properties":{"art":"weg"},"geometry":{"type":"LineString","coordinates":[[14.02254,52.87605],[14.02233,52.87611],[14.02209,52.87615]]}},{"type":"Feature","properties":{"art":"weg"},"geometry":{"type":"LineString","coordinates":[[14.02209,52.87615],[14.02193,52.87617],[14.0218,52.87623],[14.02168,52.87635],[14.02166,52.8764],[14.0217,52.87643],[14.02176,52.87642],[14.0218,52.87639],[14.02186,52.87629],[14.02193,52.87621],[14.02199,52.87618],[14.02209,52.87615]]}},{"type":"Feature","properties":{"art":"pfad"},"geometry":{"type":"LineString","coordinates":[[14.01667,52.87605],[14.01625,52.876],[14.01585,52.8759],[14.01531,52.87579],[14.01486,52.87593],[14.01446,52.87604],[14.01411,52.87619],[14.01407,52.87638],[14.01404,52.87664],[14.01393,52.87681],[14.01386,52.87698]]}},{"type":"Feature","properties":{"art":"weg"},"geometry":{"type":"LineString","coordinates":[[14.02294,52.87722],[14.02291,52.8773],[14.02292,52.87765],[14.02295,52.87796],[14.02289,52.87828],[14.02293,52.87841]]}},{"type":"Feature","properties":{"art":"strasse"},"geometry":{"type":"LineString","coordinates":[[14.02642,52.8783],[14.0264,52.87832],[14.02607,52.8787]]}},{"type":"Feature","properties":{"art":"weg"},"geometry":{"type":"LineString","coordinates":[[14.03523,52.88192],[14.03542,52.882],[14.03554,52.88207]]}},{"type":"Feature","properties":{"art":"pfad"},"geometry":{"type":"LineString","coordinates":[[14.01565,52.87925],[14.01586,52.87891],[14.01608,52.87845],[14.0163,52.87803],[14.01646,52.87757],[14.01657,52.87731],[14.01667,52.87683],[14.01666,52.87638],[14.01667,52.87605]]}},{"type":"Feature","properties":{"art":"pfad"},"geometry":{"type":"LineString","coordinates":[[14.02286,52.87863],[14.02293,52.87848],[14.02293,52.87841]]}},{"type":"Feature","properties":{"art":"strasse"},"geometry":{"type":"LineString","coordinates":[[14.02607,52.8787],[14.02674,52.8788]]}},{"type":"Feature","properties":{"art":"pfad"},"geometry":{"type":"LineString","coordinates":[[14.01784,52.87948],[14.01771,52.87975],[14.01771,52.87999],[14.01779,52.88023],[14.01788,52.88057],[14.01816,52.8807]]}},{"type":"Feature","properties":{"art":"pfad"},"geometry":{"type":"LineString","coordinates":[[14.02597,52.88298],[14.02562,52.8829],[14.02516,52.88292],[14.02471,52.88309],[14.02431,52.88314],[14.02407,52.88317],[14.02343,52.88302],[14.02313,52.88281],[14.02305,52.88272],[14.0229,52.88255],[14.0227,52.88232],[14.02254,52.88208],[14.02239,52.88191],[14.02232,52.88171],[14.02227,52.88153],[14.02227,52.88138]]}},{"type":"Feature","properties":{"art":"pfad"},"geometry":{"type":"LineString","coordinates":[[14.02127,52.88239],[14.02029,52.88251],[14.01944,52.88264],[14.01867,52.88292],[14.01793,52.88298],[14.01696,52.88306],[14.01646,52.88316],[14.0161,52.88322],[14.01555,52.8832],[14.01527,52.88318]]}},{"type":"Feature","properties":{"art":"weg"},"geometry":{"type":"LineString","coordinates":[[14.02603,52.88275],[14.02624,52.88277],[14.02672,52.88275],[14.02727,52.88279],[14.02749,52.88288],[14.02768,52.88295],[14.02784,52.88305]]}},{"type":"Feature","properties":{"art":"pfad"},"geometry":{"type":"LineString","coordinates":[[14.01893,52.88672],[14.01845,52.88666],[14.01802,52.88652],[14.0173,52.88627],[14.01667,52.88595],[14.01621,52.88537],[14.01577,52.88511],[14.01555,52.88473],[14.01534,52.88446],[14.01513,52.8842],[14.01519,52.88407],[14.0152,52.88369],[14.01527,52.88318],[14.01482,52.88262],[14.01469,52.88226],[14.0147,52.88194],[14.01464,52.88173],[14.01463,52.8813],[14.01455,52.88111],[14.01451,52.88077],[14.01441,52.88046],[14.01442,52.88014],[14.01434,52.87963],[14.01438,52.87923]]}},{"type":"Feature","properties":{"art":"pfad"},"geometry":{"type":"LineString","coordinates":[[14.01807,52.88522],[14.01735,52.88492],[14.01676,52.88452],[14.01663,52.88421],[14.0166,52.88414],[14.01663,52.88396],[14.01684,52.88385],[14.01728,52.8838],[14.0176,52.88375],[14.018,52.88366],[14.01835,52.88356],[14.01867,52.88347],[14.01904,52.8832],[14.01928,52.88296],[14.01944,52.88264]]}},{"type":"Feature","properties":{"art":"pfad"},"geometry":{"type":"LineString","coordinates":[[14.01519,52.88407],[14.01633,52.88422],[14.01663,52.88421]]}},{"type":"Feature","properties":{"art":"pfad"},"geometry":{"type":"LineString","coordinates":[[14.00137,52.88152],[14.00119,52.88092],[14.00102,52.88046],[14.00106,52.88026],[14.00119,52.87973]]}},{"type":"Feature","properties":{"art":"pfad"},"geometry":{"type":"LineString","coordinates":[[14.00986,52.88191],[14.00947,52.88167],[14.00876,52.8814],[14.00845,52.8812],[14.00832,52.88111],[14.00802,52.88076],[14.00763,52.88045],[14.00755,52.88015],[14.00761,52.87976],[14.00748,52.87954],[14.0074,52.8795]]}},{"type":"Feature","properties":{"art":"pfad"},"geometry":{"type":"LineString","coordinates":[[13.99827,52.8797],[13.99834,52.88001],[13.9987,52.88032],[13.99914,52.88056],[13.99934,52.88087],[13.99985,52.88114],[14.00046,52.88135],[14.00137,52.88152],[14.00215,52.88167],[14.00245,52.88168],[14.00362,52.88161],[14.00421,52.88154],[14.00493,52.88164],[14.00544,52.88175],[14.00567,52.88171],[14.00631,52.88146]]}},{"type":"Feature","properties":{"art":"pfad"},"geometry":{"type":"LineString","coordinates":[[14.0039,52.87988],[14.00441,52.88016],[14.00512,52.88062],[14.00615,52.88135],[14.00631,52.88146],[14.00682,52.88179],[14.00689,52.88185],[14.00742,52.88233],[14.00766,52.88259],[14.00789,52.88278],[14.00809,52.88287],[14.00825,52.88288],[14.00858,52.88272]]}},{"type":"Feature","properties":{"art":"pfad"},"geometry":{"type":"LineString","coordinates":[[14.00845,52.8812],[14.00689,52.88185]]}},{"type":"Feature","properties":{"art":"pfad"},"geometry":{"type":"LineString","coordinates":[[14.00825,52.88288],[14.00772,52.88312],[14.00731,52.88324],[14.00694,52.88333],[14.00638,52.88331],[14.00589,52.88329],[14.00538,52.88332],[14.00474,52.88341],[14.00436,52.88359]]}},{"type":"Feature","properties":{"art":"pfad"},"geometry":{"type":"LineString","coordinates":[[14.00436,52.88359],[14.00406,52.8835],[14.00378,52.88325],[14.0034,52.88313],[14.00286,52.88306],[14.00241,52.88308],[14.00189,52.88332]]}},{"type":"Feature","properties":{"art":"weg"},"geometry":{"type":"LineString","coordinates":[[14.02607,52.8787],[14.02592,52.87869],[14.02546,52.87866],[14.02475,52.87862],[14.02425,52.87862],[14.02347,52.87862],[14.02286,52.87863],[14.02178,52.87865],[14.02099,52.87871],[14.02085,52.87872],[14.0194,52.87901],[14.01898,52.87914],[14.01845,52.87932],[14.01812,52.87945],[14.01784,52.87948],[14.01605,52.8793],[14.01565,52.87925],[14.01516,52.87919],[14.01477,52.87918],[14.01458,52.87919],[14.01438,52.87923],[14.01369,52.87942],[14.01275,52.87962],[14.01227,52.87973],[14.01179,52.8799],[14.01142,52.88009],[14.01112,52.88028],[14.01091,52.88051],[14.01027,52.8816],[14.00986,52.88191],[14.00889,52.88251],[14.00858,52.88272],[14.00841,52.88308],[14.00816,52.88398],[14.00806,52.88445],[14.00801,52.88457],[14.00792,52.88467],[14.00768,52.88475],[14.0064,52.88479],[14.00513,52.88493],[14.00429,52.88507],[14.00338,52.88553],[14.00262,52.8858],[14.00207,52.88598],[14.00166,52.88611],[14.00122,52.88626],[14.00072,52.88649],[14.00054,52.88662],[13.99973,52.88753],[13.99951,52.88788],[13.99933,52.88811],[13.99877,52.88866],[13.99817,52.88925]]}},{"type":"Feature","properties":{"art":"pfad"},"geometry":{"type":"LineString","coordinates":[[14.01059,52.88318],[14.01038,52.88319],[14.01013,52.88327],[14.01023,52.88352],[14.01036,52.8838],[14.01062,52.88407],[14.01085,52.88455],[14.01086,52.88468],[14.01065,52.8847],[14.01,52.88457],[14.00945,52.88449],[14.00816,52.88398]]}},{"type":"Feature","properties":{"art":"weg"},"geometry":{"type":"LineString","coordinates":[[14.00986,52.88191],[14.01007,52.88204],[14.01034,52.88221],[14.01064,52.88251],[14.01069,52.88286],[14.01059,52.88318],[14.01065,52.88342],[14.01088,52.88361],[14.01134,52.88379],[14.01196,52.88446],[14.01214,52.88468],[14.01249,52.88495],[14.0129,52.88502],[14.01324,52.88502],[14.01438,52.88532],[14.01481,52.88554],[14.01554,52.88628]]}},{"type":"Feature","properties":{"art":"pfad"},"geometry":{"type":"LineString","coordinates":[[14.01534,52.88446],[14.01518,52.88521],[14.01481,52.88554]]}},{"type":"Feature","properties":{"art":"weg"},"geometry":{"type":"LineString","coordinates":[[14.01893,52.88672],[14.0198,52.8866],[14.02021,52.88649],[14.02055,52.8863],[14.02097,52.88597],[14.02145,52.88568],[14.02201,52.88544],[14.02269,52.88534],[14.02334,52.88523],[14.02399,52.88526],[14.02444,52.88527],[14.02486,52.88533],[14.0254,52.8856],[14.02592,52.8859],[14.02657,52.88607],[14.02693,52.88606],[14.02729,52.88602],[14.02817,52.88598],[14.02846,52.88592],[14.0288,52.88589],[14.029,52.8859],[14.0292,52.88598],[14.02936,52.88606],[14.02963,52.88617],[14.03,52.88623],[14.03038,52.88627],[14.03074,52.88618],[14.03102,52.88594],[14.03133,52.88589],[14.03171,52.88591],[14.03205,52.88607],[14.03254,52.88615],[14.03325,52.88612],[14.03397,52.88606],[14.0343,52.88611]]}},{"type":"Feature","properties":{"art":"weg"},"geometry":{"type":"LineString","coordinates":[[14.01605,52.89334],[14.01589,52.89298],[14.01578,52.89277],[14.01587,52.89255],[14.01618,52.89232],[14.0166,52.89228],[14.01697,52.89227],[14.01716,52.89216],[14.0172,52.89186],[14.01736,52.89159],[14.01744,52.89128],[14.01733,52.89098],[14.01709,52.89072],[14.01672,52.89058],[14.01628,52.89045],[14.01577,52.89023],[14.01549,52.89008],[14.01516,52.8899],[14.01484,52.88964],[14.01463,52.88937],[14.01463,52.88904],[14.01459,52.88886],[14.01446,52.88857],[14.01445,52.88803],[14.01469,52.88723],[14.0147,52.88675],[14.0152,52.88643],[14.01544,52.88631],[14.01554,52.88628],[14.01585,52.88631],[14.01653,52.88635],[14.01692,52.88634],[14.0173,52.88627],[14.01764,52.88605],[14.01793,52.88562],[14.01807,52.88522],[14.0183,52.88502],[14.01839,52.88494],[14.01874,52.88463],[14.01891,52.88429],[14.019,52.88415],[14.01949,52.88351],[14.01979,52.88323],[14.02011,52.88298],[14.02056,52.88277],[14.02088,52.88257],[14.02127,52.88239],[14.02166,52.88212],[14.02177,52.88198],[14.02191,52.88182],[14.02227,52.88138],[14.02244,52.88133],[14.02309,52.88087],[14.02321,52.88082],[14.02337,52.88068],[14.02379,52.8805],[14.02403,52.8803],[14.02439,52.88008],[14.02468,52.87981],[14.02498,52.8794],[14.02509,52.87931],[14.02516,52.87925],[14.02548,52.87903],[14.02581,52.87889]]}},{"type":"Feature","properties":{"art":"weg"},"geometry":{"type":"LineString","coordinates":[[14.02598,52.89418],[14.02599,52.89324],[14.02615,52.89298],[14.02643,52.89266],[14.02665,52.89238],[14.02671,52.89214],[14.02667,52.89193],[14.02654,52.89174],[14.02633,52.89152],[14.02601,52.89126],[14.02581,52.89095],[14.02554,52.89034],[14.02545,52.89008],[14.0255,52.88966],[14.02554,52.88923],[14.02558,52.88894],[14.02581,52.88838],[14.02596,52.88806],[14.02609,52.88764],[14.02613,52.88753],[14.02628,52.88713],[14.02648,52.88682],[14.02669,52.88662],[14.02682,52.88646],[14.02691,52.88629],[14.02693,52.88606],[14.02692,52.88587],[14.0269,52.88526],[14.02686,52.88502],[14.02692,52.8845],[14.02667,52.88397],[14.02638,52.88363],[14.02603,52.88319],[14.02597,52.88298],[14.026,52.88282],[14.02603,52.88275],[14.026,52.88246],[14.02605,52.88165],[14.02607,52.88147],[14.02613,52.8813],[14.02616,52.88117],[14.02616,52.88106],[14.02612,52.88047],[14.02601,52.88023]]}},{"type":"Feature","properties":{"art":"weg"},"geometry":{"type":"LineString","coordinates":[[14.02587,52.87995],[14.02575,52.87976],[14.02553,52.87956],[14.02546,52.87946],[14.02546,52.87935],[14.02562,52.87915],[14.02581,52.87889],[14.02597,52.87877],[14.02607,52.8787]]}},{"type":"Feature","properties":{"art":"pfad"},"geometry":{"type":"LineString","coordinates":[[14.02102,52.88955],[14.02072,52.88965],[14.02045,52.88965],[14.02017,52.8893],[14.02004,52.88901],[14.02007,52.88891],[14.01992,52.88864],[14.01961,52.88835],[14.0194,52.888],[14.01897,52.88763],[14.01845,52.88745],[14.0181,52.8872],[14.01783,52.88697],[14.01747,52.88675],[14.01734,52.88658],[14.0173,52.88627]]}},{"type":"Feature","properties":{"art":"pfad"},"geometry":{"type":"LineString","coordinates":[[14.03212,52.88199],[14.03209,52.88207]]}},{"type":"Feature","properties":{"art":"pfad"},"geometry":{"type":"LineString","coordinates":[[14.0358,52.88296],[14.03503,52.8831]]}},{"type":"Feature","properties":{"art":"pfad"},"geometry":{"type":"LineString","coordinates":[[14.02605,52.88165],[14.02682,52.88162],[14.02754,52.88168],[14.02822,52.88198],[14.02868,52.88199],[14.02951,52.88209],[14.02982,52.88219],[14.0302,52.88219],[14.03066,52.88233],[14.03108,52.88258],[14.03131,52.88296],[14.03136,52.88332],[14.03109,52.88355],[14.03087,52.88383],[14.03075,52.88407],[14.03075,52.88439],[14.03087,52.88472],[14.03102,52.88489],[14.03132,52.88489],[14.03149,52.88477],[14.03175,52.88467],[14.03211,52.88457],[14.03245,52.88453],[14.03287,52.88453],[14.03326,52.88466],[14.03382,52.88462],[14.03433,52.88466],[14.03474,52.8847],[14.0352,52.88477]]}},{"type":"Feature","properties":{"art":"pfad"},"geometry":{"type":"LineString","coordinates":[[14.03545,52.88434],[14.03522,52.88431],[14.03483,52.88426],[14.0345,52.88429],[14.03417,52.88428],[14.03392,52.88428],[14.0336,52.88424],[14.03343,52.88429],[14.03311,52.88428],[14.03297,52.88429],[14.03288,52.88422],[14.03285,52.88412],[14.03278,52.88413],[14.03276,52.88409]]}},{"type":"Feature","properties":{"art":"weg"},"geometry":{"type":"LineString","coordinates":[[14.03582,52.88225],[14.03589,52.88267],[14.0358,52.88296],[14.03571,52.88324],[14.03564,52.8835],[14.03561,52.88371],[14.03556,52.88415],[14.03545,52.88434],[14.03529,52.88464],[14.0352,52.88477],[14.03511,52.88491],[14.03493,52.88515],[14.03462,52.88564],[14.0343,52.88611],[14.03396,52.88669],[14.03368,52.88717],[14.03349,52.88748],[14.03336,52.88796],[14.03316,52.8883],[14.03291,52.88856],[14.03255,52.88885],[14.03205,52.8893],[14.03185,52.88945],[14.03168,52.88962],[14.03134,52.88997],[14.03124,52.89022],[14.03121,52.89044],[14.03115,52.8907],[14.03062,52.89136],[14.03022,52.89177],[14.02957,52.89206],[14.0293,52.89213],[14.02763,52.89259],[14.02698,52.8928],[14.0265,52.89293],[14.02615,52.89298]]}},{"type":"Feature","properties":{"art":"pfad"},"geometry":{"type":"LineString","coordinates":[[14.0572,52.87581],[14.05721,52.87576]]}},{"type":"Feature","properties":{"art":"strasse"},"geometry":{"type":"LineString","coordinates":[[14.05738,52.87583],[14.0574,52.87578]]}},{"type":"Feature","properties":{"art":"pfad"},"geometry":{"type":"LineString","coordinates":[[14.05754,52.87585],[14.05756,52.8758]]}},{"type":"Feature","properties":{"art":"strasse"},"geometry":{"type":"LineString","coordinates":[[14.05728,52.87586],[14.0573,52.87582]]}},{"type":"Feature","properties":{"art":"pfad"},"geometry":{"type":"LineString","coordinates":[[14.05791,52.87589],[14.05793,52.87583]]}},{"type":"Feature","properties":{"art":"strasse"},"geometry":{"type":"LineString","coordinates":[[14.05743,52.87589],[14.05745,52.87584]]}},{"type":"Feature","properties":{"art":"strasse"},"geometry":{"type":"LineString","coordinates":[[14.05707,52.8758],[14.0572,52.87581],[14.0573,52.87582],[14.05738,52.87583],[14.05745,52.87584],[14.05754,52.87585],[14.05762,52.87586],[14.05775,52.87587],[14.05791,52.87589],[14.05793,52.87589],[14.05802,52.87591],[14.05836,52.87595]]}},{"type":"Feature","properties":{"art":"strasse"},"geometry":{"type":"LineString","coordinates":[[14.05761,52.8759],[14.05762,52.87586]]}},{"type":"Feature","properties":{"art":"strasse"},"geometry":{"type":"LineString","coordinates":[[14.05879,52.87476],[14.05874,52.87485],[14.05854,52.87536],[14.05836,52.87595],[14.0582,52.87647],[14.0581,52.87678],[14.05809,52.8768],[14.05803,52.87701],[14.05802,52.87702]]}},{"type":"Feature","properties":{"art":"strasse"},"geometry":{"type":"LineString","coordinates":[[14.05773,52.87592],[14.05775,52.87587]]}},{"type":"Feature","properties":{"art":"strasse"},"geometry":{"type":"LineString","coordinates":[[14.05726,52.87594],[14.05727,52.87591],[14.05728,52.87586]]}},{"type":"Feature","properties":{"art":"strasse"},"geometry":{"type":"LineString","coordinates":[[14.05792,52.87594],[14.05793,52.87589]]}},{"type":"Feature","properties":{"art":"pfad"},"geometry":{"type":"LineString","coordinates":[[14.05727,52.87591],[14.0573,52.87591]]}},{"type":"Feature","properties":{"art":"strasse"},"geometry":{"type":"LineString","coordinates":[[14.05801,52.87595],[14.05802,52.87591]]}},{"type":"Feature","properties":{"art":"pfad"},"geometry":{"type":"LineString","coordinates":[[14.0573,52.87595],[14.05732,52.87591],[14.05731,52.87591]]}},{"type":"Feature","properties":{"art":"strasse"},"geometry":{"type":"LineString","coordinates":[[14.05759,52.87597],[14.05761,52.8759]]}},{"type":"Feature","properties":{"art":"strasse"},"geometry":{"type":"LineString","coordinates":[[14.05789,52.87601],[14.05792,52.87594]]}},{"type":"Feature","properties":{"art":"strasse"},"geometry":{"type":"LineString","coordinates":[[14.05775,52.87642],[14.05779,52.8763]]}},{"type":"Feature","properties":{"art":"strasse"},"geometry":{"type":"LineString","coordinates":[[14.05781,52.87643],[14.05784,52.87633]]}},{"type":"Feature","properties":{"art":"strasse"},"geometry":{"type":"LineString","coordinates":[[14.05689,52.87633],[14.05699,52.87634],[14.05704,52.87634],[14.05706,52.87635],[14.05752,52.8764],[14.05756,52.8764],[14.05775,52.87642],[14.05781,52.87643],[14.05788,52.87643]]}},{"type":"Feature","properties":{"art":"pfad"},"geometry":{"type":"LineString","coordinates":[[14.05704,52.87611],[14.05697,52.8761]]}},{"type":"Feature","properties":{"art":"pfad"},"geometry":{"type":"LineString","coordinates":[[14.05689,52.87633],[14.05684,52.87632]]}},{"type":"Feature","properties":{"art":"strasse"},"geometry":{"type":"LineString","coordinates":[[14.05701,52.87628],[14.05699,52.87634]]}},{"type":"Feature","properties":{"art":"strasse"},"geometry":{"type":"LineString","coordinates":[[14.05704,52.87634],[14.05705,52.8763]]}},{"type":"Feature","properties":{"art":"strasse"},"geometry":{"type":"LineString","coordinates":[[14.0575,52.87648],[14.05751,52.87643],[14.05752,52.8764]]}},{"type":"Feature","properties":{"art":"strasse"},"geometry":{"type":"LineString","coordinates":[[14.05756,52.8764],[14.05755,52.87643],[14.05754,52.87649]]}},{"type":"Feature","properties":{"art":"strasse"},"geometry":{"type":"LineString","coordinates":[[14.05788,52.87643],[14.0582,52.87647]]}},{"type":"Feature","properties":{"art":"pfad"},"geometry":{"type":"LineString","coordinates":[[14.05691,52.87643],[14.05693,52.87638],[14.05694,52.87637],[14.05695,52.87637],[14.05705,52.87638],[14.05751,52.87643],[14.05755,52.87643],[14.05785,52.87646],[14.05788,52.87643]]}},{"type":"Feature","properties":{"art":"pfad"},"geometry":{"type":"LineString","coordinates":[[14.0581,52.87678],[14.05803,52.87678]]}},{"type":"Feature","properties":{"art":"strasse"},"geometry":{"type":"LineString","coordinates":[[14.05803,52.8768],[14.0579,52.87678]]}},{"type":"Feature","properties":{"art":"strasse"},"geometry":{"type":"LineString","coordinates":[[14.05809,52.8768],[14.05803,52.8768]]}},{"type":"Feature","properties":{"art":"strasse"},"geometry":{"type":"LineString","coordinates":[[14.05742,52.87688],[14.05747,52.87673]]}},{"type":"Feature","properties":{"art":"strasse"},"geometry":{"type":"LineString","coordinates":[[14.05705,52.87639],[14.05705,52.87638],[14.05706,52.87635]]}},{"type":"Feature","properties":{"art":"strasse"},"geometry":{"type":"LineString","coordinates":[[14.05702,52.87647],[14.05705,52.87639]]}},{"type":"Feature","properties":{"art":"strasse"},"geometry":{"type":"LineString","coordinates":[[14.05687,52.8764],[14.05689,52.87633]]}},{"type":"Feature","properties":{"art":"strasse"},"geometry":{"type":"LineString","coordinates":[[14.05802,52.87702],[14.05788,52.87701],[14.0578,52.877],[14.05743,52.87696],[14.0574,52.87695],[14.05738,52.87695]]}},{"type":"Feature","properties":{"art":"weg"},"geometry":{"type":"LineString","coordinates":[[14.07966,52.87158],[14.07973,52.87153],[14.07973,52.87149]]}},{"type":"Feature","properties":{"art":"pfad"},"geometry":{"type":"LineString","coordinates":[[14.07532,52.87248],[14.07574,52.87228],[14.07642,52.87232],[14.0779,52.87263],[14.0802,52.87269]]}},{"type":"Feature","properties":{"art":"weg"},"geometry":{"type":"LineString","coordinates":[[14.07225,52.87207],[14.07198,52.87248]]}},{"type":"Feature","properties":{"art":"strasse"},"geometry":{"type":"LineString","coordinates":[[14.06072,52.8777],[14.06059,52.87766],[14.06044,52.87762],[14.05998,52.87749],[14.05961,52.8774],[14.05854,52.87713],[14.05802,52.87702]]}},{"type":"Feature","properties":{"art":"strasse"},"geometry":{"type":"LineString","coordinates":[[14.06127,52.87775],[14.06085,52.87773],[14.06072,52.8777]]}},{"type":"Feature","properties":{"art":"strasse"},"geometry":{"type":"LineString","coordinates":[[14.06136,52.87775],[14.06141,52.87775]]}},{"type":"Feature","properties":{"art":"strasse"},"geometry":{"type":"LineString","coordinates":[[14.06136,52.87775],[14.06127,52.87775]]}},{"type":"Feature","properties":{"art":"strasse"},"geometry":{"type":"LineString","coordinates":[[14.06142,52.87776],[14.06136,52.87775]]}},{"type":"Feature","properties":{"art":"pfad"},"geometry":{"type":"LineString","coordinates":[[14.06072,52.8777],[14.06085,52.87804],[14.06082,52.87863],[14.06076,52.87944],[14.06068,52.87984],[14.06052,52.88018],[14.06037,52.88023]]}},{"type":"Feature","properties":{"art":"pfad"},"geometry":{"type":"LineString","coordinates":[[14.06016,52.88072],[14.06015,52.88068],[14.05974,52.87998],[14.05911,52.87925],[14.05894,52.87901],[14.0589,52.87859],[14.05929,52.87812],[14.05961,52.87752],[14.05961,52.8774]]}},{"type":"Feature","properties":{"art":"pfad"},"geometry":{"type":"LineString","coordinates":[[14.06044,52.87762],[14.06036,52.87807],[14.06036,52.87825],[14.0604,52.87867],[14.06037,52.88023],[14.06036,52.88037],[14.06034,52.88052],[14.0603,52.88063],[14.06021,52.88073]]}},{"type":"Feature","properties":{"art":"pfad"},"geometry":{"type":"LineString","coordinates":[[14.06085,52.88069],[14.06094,52.87911],[14.06103,52.8779]]}},{"type":"Feature","properties":{"art":"weg"},"geometry":{"type":"LineString","coordinates":[[14.06438,52.88814],[14.06438,52.88815],[14.06477,52.88856],[14.06531,52.88901]]}},{"type":"Feature","properties":{"art":"strasse"},"geometry":{"type":"LineString","coordinates":[[14.0574,52.87695],[14.05742,52.87688]]}},{"type":"Feature","properties":{"art":"pfad"},"geometry":{"type":"LineString","coordinates":[[14.05743,52.87696],[14.05745,52.87689]]}},{"type":"Feature","properties":{"art":"pfad"},"geometry":{"type":"LineString","coordinates":[[14.0578,52.877],[14.05782,52.87693]]}},{"type":"Feature","properties":{"art":"strasse"},"geometry":{"type":"LineString","coordinates":[[14.05788,52.87701],[14.05784,52.87713]]}},{"type":"Feature","properties":{"art":"pfad"},"geometry":{"type":"LineString","coordinates":[[14.05784,52.87716],[14.05794,52.87717]]}},{"type":"Feature","properties":{"art":"strasse"},"geometry":{"type":"LineString","coordinates":[[14.05784,52.87713],[14.05784,52.87716],[14.05781,52.87726]]}},{"type":"Feature","properties":{"art":"strasse"},"geometry":{"type":"LineString","coordinates":[[14.05781,52.87726],[14.05777,52.87736],[14.05777,52.87741],[14.05776,52.87745],[14.05772,52.87758],[14.05767,52.87763],[14.05758,52.87764],[14.05718,52.87759]]}},{"type":"Feature","properties":{"art":"strasse"},"geometry":{"type":"LineString","coordinates":[[14.05731,52.8772],[14.05781,52.87726]]}},{"type":"Feature","properties":{"art":"strasse"},"geometry":{"type":"LineString","coordinates":[[14.05777,52.87741],[14.05763,52.87739]]}},{"type":"Feature","properties":{"art":"strasse"},"geometry":{"type":"LineString","coordinates":[[14.05698,52.87841],[14.05698,52.8784],[14.057,52.87839],[14.05703,52.87838],[14.05737,52.87837],[14.05742,52.87838],[14.05747,52.87841],[14.05749,52.87844],[14.0575,52.87887],[14.05749,52.87889]]}},{"type":"Feature","properties":{"art":"strasse"},"geometry":{"type":"LineString","coordinates":[[14.05772,52.87909],[14.05772,52.87898],[14.05771,52.87876],[14.05802,52.87876],[14.05803,52.87908]]}},{"type":"Feature","properties":{"art":"pfad"},"geometry":{"type":"LineString","coordinates":[[14.05772,52.87898],[14.05776,52.87898]]}},{"type":"Feature","properties":{"art":"strasse"},"geometry":{"type":"LineString","coordinates":[[14.05803,52.87908],[14.05803,52.87914]]}},{"type":"Feature","properties":{"art":"strasse"},"geometry":{"type":"LineString","coordinates":[[14.05772,52.87915],[14.05772,52.87909]]}},{"type":"Feature","properties":{"art":"strasse"},"geometry":{"type":"LineString","coordinates":[[14.05761,52.87916],[14.05772,52.87915],[14.05803,52.87914]]}},{"type":"Feature","properties":{"art":"strasse"},"geometry":{"type":"LineString","coordinates":[[14.05806,52.87927],[14.05829,52.87926],[14.05829,52.87917]]}},{"type":"Feature","properties":{"art":"strasse"},"geometry":{"type":"LineString","coordinates":[[14.05811,52.87944],[14.05806,52.87927],[14.05804,52.87918],[14.05803,52.87914]]}}]}