{
"type": "FeatureCollection",
"name": "barnim_39_583_boden",
"crs": { "type": "name", "properties": { "name": "urn:ogc:def:crs:OGC:1.3:CRS84" } },
"xy_coordinate_resolution": 1e-05,
"features": [
{ "type": "Feature", "properties": { "boden": "Keine Bodengruppe kartiert" }, "geometry": { "type": "Polygon", "coordinates": [ [ [ 13.52004, 52.69889 ], [ 13.52015, 52.69891 ], [ 13.52016, 52.69861 ], [ 13.52004, 52.69889 ] ] ] } },
{ "type": "Feature", "properties": { "boden": "50 % mittel, frisch (M1) · 50 % mittel, frisch (M1)" }, "geometry": { "type": "Polygon", "coordinates": [ [ [ 13.44901, 52.66361 ], [ 13.44986, 52.66373 ], [ 13.45081, 52.664 ], [ 13.45152, 52.66432 ], [ 13.45175, 52.66459 ], [ 13.45176, 52.66467 ], [ 13.45208, 52.66466 ], [ 13.45236, 52.66456 ], [ 13.45229, 52.66439 ], [ 13.45151, 52.66397 ], [ 13.4493, 52.66334 ], [ 13.44908, 52.66335 ], [ 13.44901, 52.66342 ], [ 13.44901, 52.66361 ] ] ] } },
{ "type": "Feature", "properties": { "boden": "50 % ziemlich arm, frisch (Z1) · 50 % mittel, frisch (M1)" }, "geometry": { "type": "Polygon", "coordinates": [ [ [ 13.45175, 52.66459 ], [ 13.45152, 52.66432 ], [ 13.45081, 52.664 ], [ 13.44986, 52.66373 ], [ 13.44901, 52.66361 ], [ 13.44944, 52.66443 ], [ 13.44973, 52.6653 ], [ 13.44983, 52.66528 ], [ 13.45011, 52.66503 ], [ 13.45065, 52.6648 ], [ 13.45113, 52.66471 ], [ 13.45176, 52.66467 ], [ 13.45175, 52.66459 ] ] ] } },
{ "type": "Feature", "properties": { "boden": "50 % ziemlich arm, frisch (Z1) · 50 % mittel, frisch (M1)" }, "geometry": { "type": "Polygon", "coordinates": [ [ [ 13.45113, 52.66471 ], [ 13.45065, 52.6648 ], [ 13.45011, 52.66503 ], [ 13.44983, 52.66528 ], [ 13.44973, 52.6653 ], [ 13.44944, 52.66443 ], [ 13.44901, 52.66361 ], [ 13.44835, 52.66365 ], [ 13.44837, 52.66379 ], [ 13.4481, 52.66383 ], [ 13.44808, 52.66373 ], [ 13.4479, 52.66377 ], [ 13.44751, 52.66427 ], [ 13.44755, 52.66509 ], [ 13.44771, 52.6653 ], [ 13.44805, 52.66545 ], [ 13.44866, 52.6655 ], [ 13.44932, 52.66549 ], [ 13.4504, 52.66539 ], [ 13.45087, 52.6653 ], [ 13.45134, 52.66529 ], [ 13.45169, 52.66513 ], [ 13.45176, 52.66467 ], [ 13.45113, 52.66471 ] ] ] } },
{ "type": "Feature", "properties": { "boden": "50 % mittel, frisch (M1) · 50 % mittel, frisch (M1)" }, "geometry": { "type": "Polygon", "coordinates": [ [ [ 13.44901, 52.66361 ], [ 13.44901, 52.66342 ], [ 13.44908, 52.66335 ], [ 13.4493, 52.66334 ], [ 13.45151, 52.66397 ], [ 13.45229, 52.66439 ], [ 13.45236, 52.66456 ], [ 13.45208, 52.66466 ], [ 13.45176, 52.66467 ], [ 13.45169, 52.66513 ], [ 13.45134, 52.66529 ], [ 13.45087, 52.6653 ], [ 13.4504, 52.66539 ], [ 13.44932, 52.66549 ], [ 13.44866, 52.6655 ], [ 13.44805, 52.66545 ], [ 13.44771, 52.6653 ], [ 13.44755, 52.66509 ], [ 13.44751, 52.66427 ], [ 13.4479, 52.66377 ], [ 13.44682, 52.66409 ], [ 13.44569, 52.66435 ], [ 13.44548, 52.66449 ], [ 13.44472, 52.66479 ], [ 13.44442, 52.66485 ], [ 13.44426, 52.66486 ], [ 13.44208, 52.66353 ], [ 13.44182, 52.664 ], [ 13.44307, 52.66468 ], [ 13.4427, 52.66494 ], [ 13.44328, 52.66518 ], [ 13.44366, 52.6652 ], [ 13.44386, 52.6651 ], [ 13.44449, 52.6653 ], [ 13.44661, 52.66654 ], [ 13.44932, 52.66571 ], [ 13.44962, 52.66591 ], [ 13.4511, 52.66558 ], [ 13.45444, 52.66501 ], [ 13.45325, 52.66416 ], [ 13.45271, 52.66395 ], [ 13.45266, 52.66383 ], [ 13.45127, 52.66296 ], [ 13.45044, 52.66272 ], [ 13.4491, 52.66314 ], [ 13.4491, 52.66323 ], [ 13.44834, 52.66342 ], [ 13.44835, 52.66365 ], [ 13.44901, 52.66361 ] ] ] } },
{ "type": "Feature", "properties": { "boden": "100 % ziemlich arm, mäßig frisch (Z2g)" }, "geometry": { "type": "Polygon", "coordinates": [ [ [ 13.39926, 52.67295 ], [ 13.39915, 52.67285 ], [ 13.39897, 52.6725 ], [ 13.39807, 52.67236 ], [ 13.39783, 52.67227 ], [ 13.39722, 52.67303 ], [ 13.39803, 52.67338 ], [ 13.39779, 52.6737 ], [ 13.39807, 52.67395 ], [ 13.39908, 52.67318 ], [ 13.39986, 52.67271 ], [ 13.39926, 52.67295 ] ] ] } },
{ "type": "Feature", "properties": { "boden": "100 % mittel, mäßig frisch (M+2)" }, "geometry": { "type": "Polygon", "coordinates": [ [ [ 13.41214, 52.67401 ], [ 13.41218, 52.67387 ], [ 13.41206, 52.67343 ], [ 13.41219, 52.67281 ], [ 13.41193, 52.67234 ], [ 13.40627, 52.67368 ], [ 13.40688, 52.67462 ], [ 13.40733, 52.67504 ], [ 13.40769, 52.67519 ], [ 13.408, 52.67526 ], [ 13.40829, 52.67521 ], [ 13.4091, 52.67487 ], [ 13.41047, 52.67446 ], [ 13.41201, 52.6744 ], [ 13.41221, 52.67436 ], [ 13.41214, 52.67401 ] ] ] } },
{ "type": "Feature", "properties": { "boden": "100 % mittel, mäßig frisch (M2)" }, "geometry": { "type": "Polygon", "coordinates": [ [ [ 13.40155, 52.67518 ], [ 13.40139, 52.67522 ], [ 13.4013, 52.67533 ], [ 13.40135, 52.67543 ], [ 13.40154, 52.67549 ], [ 13.40174, 52.67544 ], [ 13.4018, 52.67534 ], [ 13.40171, 52.67522 ], [ 13.40155, 52.67518 ] ] ] } },
{ "type": "Feature", "properties": { "boden": "100 % mittel, mäßig frisch (M2)" }, "geometry": { "type": "Polygon", "coordinates": [ [ [ 13.40131, 52.67266 ], [ 13.40073, 52.67275 ], [ 13.3984, 52.67425 ], [ 13.39886, 52.67467 ], [ 13.39888, 52.67536 ], [ 13.399, 52.67571 ], [ 13.39945, 52.67629 ], [ 13.39974, 52.67692 ], [ 13.40005, 52.67711 ], [ 13.40034, 52.67714 ], [ 13.40028, 52.67705 ], [ 13.4005, 52.67699 ], [ 13.40067, 52.67706 ], [ 13.40104, 52.67708 ], [ 13.40169, 52.67728 ], [ 13.40245, 52.67741 ], [ 13.40329, 52.67738 ], [ 13.40339, 52.67744 ], [ 13.40343, 52.67757 ], [ 13.40324, 52.67773 ], [ 13.40304, 52.67773 ], [ 13.40304, 52.67777 ], [ 13.40444, 52.67801 ], [ 13.4047, 52.67824 ], [ 13.40588, 52.67794 ], [ 13.40609, 52.67779 ], [ 13.40614, 52.6776 ], [ 13.40598, 52.67734 ], [ 13.40575, 52.67722 ], [ 13.40436, 52.67691 ], [ 13.4037, 52.67625 ], [ 13.40374, 52.67606 ], [ 13.40388, 52.6759 ], [ 13.40407, 52.67576 ], [ 13.40447, 52.67559 ], [ 13.40477, 52.6753 ], [ 13.40466, 52.67503 ], [ 13.40437, 52.67482 ], [ 13.40312, 52.67443 ], [ 13.40267, 52.6742 ], [ 13.40226, 52.67391 ], [ 13.40187, 52.67342 ], [ 13.40168, 52.67329 ], [ 13.40192, 52.67275 ], [ 13.40131, 52.67266 ] ], [ [ 13.4018, 52.67534 ], [ 13.40174, 52.67544 ], [ 13.40154, 52.67549 ], [ 13.40135, 52.67543 ], [ 13.4013, 52.67533 ], [ 13.40139, 52.67522 ], [ 13.40155, 52.67518 ], [ 13.40171, 52.67522 ], [ 13.4018, 52.67534 ] ] ] } },
{ "type": "Feature", "properties": { "boden": "100 % kräftig, mäßig frisch (K2)" }, "geometry": { "type": "Polygon", "coordinates": [ [ [ 13.41802, 52.67793 ], [ 13.41773, 52.67791 ], [ 13.41748, 52.67785 ], [ 13.41758, 52.67802 ], [ 13.41779, 52.67804 ], [ 13.41809, 52.67822 ], [ 13.41818, 52.67819 ], [ 13.41818, 52.67808 ], [ 13.41802, 52.67793 ] ] ] } },
{ "type": "Feature", "properties": { "boden": "100 % kräftig, mäßig frisch (K2)" }, "geometry": { "type": "Polygon", "coordinates": [ [ [ 13.43225, 52.67984 ], [ 13.43215, 52.67985 ], [ 13.43221, 52.67958 ], [ 13.43249, 52.67959 ], [ 13.43268, 52.67951 ], [ 13.4331, 52.67774 ], [ 13.43168, 52.6763 ], [ 13.43203, 52.67605 ], [ 13.43077, 52.67596 ], [ 13.42899, 52.67631 ], [ 13.43033, 52.67969 ], [ 13.43048, 52.67984 ], [ 13.42818, 52.68 ], [ 13.43074, 52.68111 ], [ 13.43241, 52.68096 ], [ 13.43241, 52.68043 ], [ 13.43225, 52.67984 ] ] ] } },
{ "type": "Feature", "properties": { "boden": "100 % mittel, mäßig frisch (M2)" }, "geometry": { "type": "Polygon", "coordinates": [ [ [ 13.49693, 52.67904 ], [ 13.49677, 52.67907 ], [ 13.49668, 52.67919 ], [ 13.49673, 52.67929 ], [ 13.49692, 52.67935 ], [ 13.49712, 52.67929 ], [ 13.49718, 52.6792 ], [ 13.49713, 52.6791 ], [ 13.49693, 52.67904 ] ] ] } },
{ "type": "Feature", "properties": { "boden": "100 % mittel, mäßig frisch (M2)" }, "geometry": { "type": "Polygon", "coordinates": [ [ [ 13.49559, 52.6796 ], [ 13.49543, 52.67963 ], [ 13.49533, 52.67974 ], [ 13.49542, 52.67986 ], [ 13.49558, 52.6799 ], [ 13.49578, 52.67985 ], [ 13.49584, 52.67975 ], [ 13.49575, 52.67963 ], [ 13.49559, 52.6796 ] ] ] } },
{ "type": "Feature", "properties": { "boden": "100 % mittel, mäßig frisch (M2)" }, "geometry": { "type": "Polygon", "coordinates": [ [ [ 13.48507, 52.67974 ], [ 13.48491, 52.67977 ], [ 13.48481, 52.67989 ], [ 13.48487, 52.67999 ], [ 13.48506, 52.68004 ], [ 13.48526, 52.67999 ], [ 13.48532, 52.67989 ], [ 13.48523, 52.67978 ], [ 13.48507, 52.67974 ] ] ] } },
{ "type": "Feature", "properties": { "boden": "100 % mittel, mäßig frisch (M2)" }, "geometry": { "type": "Polygon", "coordinates": [ [ [ 13.48461, 52.6809 ], [ 13.48466, 52.68064 ], [ 13.48562, 52.6796 ], [ 13.48582, 52.67924 ], [ 13.48547, 52.679 ], [ 13.48424, 52.6786 ], [ 13.48282, 52.68108 ], [ 13.48352, 52.68101 ], [ 13.48425, 52.68132 ], [ 13.48461, 52.6809 ] ], [ [ 13.48478, 52.6805 ], [ 13.48468, 52.68061 ], [ 13.48452, 52.68065 ], [ 13.48433, 52.68059 ], [ 13.48427, 52.68049 ], [ 13.48437, 52.68037 ], [ 13.48453, 52.68034 ], [ 13.48472, 52.6804 ], [ 13.48478, 52.6805 ] ], [ [ 13.48532, 52.67989 ], [ 13.48526, 52.67999 ], [ 13.48506, 52.68004 ], [ 13.48487, 52.67999 ], [ 13.48481, 52.67989 ], [ 13.48491, 52.67977 ], [ 13.48507, 52.67974 ], [ 13.48523, 52.67978 ], [ 13.48532, 52.67989 ] ] ] } },
{ "type": "Feature", "properties": { "boden": "100 % mittel, mäßig frisch (M2)" }, "geometry": { "type": "Polygon", "coordinates": [ [ [ 13.49525, 52.68185 ], [ 13.49518, 52.68093 ], [ 13.49578, 52.68018 ], [ 13.49609, 52.67997 ], [ 13.49656, 52.67972 ], [ 13.49871, 52.67933 ], [ 13.4981, 52.67929 ], [ 13.49748, 52.67909 ], [ 13.49655, 52.67859 ], [ 13.49612, 52.67859 ], [ 13.49521, 52.67874 ], [ 13.49524, 52.67906 ], [ 13.49542, 52.67926 ], [ 13.49521, 52.67969 ], [ 13.49476, 52.68004 ], [ 13.49501, 52.68069 ], [ 13.49455, 52.68101 ], [ 13.49422, 52.68097 ], [ 13.49407, 52.68082 ], [ 13.4935, 52.68071 ], [ 13.49303, 52.68092 ], [ 13.49314, 52.68125 ], [ 13.49314, 52.68156 ], [ 13.49241, 52.6816 ], [ 13.49231, 52.68141 ], [ 13.49132, 52.68106 ], [ 13.49127, 52.68125 ], [ 13.49255, 52.68166 ], [ 13.49377, 52.68164 ], [ 13.49525, 52.68185 ] ], [ [ 13.49584, 52.67975 ], [ 13.49578, 52.67985 ], [ 13.49558, 52.6799 ], [ 13.49542, 52.67986 ], [ 13.49533, 52.67974 ], [ 13.49543, 52.67963 ], [ 13.49559, 52.6796 ], [ 13.49575, 52.67963 ], [ 13.49584, 52.67975 ] ], [ [ 13.49718, 52.6792 ], [ 13.49712, 52.67929 ], [ 13.49692, 52.67935 ], [ 13.49673, 52.67929 ], [ 13.49668, 52.67919 ], [ 13.49677, 52.67907 ], [ 13.49693, 52.67904 ], [ 13.49713, 52.6791 ], [ 13.49718, 52.6792 ] ] ] } },
{ "type": "Feature", "properties": { "boden": "100 % mittel, mäßig frisch (M2)" }, "geometry": { "type": "Polygon", "coordinates": [ [ [ 13.49871, 52.67933 ], [ 13.49656, 52.67972 ], [ 13.49578, 52.68018 ], [ 13.49518, 52.68093 ], [ 13.49518, 52.68147 ], [ 13.49528, 52.68181 ], [ 13.49601, 52.68093 ], [ 13.49869, 52.6796 ], [ 13.49976, 52.67913 ], [ 13.49963, 52.6791 ], [ 13.49939, 52.67925 ], [ 13.49907, 52.67932 ], [ 13.49871, 52.67933 ] ] ] } },
{ "type": "Feature", "properties": { "boden": "100 % mittel, mäßig frisch (M2)" }, "geometry": { "type": "Polygon", "coordinates": [ [ [ 13.48453, 52.68034 ], [ 13.48437, 52.68037 ], [ 13.48427, 52.68049 ], [ 13.48433, 52.68059 ], [ 13.48452, 52.68065 ], [ 13.48468, 52.68061 ], [ 13.48478, 52.6805 ], [ 13.48472, 52.6804 ], [ 13.48453, 52.68034 ] ] ] } },
{ "type": "Feature", "properties": { "boden": "100 % mittel, trocken (vermutet) (M3)" }, "geometry": { "type": "Polygon", "coordinates": [ [ [ 13.49236, 52.68181 ], [ 13.49226, 52.68171 ], [ 13.49177, 52.68154 ], [ 13.49159, 52.68158 ], [ 13.49133, 52.68179 ], [ 13.49134, 52.68183 ], [ 13.49163, 52.68182 ], [ 13.49213, 52.68193 ], [ 13.49232, 52.6819 ], [ 13.49236, 52.68181 ] ] ] } },
{ "type": "Feature", "properties": { "boden": "100 % mittel, mäßig frisch (M2)" }, "geometry": { "type": "Polygon", "coordinates": [ [ [ 13.49291, 52.68172 ], [ 13.4925, 52.68172 ], [ 13.49129, 52.68131 ], [ 13.49026, 52.6824 ], [ 13.49066, 52.68257 ], [ 13.49137, 52.68271 ], [ 13.49186, 52.6824 ], [ 13.49226, 52.6824 ], [ 13.49291, 52.68172 ] ], [ [ 13.49232, 52.6819 ], [ 13.49213, 52.68193 ], [ 13.49163, 52.68182 ], [ 13.49134, 52.68183 ], [ 13.49133, 52.68179 ], [ 13.49159, 52.68158 ], [ 13.49177, 52.68154 ], [ 13.49226, 52.68171 ], [ 13.49236, 52.68181 ], [ 13.49232, 52.6819 ] ] ] } },
{ "type": "Feature", "properties": { "boden": "100 % mittel, nass (NM2)" }, "geometry": { "type": "Polygon", "coordinates": [ [ [ 13.47838, 52.68192 ], [ 13.47822, 52.68196 ], [ 13.47813, 52.68207 ], [ 13.47818, 52.68217 ], [ 13.47837, 52.68223 ], [ 13.47857, 52.68218 ], [ 13.47863, 52.68208 ], [ 13.47854, 52.68196 ], [ 13.47838, 52.68192 ] ] ] } },
{ "type": "Feature", "properties": { "boden": "100 % kräftig, mäßig frisch (K2)" }, "geometry": { "type": "Polygon", "coordinates": [ [ [ 13.41722, 52.6774 ], [ 13.41753, 52.67919 ], [ 13.41943, 52.6801 ], [ 13.41999, 52.6802 ], [ 13.41983, 52.67918 ], [ 13.42015, 52.67911 ], [ 13.42007, 52.67863 ], [ 13.41987, 52.67832 ], [ 13.41969, 52.67747 ], [ 13.41722, 52.6774 ] ], [ [ 13.41812, 52.678 ], [ 13.4182, 52.67816 ], [ 13.41809, 52.67822 ], [ 13.41779, 52.67804 ], [ 13.41758, 52.67802 ], [ 13.41748, 52.67785 ], [ 13.41773, 52.67791 ], [ 13.41791, 52.67789 ], [ 13.41812, 52.678 ] ], [ [ 13.41788, 52.67912 ], [ 13.41777, 52.67875 ], [ 13.41927, 52.67861 ], [ 13.41934, 52.67902 ], [ 13.41788, 52.67912 ] ] ] } },
{ "type": "Feature", "properties": { "boden": "50 % ziemlich arm, mäßig frisch (Z2) · 50 % mittel, mäßig frisch (M2)" }, "geometry": { "type": "Polygon", "coordinates": [ [ [ 13.41656, 52.67958 ], [ 13.41523, 52.6797 ], [ 13.41516, 52.67977 ], [ 13.41491, 52.67978 ], [ 13.41443, 52.67992 ], [ 13.41419, 52.68006 ], [ 13.41409, 52.68025 ], [ 13.41414, 52.68038 ], [ 13.41435, 52.68055 ], [ 13.41449, 52.68058 ], [ 13.41509, 52.68053 ], [ 13.41576, 52.68052 ], [ 13.41612, 52.68047 ], [ 13.41652, 52.68034 ], [ 13.41789, 52.68019 ], [ 13.4181, 52.68009 ], [ 13.41816, 52.68002 ], [ 13.41807, 52.67976 ], [ 13.41781, 52.67967 ], [ 13.41656, 52.67958 ] ] ] } },
{ "type": "Feature", "properties": { "boden": "40 % mittel, nass (NM2) · 30 % mittel, frisch (M1) · 30 % mittel, mäßig frisch (M2)" }, "geometry": { "type": "Polygon", "coordinates": [ [ [ 13.41447, 52.68566 ], [ 13.41303, 52.68547 ], [ 13.41215, 52.68528 ], [ 13.41122, 52.68489 ], [ 13.41034, 52.6843 ], [ 13.41011, 52.68379 ], [ 13.41016, 52.68365 ], [ 13.41028, 52.68352 ], [ 13.41092, 52.68335 ], [ 13.41259, 52.68321 ], [ 13.41329, 52.68328 ], [ 13.41446, 52.6836 ], [ 13.41621, 52.6835 ], [ 13.41729, 52.68327 ], [ 13.4186, 52.68207 ], [ 13.41878, 52.68198 ], [ 13.41908, 52.6815 ], [ 13.41977, 52.68086 ], [ 13.4194, 52.68072 ], [ 13.41976, 52.68044 ], [ 13.41981, 52.68033 ], [ 13.41928, 52.68021 ], [ 13.41878, 52.68002 ], [ 13.41897, 52.67988 ], [ 13.41753, 52.67919 ], [ 13.41722, 52.6774 ], [ 13.41969, 52.67747 ], [ 13.4196, 52.67705 ], [ 13.41888, 52.6771 ], [ 13.41769, 52.67689 ], [ 13.4173, 52.67657 ], [ 13.41661, 52.67623 ], [ 13.41521, 52.67603 ], [ 13.41462, 52.67587 ], [ 13.41383, 52.67537 ], [ 13.41269, 52.67493 ], [ 13.41226, 52.67465 ], [ 13.41221, 52.67436 ], [ 13.41201, 52.6744 ], [ 13.41047, 52.67446 ], [ 13.4091, 52.67487 ], [ 13.40829, 52.67521 ], [ 13.408, 52.67526 ], [ 13.40769, 52.67519 ], [ 13.40733, 52.67504 ], [ 13.40688, 52.67462 ], [ 13.40627, 52.67368 ], [ 13.40549, 52.67379 ], [ 13.40484, 52.67347 ], [ 13.40361, 52.67303 ], [ 13.40192, 52.67275 ], [ 13.40168, 52.67329 ], [ 13.40187, 52.67342 ], [ 13.40226, 52.67391 ], [ 13.40267, 52.6742 ], [ 13.40312, 52.67443 ], [ 13.40437, 52.67482 ], [ 13.40466, 52.67503 ], [ 13.40475, 52.67515 ], [ 13.40477, 52.6753 ], [ 13.40466, 52.67543 ], [ 13.40447, 52.67559 ], [ 13.40407, 52.67576 ], [ 13.40388, 52.6759 ], [ 13.40374, 52.67606 ], [ 13.4037, 52.67625 ], [ 13.40436, 52.67691 ], [ 13.40575, 52.67722 ], [ 13.40598, 52.67734 ], [ 13.40614, 52.6776 ], [ 13.40609, 52.67779 ], [ 13.40588, 52.67794 ], [ 13.4047, 52.67824 ], [ 13.4049, 52.67842 ], [ 13.40502, 52.67897 ], [ 13.40584, 52.68142 ], [ 13.40318, 52.68156 ], [ 13.40319, 52.68186 ], [ 13.40232, 52.68304 ], [ 13.40262, 52.68332 ], [ 13.40328, 52.68315 ], [ 13.40361, 52.68327 ], [ 13.40404, 52.68301 ], [ 13.40458, 52.68345 ], [ 13.4053, 52.68354 ], [ 13.4049, 52.68369 ], [ 13.40432, 52.68349 ], [ 13.40406, 52.68355 ], [ 13.40402, 52.68384 ], [ 13.40388, 52.68386 ], [ 13.40374, 52.68349 ], [ 13.40354, 52.68344 ], [ 13.40306, 52.68354 ], [ 13.40309, 52.68373 ], [ 13.40328, 52.68388 ], [ 13.40346, 52.68434 ], [ 13.4041, 52.68457 ], [ 13.40475, 52.68433 ], [ 13.40435, 52.68403 ], [ 13.4044, 52.68401 ], [ 13.40521, 52.68403 ], [ 13.40579, 52.6841 ], [ 13.4066, 52.68479 ], [ 13.40654, 52.68488 ], [ 13.40538, 52.68535 ], [ 13.40498, 52.6856 ], [ 13.40441, 52.6854 ], [ 13.40416, 52.68542 ], [ 13.40373, 52.68566 ], [ 13.40311, 52.68558 ], [ 13.40297, 52.68592 ], [ 13.40219, 52.68563 ], [ 13.4021, 52.68545 ], [ 13.40142, 52.68526 ], [ 13.40102, 52.6852 ], [ 13.4011, 52.68533 ], [ 13.40257, 52.68624 ], [ 13.40652, 52.68544 ], [ 13.40693, 52.6854 ], [ 13.40738, 52.68544 ], [ 13.40801, 52.68572 ], [ 13.40823, 52.68589 ], [ 13.409, 52.68596 ], [ 13.41003, 52.68614 ], [ 13.41206, 52.68623 ], [ 13.41232, 52.68608 ], [ 13.4128, 52.68596 ], [ 13.41353, 52.68595 ], [ 13.41428, 52.68617 ], [ 13.41445, 52.6865 ], [ 13.41587, 52.68721 ], [ 13.41627, 52.68734 ], [ 13.41656, 52.6873 ], [ 13.41649, 52.68705 ], [ 13.41603, 52.68661 ], [ 13.41497, 52.68586 ], [ 13.41447, 52.68566 ] ], [ [ 13.40349, 52.68222 ], [ 13.40376, 52.68243 ], [ 13.40419, 52.68231 ], [ 13.40481, 52.68236 ], [ 13.40469, 52.68257 ], [ 13.40499, 52.68266 ], [ 13.40535, 52.68256 ], [ 13.40559, 52.68239 ], [ 13.4055, 52.68193 ], [ 13.4057, 52.68206 ], [ 13.40622, 52.68197 ], [ 13.40625, 52.68216 ], [ 13.40607, 52.68217 ], [ 13.40566, 52.68255 ], [ 13.40505, 52.68277 ], [ 13.40452, 52.68263 ], [ 13.40431, 52.68264 ], [ 13.40391, 52.68275 ], [ 13.40293, 52.68281 ], [ 13.40316, 52.68262 ], [ 13.40349, 52.68222 ] ], [ [ 13.41159, 52.68209 ], [ 13.41175, 52.68214 ], [ 13.41189, 52.68228 ], [ 13.41198, 52.68249 ], [ 13.41187, 52.6826 ], [ 13.41148, 52.6826 ], [ 13.41123, 52.68275 ], [ 13.41106, 52.68271 ], [ 13.41109, 52.68238 ], [ 13.41147, 52.68221 ], [ 13.41159, 52.68209 ] ], [ [ 13.41781, 52.67967 ], [ 13.41807, 52.67976 ], [ 13.41816, 52.68002 ], [ 13.41789, 52.68019 ], [ 13.41652, 52.68034 ], [ 13.41612, 52.68047 ], [ 13.41576, 52.68052 ], [ 13.41509, 52.68053 ], [ 13.41449, 52.68058 ], [ 13.41435, 52.68055 ], [ 13.41414, 52.68038 ], [ 13.41409, 52.68025 ], [ 13.41419, 52.68006 ], [ 13.41443, 52.67992 ], [ 13.41491, 52.67978 ], [ 13.41516, 52.67977 ], [ 13.41523, 52.6797 ], [ 13.41656, 52.67958 ], [ 13.41781, 52.67967 ] ], [ [ 13.40655, 52.67795 ], [ 13.40709, 52.67799 ], [ 13.40716, 52.67788 ], [ 13.40737, 52.67793 ], [ 13.40773, 52.67774 ], [ 13.40764, 52.67832 ], [ 13.40734, 52.67835 ], [ 13.40655, 52.67795 ] ], [ [ 13.40862, 52.67701 ], [ 13.40914, 52.67714 ], [ 13.40933, 52.67723 ], [ 13.40934, 52.67732 ], [ 13.4089, 52.67734 ], [ 13.40838, 52.67729 ], [ 13.40826, 52.67717 ], [ 13.40862, 52.67701 ] ] ] } },
{ "type": "Feature", "properties": { "boden": "100 % mittel, mäßig frisch (M2g)" }, "geometry": { "type": "Polygon", "coordinates": [ [ [ 13.42894, 52.68116 ], [ 13.42818, 52.68235 ], [ 13.42942, 52.68273 ], [ 13.43008, 52.68151 ], [ 13.42937, 52.68126 ], [ 13.42894, 52.68116 ] ] ] } },
{ "type": "Feature", "properties": { "boden": "100 % mittel, mäßig frisch (M2g)" }, "geometry": { "type": "Polygon", "coordinates": [ [ [ 13.43146, 52.682 ], [ 13.43186, 52.68238 ], [ 13.43245, 52.68317 ], [ 13.43251, 52.68315 ], [ 13.43246, 52.68258 ], [ 13.43213, 52.68224 ], [ 13.43146, 52.682 ] ] ] } },
{ "type": "Feature", "properties": { "boden": "100 % kräftig, nass (NK2)" }, "geometry": { "type": "Polygon", "coordinates": [ [ [ 13.45221, 52.68375 ], [ 13.45413, 52.68363 ], [ 13.45457, 52.68352 ], [ 13.45508, 52.68336 ], [ 13.45555, 52.683 ], [ 13.45208, 52.68258 ], [ 13.45188, 52.68178 ], [ 13.45032, 52.68168 ], [ 13.44957, 52.6815 ], [ 13.44947, 52.68189 ], [ 13.44937, 52.68195 ], [ 13.4486, 52.68486 ], [ 13.44929, 52.68434 ], [ 13.44983, 52.68383 ], [ 13.45027, 52.68356 ], [ 13.45067, 52.6835 ], [ 13.45098, 52.68353 ], [ 13.45147, 52.68366 ], [ 13.4521, 52.68371 ], [ 13.45221, 52.68375 ] ], [ [ 13.44984, 52.68358 ], [ 13.44978, 52.68368 ], [ 13.44958, 52.68373 ], [ 13.44939, 52.68368 ], [ 13.44934, 52.68358 ], [ 13.44943, 52.68346 ], [ 13.44959, 52.68343 ], [ 13.44975, 52.68347 ], [ 13.44984, 52.68358 ] ] ] } },
{ "type": "Feature", "properties": { "boden": "100 % kräftig, nass (NK2)" }, "geometry": { "type": "Polygon", "coordinates": [ [ [ 13.44959, 52.68343 ], [ 13.44943, 52.68346 ], [ 13.44934, 52.68358 ], [ 13.44939, 52.68368 ], [ 13.44958, 52.68373 ], [ 13.44978, 52.68368 ], [ 13.44984, 52.68358 ], [ 13.44975, 52.68347 ], [ 13.44959, 52.68343 ] ] ] } },
{ "type": "Feature", "properties": { "boden": "100 % mittel, trocken (vermutet) (M3)" }, "geometry": { "type": "Polygon", "coordinates": [ [ [ 13.40056, 52.68296 ], [ 13.40045, 52.68298 ], [ 13.40047, 52.68303 ], [ 13.40095, 52.68329 ], [ 13.40109, 52.68331 ], [ 13.40116, 52.68328 ], [ 13.40109, 52.68305 ], [ 13.40056, 52.68296 ] ] ] } },
{ "type": "Feature", "properties": { "boden": "100 % mittel, frisch (M1)" }, "geometry": { "type": "Polygon", "coordinates": [ [ [ 13.45831, 52.68341 ], [ 13.45555, 52.683 ], [ 13.45508, 52.68336 ], [ 13.45413, 52.68363 ], [ 13.45221, 52.68375 ], [ 13.45264, 52.68393 ], [ 13.45352, 52.68408 ], [ 13.45567, 52.68417 ], [ 13.45737, 52.68472 ], [ 13.4583, 52.68495 ], [ 13.45867, 52.6848 ], [ 13.45831, 52.68341 ] ] ] } },
{ "type": "Feature", "properties": { "boden": "60 % arm, trocken (vermutet) (A3) · 40 % ziemlich arm, trocken (vermutet) (Z3)" }, "geometry": { "type": "Polygon", "coordinates": [ [ [ 13.41216, 52.68334 ], [ 13.41195, 52.68338 ], [ 13.4121, 52.68355 ], [ 13.41239, 52.68357 ], [ 13.41253, 52.68354 ], [ 13.41251, 52.68341 ], [ 13.41216, 52.68334 ] ] ] } },
{ "type": "Feature", "properties": { "boden": "100 % mittel, nass (NM2)" }, "geometry": { "type": "Polygon", "coordinates": [ [ [ 13.47533, 52.68266 ], [ 13.4767, 52.68256 ], [ 13.47792, 52.68289 ], [ 13.48001, 52.68325 ], [ 13.4812, 52.68356 ], [ 13.48152, 52.68331 ], [ 13.48032, 52.68269 ], [ 13.47969, 52.68274 ], [ 13.47884, 52.68256 ], [ 13.47916, 52.68187 ], [ 13.47568, 52.68095 ], [ 13.47448, 52.68213 ], [ 13.47533, 52.68266 ] ], [ [ 13.47863, 52.68208 ], [ 13.47857, 52.68218 ], [ 13.47837, 52.68223 ], [ 13.47818, 52.68217 ], [ 13.47813, 52.68207 ], [ 13.47822, 52.68196 ], [ 13.47838, 52.68192 ], [ 13.47854, 52.68196 ], [ 13.47863, 52.68208 ] ], [ [ 13.47832, 52.68257 ], [ 13.47826, 52.68267 ], [ 13.47806, 52.68272 ], [ 13.4779, 52.68268 ], [ 13.47782, 52.68256 ], [ 13.47791, 52.68245 ], [ 13.47807, 52.68241 ], [ 13.47826, 52.68247 ], [ 13.47832, 52.68257 ] ] ] } },
{ "type": "Feature", "properties": { "boden": "100 % mittel, nass (NM2)" }, "geometry": { "type": "Polygon", "coordinates": [ [ [ 13.47807, 52.68241 ], [ 13.47791, 52.68245 ], [ 13.47782, 52.68256 ], [ 13.4779, 52.68268 ], [ 13.47806, 52.68272 ], [ 13.47826, 52.68267 ], [ 13.47832, 52.68257 ], [ 13.47826, 52.68247 ], [ 13.47807, 52.68241 ] ] ] } },
{ "type": "Feature", "properties": { "boden": "40 % ziemlich arm, mäßig frisch (Z2g) · 30 % arm, mäßig frisch (A2) · 30 % arm, mäßig frisch (A2)" }, "geometry": { "type": "Polygon", "coordinates": [ [ [ 13.49359, 52.68289 ], [ 13.49343, 52.68292 ], [ 13.49334, 52.68304 ], [ 13.49339, 52.68313 ], [ 13.49358, 52.68319 ], [ 13.49378, 52.68314 ], [ 13.49384, 52.68304 ], [ 13.49375, 52.68292 ], [ 13.49359, 52.68289 ] ] ] } },
{ "type": "Feature", "properties": { "boden": "40 % ziemlich arm, mäßig frisch (Z2g) · 30 % arm, mäßig frisch (A2) · 30 % arm, mäßig frisch (A2)" }, "geometry": { "type": "Polygon", "coordinates": [ [ [ 13.4926, 52.68295 ], [ 13.49243, 52.68299 ], [ 13.49234, 52.6831 ], [ 13.4924, 52.6832 ], [ 13.49259, 52.68326 ], [ 13.49278, 52.68321 ], [ 13.49284, 52.68311 ], [ 13.49276, 52.68299 ], [ 13.4926, 52.68295 ] ] ] } },
{ "type": "Feature", "properties": { "boden": "40 % ziemlich arm, mäßig frisch (Z2g) · 30 % arm, mäßig frisch (A2) · 30 % arm, mäßig frisch (A2)" }, "geometry": { "type": "Polygon", "coordinates": [ [ [ 13.49175, 52.68297 ], [ 13.49159, 52.68301 ], [ 13.49149, 52.68312 ], [ 13.49155, 52.68322 ], [ 13.49174, 52.68328 ], [ 13.4919, 52.68324 ], [ 13.492, 52.68313 ], [ 13.49191, 52.68301 ], [ 13.49175, 52.68297 ] ] ] } },
{ "type": "Feature", "properties": { "boden": "40 % ziemlich arm, mäßig frisch (Z2g) · 30 % arm, mäßig frisch (A2) · 30 % arm, mäßig frisch (A2)" }, "geometry": { "type": "Polygon", "coordinates": [ [ [ 13.49097, 52.68301 ], [ 13.4908, 52.68304 ], [ 13.49071, 52.68316 ], [ 13.49077, 52.68326 ], [ 13.49096, 52.68332 ], [ 13.49115, 52.68326 ], [ 13.49121, 52.68317 ], [ 13.49113, 52.68305 ], [ 13.49097, 52.68301 ] ] ] } },
{ "type": "Feature", "properties": { "boden": "40 % ziemlich arm, mäßig frisch (Z2g) · 30 % arm, trocken (vermutet) (A3) · 30 % ziemlich arm, trocken (vermutet) (Z3)" }, "geometry": { "type": "Polygon", "coordinates": [ [ [ 13.48651, 52.68329 ], [ 13.48698, 52.6833 ], [ 13.48707, 52.68324 ], [ 13.4869, 52.68308 ], [ 13.48667, 52.68301 ], [ 13.48636, 52.68295 ], [ 13.48604, 52.68303 ], [ 13.48598, 52.6832 ], [ 13.48603, 52.68333 ], [ 13.48616, 52.68335 ], [ 13.48651, 52.68329 ] ] ] } },
{ "type": "Feature", "properties": { "boden": "40 % ziemlich arm, mäßig frisch (Z2g) · 30 % arm, mäßig frisch (A2) · 30 % arm, mäßig frisch (A2)" }, "geometry": { "type": "Polygon", "coordinates": [ [ [ 13.49012, 52.6831 ], [ 13.48995, 52.68313 ], [ 13.48986, 52.68325 ], [ 13.48995, 52.68337 ], [ 13.49011, 52.6834 ], [ 13.4903, 52.68335 ], [ 13.49036, 52.68326 ], [ 13.49028, 52.68314 ], [ 13.49012, 52.6831 ] ] ] } },
{ "type": "Feature", "properties": { "boden": "40 % ziemlich arm, mäßig frisch (Z2g) · 30 % arm, mäßig frisch (A2) · 30 % arm, mäßig frisch (A2)" }, "geometry": { "type": "Polygon", "coordinates": [ [ [ 13.48806, 52.68329 ], [ 13.48793, 52.68334 ], [ 13.48786, 52.68344 ], [ 13.48794, 52.68374 ], [ 13.48881, 52.68361 ], [ 13.48887, 52.68349 ], [ 13.48881, 52.68341 ], [ 13.48859, 52.68334 ], [ 13.48806, 52.68329 ] ] ] } },
{ "type": "Feature", "properties": { "boden": "50 % ziemlich arm, mäßig frisch (Z2g) · 50 % ziemlich arm, mäßig frisch (Z2)" }, "geometry": { "type": "Polygon", "coordinates": [ [ [ 13.47884, 52.68477 ], [ 13.47899, 52.68469 ], [ 13.48134, 52.68455 ], [ 13.48275, 52.68421 ], [ 13.48292, 52.68413 ], [ 13.48294, 52.68403 ], [ 13.48182, 52.68395 ], [ 13.48162, 52.6841 ], [ 13.48146, 52.68414 ], [ 13.48071, 52.68419 ], [ 13.48061, 52.68401 ], [ 13.4812, 52.68356 ], [ 13.48001, 52.68325 ], [ 13.47792, 52.68289 ], [ 13.4767, 52.68256 ], [ 13.47533, 52.68266 ], [ 13.47448, 52.68213 ], [ 13.47342, 52.68338 ], [ 13.47329, 52.68318 ], [ 13.47237, 52.68351 ], [ 13.47258, 52.68366 ], [ 13.4717, 52.68394 ], [ 13.47107, 52.68397 ], [ 13.4705, 52.68407 ], [ 13.47042, 52.68417 ], [ 13.47328, 52.68409 ], [ 13.47573, 52.68462 ], [ 13.47626, 52.68478 ], [ 13.47748, 52.68505 ], [ 13.47876, 52.68497 ], [ 13.47884, 52.68477 ] ] ] } },
{ "type": "Feature", "properties": { "boden": "40 % ziemlich arm, mäßig frisch (Z2g) · 30 % arm, mäßig frisch (A2) · 30 % ziemlich arm, mäßig frisch (Z2)" }, "geometry": { "type": "Polygon", "coordinates": [ [ [ 13.49391, 52.68359 ], [ 13.49351, 52.68383 ], [ 13.49334, 52.68369 ], [ 13.49393, 52.68334 ], [ 13.49443, 52.68294 ], [ 13.49525, 52.68192 ], [ 13.49412, 52.68172 ], [ 13.49379, 52.68173 ], [ 13.49477, 52.68195 ], [ 13.49478, 52.68221 ], [ 13.49463, 52.68255 ], [ 13.49449, 52.6827 ], [ 13.49428, 52.68281 ], [ 13.49391, 52.68288 ], [ 13.49112, 52.68285 ], [ 13.49067, 52.68293 ], [ 13.49013, 52.6829 ], [ 13.49003, 52.68305 ], [ 13.48895, 52.68303 ], [ 13.4888, 52.68311 ], [ 13.48854, 52.68315 ], [ 13.48787, 52.68307 ], [ 13.48784, 52.68316 ], [ 13.48531, 52.68251 ], [ 13.4837, 52.68263 ], [ 13.48287, 52.68295 ], [ 13.48286, 52.68302 ], [ 13.48301, 52.68314 ], [ 13.48338, 52.68326 ], [ 13.48333, 52.6834 ], [ 13.48312, 52.68353 ], [ 13.4833, 52.68393 ], [ 13.48405, 52.68387 ], [ 13.48497, 52.68402 ], [ 13.48603, 52.68429 ], [ 13.48689, 52.68438 ], [ 13.48695, 52.68474 ], [ 13.48658, 52.68504 ], [ 13.48606, 52.68525 ], [ 13.48572, 52.68545 ], [ 13.48555, 52.68566 ], [ 13.48532, 52.68642 ], [ 13.48635, 52.68584 ], [ 13.48712, 52.68557 ], [ 13.4885, 52.68529 ], [ 13.49178, 52.68474 ], [ 13.49316, 52.68435 ], [ 13.49394, 52.68402 ], [ 13.49391, 52.68359 ] ], [ [ 13.48859, 52.68334 ], [ 13.48881, 52.68341 ], [ 13.48887, 52.68349 ], [ 13.48881, 52.68361 ], [ 13.48794, 52.68374 ], [ 13.48785, 52.68355 ], [ 13.48793, 52.68334 ], [ 13.48806, 52.68329 ], [ 13.48859, 52.68334 ] ], [ [ 13.48616, 52.68335 ], [ 13.48603, 52.68333 ], [ 13.48598, 52.6832 ], [ 13.48604, 52.68303 ], [ 13.48622, 52.68296 ], [ 13.48667, 52.68301 ], [ 13.4869, 52.68308 ], [ 13.48707, 52.68324 ], [ 13.48698, 52.6833 ], [ 13.48651, 52.68329 ], [ 13.48616, 52.68335 ] ], [ [ 13.49036, 52.68326 ], [ 13.4903, 52.68335 ], [ 13.49011, 52.6834 ], [ 13.48995, 52.68337 ], [ 13.48986, 52.68325 ], [ 13.48995, 52.68313 ], [ 13.49012, 52.6831 ], [ 13.49028, 52.68314 ], [ 13.49036, 52.68326 ] ], [ [ 13.49121, 52.68317 ], [ 13.49115, 52.68326 ], [ 13.49096, 52.68332 ], [ 13.49077, 52.68326 ], [ 13.49071, 52.68316 ], [ 13.4908, 52.68304 ], [ 13.49097, 52.68301 ], [ 13.49113, 52.68305 ], [ 13.49121, 52.68317 ] ], [ [ 13.492, 52.68313 ], [ 13.4919, 52.68324 ], [ 13.49174, 52.68328 ], [ 13.49155, 52.68322 ], [ 13.49149, 52.68312 ], [ 13.49159, 52.68301 ], [ 13.49175, 52.68297 ], [ 13.49191, 52.68301 ], [ 13.492, 52.68313 ] ], [ [ 13.49284, 52.68311 ], [ 13.49278, 52.68321 ], [ 13.49259, 52.68326 ], [ 13.4924, 52.6832 ], [ 13.49234, 52.6831 ], [ 13.49243, 52.68299 ], [ 13.4926, 52.68295 ], [ 13.49276, 52.68299 ], [ 13.49284, 52.68311 ] ], [ [ 13.49384, 52.68304 ], [ 13.49378, 52.68314 ], [ 13.49358, 52.68319 ], [ 13.49339, 52.68313 ], [ 13.49334, 52.68304 ], [ 13.49343, 52.68292 ], [ 13.49359, 52.68289 ], [ 13.49375, 52.68292 ], [ 13.49384, 52.68304 ] ] ] } },
{ "type": "Feature", "properties": { "boden": "100 % ziemlich arm, nass (NZ1)" }, "geometry": { "type": "Polygon", "coordinates": [ [ [ 13.48304, 52.684 ], [ 13.48296, 52.68412 ], [ 13.48302, 52.68422 ], [ 13.48321, 52.68428 ], [ 13.4834, 52.68422 ], [ 13.48346, 52.68413 ], [ 13.48341, 52.68403 ], [ 13.48321, 52.68397 ], [ 13.48304, 52.684 ] ] ] } },
{ "type": "Feature", "properties": { "boden": "100 % ziemlich arm, mäßig frisch (Z2g)" }, "geometry": { "type": "Polygon", "coordinates": [ [ [ 13.47328, 52.68409 ], [ 13.47042, 52.68417 ], [ 13.47062, 52.68462 ], [ 13.47138, 52.68445 ], [ 13.47133, 52.68426 ], [ 13.47181, 52.68423 ], [ 13.47182, 52.68444 ], [ 13.4724, 52.68449 ], [ 13.47302, 52.68471 ], [ 13.47327, 52.68489 ], [ 13.47388, 52.68489 ], [ 13.47542, 52.68479 ], [ 13.4754, 52.68455 ], [ 13.47328, 52.68409 ] ], [ [ 13.47315, 52.68449 ], [ 13.47309, 52.68459 ], [ 13.4729, 52.68464 ], [ 13.47271, 52.68458 ], [ 13.47265, 52.68448 ], [ 13.47275, 52.68437 ], [ 13.47291, 52.68434 ], [ 13.47307, 52.68437 ], [ 13.47315, 52.68449 ] ] ] } },
{ "type": "Feature", "properties": { "boden": "100 % ziemlich arm, mäßig frisch (Z2g)" }, "geometry": { "type": "Polygon", "coordinates": [ [ [ 13.47291, 52.68434 ], [ 13.47275, 52.68437 ], [ 13.47265, 52.68448 ], [ 13.47271, 52.68458 ], [ 13.4729, 52.68464 ], [ 13.47309, 52.68459 ], [ 13.47315, 52.68449 ], [ 13.47307, 52.68437 ], [ 13.47291, 52.68434 ] ] ] } },
{ "type": "Feature", "properties": { "boden": "100 % ziemlich arm, frisch (Z1)" }, "geometry": { "type": "Polygon", "coordinates": [ [ [ 13.48658, 52.68504 ], [ 13.48695, 52.68474 ], [ 13.48689, 52.68438 ], [ 13.48603, 52.68429 ], [ 13.48497, 52.68402 ], [ 13.48405, 52.68387 ], [ 13.48353, 52.68391 ], [ 13.4837, 52.68433 ], [ 13.48274, 52.68517 ], [ 13.48244, 52.68556 ], [ 13.48606, 52.68525 ], [ 13.48658, 52.68504 ] ] ] } },
{ "type": "Feature", "properties": { "boden": "100 % ziemlich arm, nass (NZ1)" }, "geometry": { "type": "Polygon", "coordinates": [ [ [ 13.48274, 52.68517 ], [ 13.4837, 52.68433 ], [ 13.48353, 52.68391 ], [ 13.48321, 52.68397 ], [ 13.48341, 52.68403 ], [ 13.48346, 52.68413 ], [ 13.4834, 52.68422 ], [ 13.48321, 52.68428 ], [ 13.48302, 52.68422 ], [ 13.48296, 52.68412 ], [ 13.48304, 52.684 ], [ 13.48294, 52.68403 ], [ 13.48292, 52.68413 ], [ 13.48275, 52.68421 ], [ 13.48134, 52.68455 ], [ 13.47899, 52.68469 ], [ 13.47884, 52.68477 ], [ 13.47876, 52.68497 ], [ 13.47972, 52.68506 ], [ 13.47981, 52.68494 ], [ 13.47998, 52.68491 ], [ 13.48017, 52.68496 ], [ 13.48022, 52.68506 ], [ 13.48017, 52.68514 ], [ 13.48073, 52.68533 ], [ 13.48124, 52.68565 ], [ 13.48244, 52.68556 ], [ 13.48274, 52.68517 ] ], [ [ 13.48114, 52.68497 ], [ 13.48104, 52.68508 ], [ 13.48088, 52.68512 ], [ 13.48069, 52.68506 ], [ 13.48064, 52.68496 ], [ 13.48073, 52.68484 ], [ 13.48089, 52.68481 ], [ 13.48105, 52.68485 ], [ 13.48114, 52.68497 ] ] ] } },
{ "type": "Feature", "properties": { "boden": "100 % ziemlich arm, nass (NZ1)" }, "geometry": { "type": "Polygon", "coordinates": [ [ [ 13.48089, 52.68481 ], [ 13.48073, 52.68484 ], [ 13.48064, 52.68496 ], [ 13.48069, 52.68506 ], [ 13.48088, 52.68512 ], [ 13.48104, 52.68508 ], [ 13.48114, 52.68497 ], [ 13.48105, 52.68485 ], [ 13.48089, 52.68481 ] ] ] } },
{ "type": "Feature", "properties": { "boden": "100 % ziemlich arm, nass (NZ1)" }, "geometry": { "type": "Polygon", "coordinates": [ [ [ 13.48017, 52.68514 ], [ 13.48022, 52.68506 ], [ 13.48017, 52.68496 ], [ 13.47998, 52.68491 ], [ 13.47981, 52.68494 ], [ 13.47972, 52.68506 ], [ 13.48017, 52.68514 ] ] ] } },
{ "type": "Feature", "properties": { "boden": "100 % mittel, frisch (M1)" }, "geometry": { "type": "Polygon", "coordinates": [ [ [ 13.46802, 52.68481 ], [ 13.46764, 52.68471 ], [ 13.46718, 52.68474 ], [ 13.46549, 52.68529 ], [ 13.46509, 52.68547 ], [ 13.46504, 52.68561 ], [ 13.4651, 52.68581 ], [ 13.46542, 52.68611 ], [ 13.46612, 52.68563 ], [ 13.46629, 52.68571 ], [ 13.4665, 52.68553 ], [ 13.46634, 52.68546 ], [ 13.46648, 52.68536 ], [ 13.46699, 52.68519 ], [ 13.46755, 52.68511 ], [ 13.46802, 52.68481 ] ] ] } },
{ "type": "Feature", "properties": { "boden": "100 % ziemlich arm, mäßig frisch (Z2g)" }, "geometry": { "type": "Polygon", "coordinates": [ [ [ 13.48425, 52.68553 ], [ 13.48409, 52.68556 ], [ 13.484, 52.68568 ], [ 13.48405, 52.68578 ], [ 13.48424, 52.68583 ], [ 13.48444, 52.68578 ], [ 13.4845, 52.68568 ], [ 13.48444, 52.68558 ], [ 13.48425, 52.68553 ] ] ] } },
{ "type": "Feature", "properties": { "boden": "100 % mittel, mäßig frisch (M2)" }, "geometry": { "type": "Polygon", "coordinates": [ [ [ 13.40232, 52.68304 ], [ 13.40319, 52.68186 ], [ 13.40318, 52.68156 ], [ 13.40281, 52.68173 ], [ 13.40227, 52.68188 ], [ 13.40139, 52.68185 ], [ 13.40089, 52.68171 ], [ 13.39811, 52.68191 ], [ 13.40083, 52.68487 ], [ 13.40102, 52.6852 ], [ 13.4013, 52.68526 ], [ 13.402, 52.68521 ], [ 13.40233, 52.68506 ], [ 13.40249, 52.6847 ], [ 13.40312, 52.68471 ], [ 13.40331, 52.68455 ], [ 13.40307, 52.68444 ], [ 13.40319, 52.6843 ], [ 13.40306, 52.68401 ], [ 13.40183, 52.6842 ], [ 13.40163, 52.6838 ], [ 13.40231, 52.68375 ], [ 13.40256, 52.68351 ], [ 13.40235, 52.68332 ], [ 13.40262, 52.68332 ], [ 13.40232, 52.68304 ] ], [ [ 13.40045, 52.68298 ], [ 13.40103, 52.68302 ], [ 13.40115, 52.68312 ], [ 13.40116, 52.68328 ], [ 13.40109, 52.68331 ], [ 13.40095, 52.68329 ], [ 13.40045, 52.68298 ] ] ] } },
{ "type": "Feature", "properties": { "boden": "100 % kräftig, nass (NK2)" }, "geometry": { "type": "Polygon", "coordinates": [ [ [ 13.4639, 52.68443 ], [ 13.46406, 52.68438 ], [ 13.46424, 52.68416 ], [ 13.46136, 52.68376 ], [ 13.45831, 52.68341 ], [ 13.45867, 52.6848 ], [ 13.45892, 52.68471 ], [ 13.45942, 52.68467 ], [ 13.45988, 52.68485 ], [ 13.46015, 52.6849 ], [ 13.46046, 52.68492 ], [ 13.46109, 52.68488 ], [ 13.46192, 52.68457 ], [ 13.46203, 52.68438 ], [ 13.4639, 52.68443 ] ] ] } },
{ "type": "Feature", "properties": { "boden": "50 % ziemlich arm, mäßig frisch (Z2g) · 50 % ziemlich arm, mäßig frisch (Z2g)" }, "geometry": { "type": "Polygon", "coordinates": [ [ [ 13.42416, 52.68455 ], [ 13.42358, 52.68335 ], [ 13.42314, 52.683 ], [ 13.42312, 52.68286 ], [ 13.42281, 52.68274 ], [ 13.4225, 52.68294 ], [ 13.41946, 52.68366 ], [ 13.41632, 52.68397 ], [ 13.41535, 52.68434 ], [ 13.41507, 52.68454 ], [ 13.415, 52.6847 ], [ 13.41502, 52.6848 ], [ 13.41543, 52.68507 ], [ 13.41594, 52.68518 ], [ 13.41749, 52.6851 ], [ 13.41807, 52.68512 ], [ 13.42008, 52.6853 ], [ 13.42162, 52.68555 ], [ 13.42184, 52.68533 ], [ 13.42229, 52.68513 ], [ 13.42278, 52.68505 ], [ 13.42319, 52.68507 ], [ 13.42436, 52.68542 ], [ 13.4248, 52.68543 ], [ 13.42495, 52.68532 ], [ 13.42499, 52.68514 ], [ 13.42466, 52.68478 ], [ 13.42416, 52.68455 ] ] ] } },
{ "type": "Feature", "properties": { "boden": "60 % arm, mäßig frisch (A2) · 40 % ziemlich arm, mäßig frisch (Z2)" }, "geometry": { "type": "Polygon", "coordinates": [ [ [ 13.41532, 52.68436 ], [ 13.41632, 52.68397 ], [ 13.41946, 52.68366 ], [ 13.41989, 52.68354 ], [ 13.42016, 52.68334 ], [ 13.4203, 52.68305 ], [ 13.42026, 52.68292 ], [ 13.42013, 52.68277 ], [ 13.41978, 52.68264 ], [ 13.41951, 52.68264 ], [ 13.41689, 52.68337 ], [ 13.41621, 52.6835 ], [ 13.41446, 52.6836 ], [ 13.41329, 52.68328 ], [ 13.41259, 52.68321 ], [ 13.41092, 52.68335 ], [ 13.41028, 52.68352 ], [ 13.41011, 52.68379 ], [ 13.41034, 52.6843 ], [ 13.41122, 52.68489 ], [ 13.41215, 52.68528 ], [ 13.41303, 52.68547 ], [ 13.4143, 52.68563 ], [ 13.41458, 52.68556 ], [ 13.41471, 52.68548 ], [ 13.41488, 52.6847 ], [ 13.41532, 52.68436 ] ], [ [ 13.41255, 52.68345 ], [ 13.41253, 52.68354 ], [ 13.41218, 52.68358 ], [ 13.41203, 52.68351 ], [ 13.41195, 52.68338 ], [ 13.41216, 52.68334 ], [ 13.41255, 52.68345 ] ] ] } },
{ "type": "Feature", "properties": { "boden": "100 % ziemlich arm, mäßig frisch (Z2g)" }, "geometry": { "type": "Polygon", "coordinates": [ [ [ 13.43259, 52.68481 ], [ 13.43186, 52.68437 ], [ 13.43102, 52.68403 ], [ 13.42779, 52.68299 ], [ 13.42528, 52.68225 ], [ 13.42521, 52.68231 ], [ 13.42526, 52.68265 ], [ 13.42549, 52.68323 ], [ 13.4257, 52.68356 ], [ 13.42675, 52.68445 ], [ 13.42748, 52.68496 ], [ 13.42781, 52.68488 ], [ 13.42865, 52.68481 ], [ 13.42933, 52.68481 ], [ 13.42997, 52.68487 ], [ 13.43033, 52.68494 ], [ 13.43084, 52.68516 ], [ 13.43113, 52.68539 ], [ 13.43136, 52.68585 ], [ 13.43246, 52.68636 ], [ 13.43325, 52.6866 ], [ 13.43352, 52.68656 ], [ 13.43365, 52.6865 ], [ 13.43377, 52.6863 ], [ 13.43368, 52.6861 ], [ 13.43338, 52.68584 ], [ 13.43267, 52.68552 ], [ 13.43259, 52.68481 ] ] ] } },
{ "type": "Feature", "properties": { "boden": "100 % mittel, mäßig frisch (M2g)" }, "geometry": { "type": "Polygon", "coordinates": [ [ [ 13.42499, 52.68514 ], [ 13.42495, 52.68532 ], [ 13.4248, 52.68543 ], [ 13.42461, 52.68544 ], [ 13.42436, 52.68542 ], [ 13.42319, 52.68507 ], [ 13.4225, 52.68507 ], [ 13.42184, 52.68533 ], [ 13.42162, 52.68555 ], [ 13.423, 52.68579 ], [ 13.42414, 52.68591 ], [ 13.42494, 52.68591 ], [ 13.42545, 52.68596 ], [ 13.42571, 52.68607 ], [ 13.42602, 52.68636 ], [ 13.42618, 52.6867 ], [ 13.42664, 52.68722 ], [ 13.42684, 52.68775 ], [ 13.42685, 52.688 ], [ 13.42748, 52.68769 ], [ 13.42789, 52.68738 ], [ 13.42819, 52.68699 ], [ 13.42732, 52.68561 ], [ 13.42729, 52.68527 ], [ 13.42737, 52.68504 ], [ 13.42748, 52.68496 ], [ 13.42675, 52.68445 ], [ 13.4257, 52.68356 ], [ 13.42549, 52.68323 ], [ 13.42526, 52.68265 ], [ 13.42521, 52.68231 ], [ 13.42528, 52.68225 ], [ 13.42779, 52.68299 ], [ 13.43102, 52.68403 ], [ 13.43186, 52.68437 ], [ 13.43259, 52.68481 ], [ 13.43249, 52.68411 ], [ 13.43257, 52.68395 ], [ 13.43246, 52.68392 ], [ 13.43244, 52.68367 ], [ 13.43223, 52.68327 ], [ 13.43143, 52.68229 ], [ 13.43094, 52.68182 ], [ 13.4304, 52.68162 ], [ 13.42973, 52.68287 ], [ 13.42531, 52.68153 ], [ 13.42476, 52.68156 ], [ 13.42464, 52.68116 ], [ 13.42399, 52.6812 ], [ 13.42406, 52.68163 ], [ 13.42126, 52.68182 ], [ 13.42117, 52.68131 ], [ 13.42085, 52.68123 ], [ 13.41991, 52.68116 ], [ 13.42008, 52.68096 ], [ 13.41977, 52.68086 ], [ 13.41908, 52.6815 ], [ 13.41878, 52.68198 ], [ 13.4186, 52.68207 ], [ 13.41729, 52.68327 ], [ 13.41951, 52.68264 ], [ 13.41978, 52.68264 ], [ 13.42013, 52.68277 ], [ 13.4203, 52.68305 ], [ 13.42016, 52.68334 ], [ 13.41989, 52.68354 ], [ 13.4225, 52.68294 ], [ 13.42281, 52.68274 ], [ 13.42312, 52.68286 ], [ 13.42314, 52.683 ], [ 13.42358, 52.68335 ], [ 13.42416, 52.68455 ], [ 13.42466, 52.68478 ], [ 13.42499, 52.68514 ] ], [ [ 13.42494, 52.68435 ], [ 13.42541, 52.68385 ], [ 13.42558, 52.68391 ], [ 13.42582, 52.68442 ], [ 13.42593, 52.68485 ], [ 13.4255, 52.68496 ], [ 13.42466, 52.68478 ], [ 13.42494, 52.68435 ] ] ] } },
{ "type": "Feature", "properties": { "boden": "100 % mittel, mäßig frisch (M2g)" }, "geometry": { "type": "Polygon", "coordinates": [ [ [ 13.44141, 52.68788 ], [ 13.44118, 52.68671 ], [ 13.44099, 52.68637 ], [ 13.44025, 52.68644 ], [ 13.43987, 52.68445 ], [ 13.43861, 52.68447 ], [ 13.43793, 52.68568 ], [ 13.43756, 52.68593 ], [ 13.43728, 52.68621 ], [ 13.43746, 52.68662 ], [ 13.43803, 52.68689 ], [ 13.43854, 52.68674 ], [ 13.43868, 52.68675 ], [ 13.43958, 52.68762 ], [ 13.43987, 52.68784 ], [ 13.44026, 52.68799 ], [ 13.44052, 52.68802 ], [ 13.44119, 52.68795 ], [ 13.44141, 52.68788 ] ] ] } },
{ "type": "Feature", "properties": { "boden": "60 % mittel, frisch (M1) · 40 % mittel, nass (NM2)" }, "geometry": { "type": "Polygon", "coordinates": [ [ [ 13.46272, 52.68809 ], [ 13.46263, 52.68742 ], [ 13.46245, 52.68743 ], [ 13.46236, 52.68691 ], [ 13.46255, 52.6869 ], [ 13.46217, 52.68505 ], [ 13.4635, 52.68498 ], [ 13.46368, 52.6849 ], [ 13.46359, 52.68443 ], [ 13.46286, 52.68438 ], [ 13.46203, 52.68438 ], [ 13.46192, 52.68457 ], [ 13.46109, 52.68488 ], [ 13.46046, 52.68492 ], [ 13.46015, 52.6849 ], [ 13.45988, 52.68485 ], [ 13.45942, 52.68467 ], [ 13.45892, 52.68471 ], [ 13.4583, 52.68495 ], [ 13.4585, 52.68571 ], [ 13.45868, 52.68583 ], [ 13.45998, 52.68622 ], [ 13.4608, 52.68666 ], [ 13.46104, 52.68706 ], [ 13.46109, 52.68775 ], [ 13.46128, 52.68794 ], [ 13.4614, 52.6883 ], [ 13.46158, 52.68847 ], [ 13.46236, 52.68844 ], [ 13.4626, 52.6887 ], [ 13.46299, 52.68863 ], [ 13.46322, 52.68889 ], [ 13.46332, 52.68878 ], [ 13.46272, 52.68809 ] ] ] } },
{ "type": "Feature", "properties": { "boden": "100 % mittel, mäßig frisch (M2g)" }, "geometry": { "type": "Polygon", "coordinates": [ [ [ 13.46299, 52.68863 ], [ 13.4626, 52.6887 ], [ 13.46204, 52.68896 ], [ 13.46174, 52.68862 ], [ 13.46236, 52.68844 ], [ 13.46158, 52.68847 ], [ 13.4614, 52.6883 ], [ 13.46128, 52.68794 ], [ 13.46109, 52.68775 ], [ 13.46104, 52.68706 ], [ 13.4608, 52.68666 ], [ 13.45998, 52.68622 ], [ 13.45868, 52.68583 ], [ 13.4585, 52.68571 ], [ 13.4583, 52.68495 ], [ 13.45737, 52.68472 ], [ 13.45567, 52.68417 ], [ 13.45352, 52.68408 ], [ 13.45264, 52.68393 ], [ 13.4521, 52.68371 ], [ 13.45147, 52.68366 ], [ 13.45098, 52.68353 ], [ 13.4505, 52.68351 ], [ 13.45027, 52.68356 ], [ 13.44997, 52.68372 ], [ 13.44929, 52.68434 ], [ 13.4486, 52.68486 ], [ 13.44834, 52.68549 ], [ 13.44922, 52.68558 ], [ 13.44996, 52.68575 ], [ 13.45031, 52.68575 ], [ 13.45069, 52.68591 ], [ 13.45107, 52.68591 ], [ 13.45131, 52.68642 ], [ 13.45229, 52.68672 ], [ 13.45362, 52.68701 ], [ 13.4543, 52.68732 ], [ 13.4544, 52.68742 ], [ 13.45434, 52.68764 ], [ 13.45426, 52.68771 ], [ 13.45384, 52.68774 ], [ 13.4539, 52.68795 ], [ 13.45481, 52.68829 ], [ 13.45662, 52.68861 ], [ 13.45674, 52.68867 ], [ 13.45696, 52.68972 ], [ 13.45956, 52.68956 ], [ 13.46085, 52.68962 ], [ 13.4627, 52.68981 ], [ 13.46368, 52.68985 ], [ 13.46441, 52.69006 ], [ 13.46417, 52.68992 ], [ 13.46299, 52.68863 ] ] ] } },
{ "type": "Feature", "properties": { "boden": "100 % mittel, nass (NM2)" }, "geometry": { "type": "Polygon", "coordinates": [ [ [ 13.46341, 52.68868 ], [ 13.46386, 52.68703 ], [ 13.46369, 52.68669 ], [ 13.46316, 52.686 ], [ 13.46303, 52.68544 ], [ 13.46306, 52.68528 ], [ 13.4635, 52.68498 ], [ 13.46217, 52.68505 ], [ 13.46255, 52.6869 ], [ 13.46368, 52.68683 ], [ 13.46375, 52.68735 ], [ 13.46263, 52.68742 ], [ 13.46272, 52.68809 ], [ 13.46332, 52.68878 ], [ 13.46341, 52.68868 ] ] ] } },
{ "type": "Feature", "properties": { "boden": "100 % ziemlich arm, mäßig frisch (Z2g)" }, "geometry": { "type": "Polygon", "coordinates": [ [ [ 13.43803, 52.68689 ], [ 13.43746, 52.68662 ], [ 13.43728, 52.68621 ], [ 13.43756, 52.68593 ], [ 13.43793, 52.68568 ], [ 13.43861, 52.68447 ], [ 13.43417, 52.68455 ], [ 13.43365, 52.68399 ], [ 13.43343, 52.68364 ], [ 13.43266, 52.68285 ], [ 13.43272, 52.68386 ], [ 13.43257, 52.68395 ], [ 13.43249, 52.68411 ], [ 13.43267, 52.68552 ], [ 13.43338, 52.68584 ], [ 13.43368, 52.6861 ], [ 13.43377, 52.6863 ], [ 13.43365, 52.6865 ], [ 13.43325, 52.6866 ], [ 13.43246, 52.68636 ], [ 13.43136, 52.68585 ], [ 13.43044, 52.68633 ], [ 13.43031, 52.68659 ], [ 13.43055, 52.68681 ], [ 13.43102, 52.68705 ], [ 13.43264, 52.68763 ], [ 13.43282, 52.68774 ], [ 13.43325, 52.68784 ], [ 13.43343, 52.68796 ], [ 13.43381, 52.68844 ], [ 13.43395, 52.689 ], [ 13.43448, 52.68953 ], [ 13.43459, 52.68981 ], [ 13.43461, 52.69041 ], [ 13.43477, 52.69005 ], [ 13.43499, 52.689 ], [ 13.43548, 52.68829 ], [ 13.43583, 52.68799 ], [ 13.43673, 52.68752 ], [ 13.43707, 52.68742 ], [ 13.43803, 52.68689 ] ] ] } },
{ "type": "Feature", "properties": { "boden": "100 % ziemlich arm, nass (NZ2)" }, "geometry": { "type": "Polygon", "coordinates": [ [ [ 13.45406, 52.68774 ], [ 13.45426, 52.68771 ], [ 13.45439, 52.68754 ], [ 13.4544, 52.68742 ], [ 13.4543, 52.68732 ], [ 13.45362, 52.68701 ], [ 13.45229, 52.68672 ], [ 13.45131, 52.68642 ], [ 13.45107, 52.68591 ], [ 13.45069, 52.68591 ], [ 13.45031, 52.68575 ], [ 13.44996, 52.68575 ], [ 13.44922, 52.68558 ], [ 13.44834, 52.68549 ], [ 13.44774, 52.68612 ], [ 13.44808, 52.68645 ], [ 13.44873, 52.68749 ], [ 13.44934, 52.68801 ], [ 13.44975, 52.68815 ], [ 13.45024, 52.68824 ], [ 13.45068, 52.68818 ], [ 13.45189, 52.68776 ], [ 13.45236, 52.6877 ], [ 13.45406, 52.68774 ] ] ] } },
{ "type": "Feature", "properties": { "boden": "100 % ziemlich arm, frisch (Z1)" }, "geometry": { "type": "Polygon", "coordinates": [ [ [ 13.4539, 52.68795 ], [ 13.45384, 52.68774 ], [ 13.45236, 52.6877 ], [ 13.45189, 52.68776 ], [ 13.45068, 52.68818 ], [ 13.45024, 52.68824 ], [ 13.44975, 52.68815 ], [ 13.44934, 52.68801 ], [ 13.44873, 52.68749 ], [ 13.44808, 52.68645 ], [ 13.44774, 52.68612 ], [ 13.44671, 52.68603 ], [ 13.4459, 52.68606 ], [ 13.44504, 52.68576 ], [ 13.44402, 52.68569 ], [ 13.44404, 52.68625 ], [ 13.44585, 52.68655 ], [ 13.4465, 52.68673 ], [ 13.44685, 52.68692 ], [ 13.44798, 52.68783 ], [ 13.44982, 52.68867 ], [ 13.45112, 52.68915 ], [ 13.45231, 52.68906 ], [ 13.45308, 52.68861 ], [ 13.4545, 52.68818 ], [ 13.4539, 52.68795 ] ] ] } },
{ "type": "Feature", "properties": { "boden": "60 % mittel, mäßig frisch (M2) · 40 % mittel, mäßig frisch (M2g)" }, "geometry": { "type": "Polygon", "coordinates": [ [ [ 13.41262, 52.68781 ], [ 13.41252, 52.68661 ], [ 13.41242, 52.68642 ], [ 13.41206, 52.68623 ], [ 13.41003, 52.68614 ], [ 13.409, 52.68596 ], [ 13.4084, 52.68593 ], [ 13.40823, 52.68589 ], [ 13.40801, 52.68572 ], [ 13.40738, 52.68544 ], [ 13.40693, 52.6854 ], [ 13.40652, 52.68544 ], [ 13.40257, 52.68624 ], [ 13.40283, 52.68639 ], [ 13.40395, 52.68777 ], [ 13.40478, 52.68746 ], [ 13.40582, 52.68731 ], [ 13.40686, 52.68736 ], [ 13.40717, 52.68748 ], [ 13.40722, 52.68785 ], [ 13.40653, 52.68847 ], [ 13.4065, 52.68869 ], [ 13.40722, 52.68843 ], [ 13.40737, 52.68827 ], [ 13.41236, 52.68792 ], [ 13.41262, 52.68781 ] ] ] } },
{ "type": "Feature", "properties": { "boden": "70 % ziemlich arm, mäßig frisch (Z2g) · 30 % ziemlich arm, mäßig frisch (Z2g)" }, "geometry": { "type": "Polygon", "coordinates": [ [ [ 13.43462, 52.69008 ], [ 13.43448, 52.68953 ], [ 13.43395, 52.689 ], [ 13.43381, 52.68844 ], [ 13.43343, 52.68796 ], [ 13.43325, 52.68784 ], [ 13.43282, 52.68774 ], [ 13.43264, 52.68763 ], [ 13.43102, 52.68705 ], [ 13.43038, 52.68668 ], [ 13.43031, 52.68659 ], [ 13.43044, 52.68633 ], [ 13.43136, 52.68585 ], [ 13.43123, 52.6855 ], [ 13.43084, 52.68516 ], [ 13.43033, 52.68494 ], [ 13.42997, 52.68487 ], [ 13.42933, 52.68481 ], [ 13.4282, 52.68484 ], [ 13.42781, 52.68488 ], [ 13.42748, 52.68496 ], [ 13.42737, 52.68504 ], [ 13.42729, 52.68527 ], [ 13.42732, 52.68561 ], [ 13.42819, 52.68699 ], [ 13.42789, 52.68738 ], [ 13.42748, 52.68769 ], [ 13.42685, 52.688 ], [ 13.42586, 52.68872 ], [ 13.42562, 52.68898 ], [ 13.42553, 52.68919 ], [ 13.4256, 52.68935 ], [ 13.42582, 52.68955 ], [ 13.42668, 52.68976 ], [ 13.42715, 52.68976 ], [ 13.42762, 52.6897 ], [ 13.42875, 52.68935 ], [ 13.42935, 52.68926 ], [ 13.4297, 52.68925 ], [ 13.4302, 52.6893 ], [ 13.43089, 52.68951 ], [ 13.43189, 52.69021 ], [ 13.43253, 52.69052 ], [ 13.4331, 52.69073 ], [ 13.43379, 52.69086 ], [ 13.43432, 52.69079 ], [ 13.43445, 52.69068 ], [ 13.43461, 52.69041 ], [ 13.43462, 52.69008 ] ], [ [ 13.42764, 52.6892 ], [ 13.42694, 52.68934 ], [ 13.42632, 52.6891 ], [ 13.42574, 52.68924 ], [ 13.426, 52.68893 ], [ 13.4265, 52.68869 ], [ 13.42693, 52.68871 ], [ 13.42809, 52.68895 ], [ 13.42764, 52.6892 ] ] ] } },
{ "type": "Feature", "properties": { "boden": "100 % mittel, mäßig frisch (M2g)" }, "geometry": { "type": "Polygon", "coordinates": [ [ [ 13.43255, 52.69053 ], [ 13.43189, 52.69021 ], [ 13.43089, 52.68951 ], [ 13.4302, 52.6893 ], [ 13.4297, 52.68925 ], [ 13.42935, 52.68926 ], [ 13.42875, 52.68935 ], [ 13.42762, 52.6897 ], [ 13.42715, 52.68976 ], [ 13.42668, 52.68976 ], [ 13.42582, 52.68955 ], [ 13.4256, 52.68935 ], [ 13.42553, 52.68919 ], [ 13.42562, 52.68898 ], [ 13.42586, 52.68872 ], [ 13.42685, 52.688 ], [ 13.42684, 52.68775 ], [ 13.42664, 52.68722 ], [ 13.42618, 52.6867 ], [ 13.42602, 52.68636 ], [ 13.42571, 52.68607 ], [ 13.42545, 52.68596 ], [ 13.42494, 52.68591 ], [ 13.42414, 52.68591 ], [ 13.423, 52.68579 ], [ 13.42095, 52.68543 ], [ 13.41948, 52.68523 ], [ 13.41749, 52.6851 ], [ 13.4167, 52.68515 ], [ 13.41791, 52.68531 ], [ 13.41886, 52.6857 ], [ 13.41901, 52.6858 ], [ 13.41948, 52.68633 ], [ 13.41996, 52.6873 ], [ 13.42025, 52.6877 ], [ 13.42067, 52.68806 ], [ 13.42127, 52.68846 ], [ 13.42402, 52.68973 ], [ 13.42519, 52.69003 ], [ 13.42629, 52.69023 ], [ 13.42769, 52.69041 ], [ 13.42946, 52.69037 ], [ 13.431, 52.69041 ], [ 13.43162, 52.69049 ], [ 13.43314, 52.69112 ], [ 13.4331, 52.69073 ], [ 13.43255, 52.69053 ] ] ] } },
{ "type": "Feature", "properties": { "boden": "100 % kräftig, nass (NK2)" }, "geometry": { "type": "Polygon", "coordinates": [ [ [ 13.46506, 52.6897 ], [ 13.46453, 52.68948 ], [ 13.46357, 52.68845 ], [ 13.46348, 52.68847 ], [ 13.46341, 52.68868 ], [ 13.46322, 52.68889 ], [ 13.46417, 52.68992 ], [ 13.46477, 52.69029 ], [ 13.46501, 52.69027 ], [ 13.46606, 52.68997 ], [ 13.46506, 52.6897 ] ] ] } },
{ "type": "Feature", "properties": { "boden": "100 % ziemlich arm, nass (NZ3)" }, "geometry": { "type": "Polygon", "coordinates": [ [ [ 13.42809, 52.68895 ], [ 13.42693, 52.68871 ], [ 13.4265, 52.68869 ], [ 13.426, 52.68893 ], [ 13.42574, 52.68924 ], [ 13.42632, 52.6891 ], [ 13.42694, 52.68934 ], [ 13.42764, 52.6892 ], [ 13.42809, 52.68895 ] ] ] } },
{ "type": "Feature", "properties": { "boden": "60 % ziemlich arm, frisch (Z1) · 40 % ziemlich arm, frisch (Z1)" }, "geometry": { "type": "Polygon", "coordinates": [ [ [ 13.45674, 52.68867 ], [ 13.45662, 52.68861 ], [ 13.45481, 52.68829 ], [ 13.4545, 52.68818 ], [ 13.45308, 52.68861 ], [ 13.45231, 52.68906 ], [ 13.45112, 52.68915 ], [ 13.45058, 52.68895 ], [ 13.45076, 52.68956 ], [ 13.45059, 52.69003 ], [ 13.45051, 52.69074 ], [ 13.45072, 52.69104 ], [ 13.45089, 52.69117 ], [ 13.45119, 52.69126 ], [ 13.45181, 52.69135 ], [ 13.45265, 52.69156 ], [ 13.45399, 52.69207 ], [ 13.45444, 52.69186 ], [ 13.45552, 52.69158 ], [ 13.45585, 52.69126 ], [ 13.45571, 52.69077 ], [ 13.45535, 52.69022 ], [ 13.45557, 52.69014 ], [ 13.45501, 52.68972 ], [ 13.45499, 52.68903 ], [ 13.45529, 52.68911 ], [ 13.45662, 52.68906 ], [ 13.45678, 52.68886 ], [ 13.45674, 52.68867 ] ] ] } },
{ "type": "Feature", "properties": { "boden": "100 % arm, nass (OA2)" }, "geometry": { "type": "Polygon", "coordinates": [ [ [ 13.4008, 52.69008 ], [ 13.40077, 52.68994 ], [ 13.40031, 52.68958 ], [ 13.39899, 52.6888 ], [ 13.39767, 52.68889 ], [ 13.39931, 52.68983 ], [ 13.39991, 52.69007 ], [ 13.40053, 52.69022 ], [ 13.4007, 52.69018 ], [ 13.4008, 52.69008 ] ] ] } },
{ "type": "Feature", "properties": { "boden": "100 % ziemlich arm, mäßig frisch (Z2g)" }, "geometry": { "type": "Polygon", "coordinates": [ [ [ 13.4806, 52.68568 ], [ 13.48044, 52.68571 ], [ 13.48034, 52.68583 ], [ 13.48043, 52.68595 ], [ 13.48059, 52.68598 ], [ 13.48079, 52.68593 ], [ 13.48085, 52.68583 ], [ 13.48076, 52.68572 ], [ 13.4806, 52.68568 ] ] ] } },
{ "type": "Feature", "properties": { "boden": "100 % ziemlich arm, mäßig frisch (Z2g)" }, "geometry": { "type": "Polygon", "coordinates": [ [ [ 13.48532, 52.68642 ], [ 13.48555, 52.68566 ], [ 13.48572, 52.68545 ], [ 13.48606, 52.68525 ], [ 13.48124, 52.68565 ], [ 13.48048, 52.68522 ], [ 13.47972, 52.68506 ], [ 13.47898, 52.68496 ], [ 13.47748, 52.68505 ], [ 13.47626, 52.68478 ], [ 13.47573, 52.68462 ], [ 13.47571, 52.68495 ], [ 13.47585, 52.68598 ], [ 13.47655, 52.68593 ], [ 13.47748, 52.68601 ], [ 13.47846, 52.68637 ], [ 13.47919, 52.68677 ], [ 13.47978, 52.68702 ], [ 13.48512, 52.68653 ], [ 13.48532, 52.68642 ] ], [ [ 13.47869, 52.68609 ], [ 13.47859, 52.68621 ], [ 13.47843, 52.68624 ], [ 13.47824, 52.68619 ], [ 13.47819, 52.68609 ], [ 13.47828, 52.68597 ], [ 13.47844, 52.68594 ], [ 13.4786, 52.68598 ], [ 13.47869, 52.68609 ] ], [ [ 13.48085, 52.68583 ], [ 13.48079, 52.68593 ], [ 13.48059, 52.68598 ], [ 13.48043, 52.68595 ], [ 13.48034, 52.68583 ], [ 13.48044, 52.68571 ], [ 13.4806, 52.68568 ], [ 13.48076, 52.68572 ], [ 13.48085, 52.68583 ] ], [ [ 13.4845, 52.68568 ], [ 13.48444, 52.68578 ], [ 13.48424, 52.68583 ], [ 13.48405, 52.68578 ], [ 13.484, 52.68568 ], [ 13.48409, 52.68556 ], [ 13.48425, 52.68553 ], [ 13.48444, 52.68558 ], [ 13.4845, 52.68568 ] ] ] } },
{ "type": "Feature", "properties": { "boden": "100 % ziemlich arm, mäßig frisch (Z2g)" }, "geometry": { "type": "Polygon", "coordinates": [ [ [ 13.47844, 52.68594 ], [ 13.47828, 52.68597 ], [ 13.47819, 52.68609 ], [ 13.47824, 52.68619 ], [ 13.47843, 52.68624 ], [ 13.47859, 52.68621 ], [ 13.47869, 52.68609 ], [ 13.4786, 52.68598 ], [ 13.47844, 52.68594 ] ] ] } },
{ "type": "Feature", "properties": { "boden": "100 % kräftig, nass (NK1)" }, "geometry": { "type": "Polygon", "coordinates": [ [ [ 13.46466, 52.68821 ], [ 13.46417, 52.68803 ], [ 13.46441, 52.68717 ], [ 13.46522, 52.68625 ], [ 13.46542, 52.68611 ], [ 13.4651, 52.68581 ], [ 13.46504, 52.68561 ], [ 13.46509, 52.68547 ], [ 13.46549, 52.68529 ], [ 13.46718, 52.68474 ], [ 13.46764, 52.68471 ], [ 13.46802, 52.68481 ], [ 13.46829, 52.68465 ], [ 13.46598, 52.68438 ], [ 13.46597, 52.6846 ], [ 13.46524, 52.6845 ], [ 13.4651, 52.68458 ], [ 13.46366, 52.68477 ], [ 13.46368, 52.6849 ], [ 13.46306, 52.68528 ], [ 13.46303, 52.68544 ], [ 13.46316, 52.686 ], [ 13.46369, 52.68669 ], [ 13.46386, 52.68703 ], [ 13.46348, 52.68847 ], [ 13.46466, 52.68821 ] ] ] } },
{ "type": "Feature", "properties": { "boden": "100 % mittel, nass (NM2)" }, "geometry": { "type": "Polygon", "coordinates": [ [ [ 13.47274, 52.68799 ], [ 13.47113, 52.68883 ], [ 13.47001, 52.68935 ], [ 13.46972, 52.69 ], [ 13.46939, 52.69021 ], [ 13.4691, 52.6903 ], [ 13.46843, 52.69039 ], [ 13.46698, 52.6904 ], [ 13.46646, 52.69024 ], [ 13.46619, 52.6901 ], [ 13.46606, 52.68997 ], [ 13.46501, 52.69027 ], [ 13.46477, 52.69029 ], [ 13.46546, 52.69065 ], [ 13.46711, 52.69092 ], [ 13.46775, 52.69098 ], [ 13.46846, 52.69098 ], [ 13.46931, 52.69085 ], [ 13.46966, 52.69064 ], [ 13.47043, 52.68956 ], [ 13.47296, 52.6882 ], [ 13.47274, 52.68799 ] ] ] } },
{ "type": "Feature", "properties": { "boden": "100 % mittel, nass (OM3)" }, "geometry": { "type": "Polygon", "coordinates": [ [ [ 13.46879, 52.68972 ], [ 13.46808, 52.6898 ], [ 13.46743, 52.68973 ], [ 13.46694, 52.68938 ], [ 13.46652, 52.68889 ], [ 13.46631, 52.68956 ], [ 13.46606, 52.68997 ], [ 13.46619, 52.6901 ], [ 13.46646, 52.69024 ], [ 13.46698, 52.6904 ], [ 13.4677, 52.69041 ], [ 13.46879, 52.69035 ], [ 13.46939, 52.69021 ], [ 13.46972, 52.69 ], [ 13.47001, 52.68935 ], [ 13.46879, 52.68972 ] ] ] } },
{ "type": "Feature", "properties": { "boden": "50 % ziemlich arm, mäßig frisch (Z2) · 50 % ziemlich arm, mäßig frisch (Z2)" }, "geometry": { "type": "Polygon", "coordinates": [ [ [ 13.49366, 52.68875 ], [ 13.49246, 52.68913 ], [ 13.49189, 52.68948 ], [ 13.49148, 52.68981 ], [ 13.49095, 52.69063 ], [ 13.49135, 52.69226 ], [ 13.49157, 52.69266 ], [ 13.49203, 52.6932 ], [ 13.49258, 52.69351 ], [ 13.49375, 52.69394 ], [ 13.49457, 52.69413 ], [ 13.49452, 52.69311 ], [ 13.49396, 52.69117 ], [ 13.49437, 52.6904 ], [ 13.49426, 52.68861 ], [ 13.49366, 52.68875 ] ] ] } },
{ "type": "Feature", "properties": { "boden": "100 % ziemlich arm, mäßig frisch (Z2)" }, "geometry": { "type": "Polygon", "coordinates": [ [ [ 13.49557, 52.69928 ], [ 13.49457, 52.69413 ], [ 13.49375, 52.69394 ], [ 13.49258, 52.69351 ], [ 13.49203, 52.6932 ], [ 13.49157, 52.69266 ], [ 13.49135, 52.69226 ], [ 13.49095, 52.69063 ], [ 13.49148, 52.68981 ], [ 13.49189, 52.68948 ], [ 13.49246, 52.68913 ], [ 13.4914, 52.6889 ], [ 13.48933, 52.68857 ], [ 13.48765, 52.68872 ], [ 13.48607, 52.68892 ], [ 13.48506, 52.68922 ], [ 13.48304, 52.68973 ], [ 13.48108, 52.69041 ], [ 13.47982, 52.69145 ], [ 13.47922, 52.69234 ], [ 13.47908, 52.69272 ], [ 13.47908, 52.69316 ], [ 13.47925, 52.69376 ], [ 13.47957, 52.69442 ], [ 13.47982, 52.69483 ], [ 13.48013, 52.69516 ], [ 13.48017, 52.69548 ], [ 13.48081, 52.69623 ], [ 13.48139, 52.69666 ], [ 13.48203, 52.69701 ], [ 13.48271, 52.69728 ], [ 13.48383, 52.6975 ], [ 13.48456, 52.69755 ], [ 13.48828, 52.69747 ], [ 13.48957, 52.69761 ], [ 13.4914, 52.698 ], [ 13.49397, 52.69868 ], [ 13.49427, 52.6989 ], [ 13.49427, 52.69959 ], [ 13.49418, 52.69983 ], [ 13.4947, 52.69974 ], [ 13.49557, 52.69928 ] ] ] } },
{ "type": "Feature", "properties": { "boden": "100 % ziemlich arm, trocken (vermutet) (Z3)" }, "geometry": { "type": "Polygon", "coordinates": [ [ [ 13.39777, 52.68907 ], [ 13.39749, 52.68903 ], [ 13.39753, 52.68912 ], [ 13.39805, 52.68962 ], [ 13.39801, 52.68993 ], [ 13.39806, 52.69001 ], [ 13.39839, 52.69007 ], [ 13.39882, 52.69003 ], [ 13.39889, 52.68987 ], [ 13.39838, 52.68948 ], [ 13.3982, 52.68925 ], [ 13.39777, 52.68907 ] ] ] } },
{ "type": "Feature", "properties": { "boden": "100 % ziemlich arm, mäßig frisch (Z2)" }, "geometry": { "type": "Polygon", "coordinates": [ [ [ 13.40015, 52.68949 ], [ 13.40046, 52.6897 ], [ 13.40117, 52.68986 ], [ 13.40137, 52.68981 ], [ 13.40134, 52.68969 ], [ 13.40125, 52.68962 ], [ 13.40094, 52.68951 ], [ 13.40015, 52.68949 ] ] ] } },
{ "type": "Feature", "properties": { "boden": "100 % ziemlich arm, mäßig frisch (Z2)" }, "geometry": { "type": "Polygon", "coordinates": [ [ [ 13.4043, 52.69123 ], [ 13.40392, 52.69122 ], [ 13.40381, 52.69108 ], [ 13.40387, 52.69102 ], [ 13.40422, 52.69093 ], [ 13.40445, 52.69077 ], [ 13.40458, 52.69075 ], [ 13.4054, 52.68954 ], [ 13.4065, 52.68869 ], [ 13.40653, 52.68847 ], [ 13.40722, 52.68785 ], [ 13.40717, 52.68748 ], [ 13.40686, 52.68736 ], [ 13.40582, 52.68731 ], [ 13.40478, 52.68746 ], [ 13.40395, 52.68777 ], [ 13.40449, 52.68843 ], [ 13.39899, 52.6888 ], [ 13.40015, 52.68949 ], [ 13.40094, 52.68951 ], [ 13.40134, 52.68969 ], [ 13.40137, 52.68981 ], [ 13.40117, 52.68986 ], [ 13.40046, 52.6897 ], [ 13.40077, 52.68994 ], [ 13.40072, 52.69032 ], [ 13.40055, 52.69053 ], [ 13.39985, 52.691 ], [ 13.39971, 52.69101 ], [ 13.3993, 52.69088 ], [ 13.39908, 52.69078 ], [ 13.39901, 52.69068 ], [ 13.39905, 52.69061 ], [ 13.39992, 52.6902 ], [ 13.40022, 52.69017 ], [ 13.39931, 52.68983 ], [ 13.39767, 52.68889 ], [ 13.39678, 52.68895 ], [ 13.39671, 52.68933 ], [ 13.39707, 52.6896 ], [ 13.39707, 52.68976 ], [ 13.39768, 52.69002 ], [ 13.39774, 52.68988 ], [ 13.39793, 52.68995 ], [ 13.39832, 52.69035 ], [ 13.39867, 52.69054 ], [ 13.39882, 52.69071 ], [ 13.39974, 52.69111 ], [ 13.39996, 52.6911 ], [ 13.40046, 52.69097 ], [ 13.40092, 52.69064 ], [ 13.40124, 52.69056 ], [ 13.40136, 52.69064 ], [ 13.40144, 52.69084 ], [ 13.40144, 52.69098 ], [ 13.40129, 52.69106 ], [ 13.40215, 52.69127 ], [ 13.40265, 52.69135 ], [ 13.40325, 52.69159 ], [ 13.40349, 52.6916 ], [ 13.40342, 52.69166 ], [ 13.40343, 52.6918 ], [ 13.40373, 52.69223 ], [ 13.40412, 52.69193 ], [ 13.40411, 52.69173 ], [ 13.4043, 52.69123 ] ], [ [ 13.40227, 52.69064 ], [ 13.40317, 52.69094 ], [ 13.40329, 52.69112 ], [ 13.40327, 52.6912 ], [ 13.40307, 52.69125 ], [ 13.40266, 52.69116 ], [ 13.40221, 52.69083 ], [ 13.4021, 52.69064 ], [ 13.40227, 52.69064 ] ], [ [ 13.39777, 52.68907 ], [ 13.3982, 52.68925 ], [ 13.39847, 52.68956 ], [ 13.39883, 52.6898 ], [ 13.39891, 52.68993 ], [ 13.39882, 52.69003 ], [ 13.39839, 52.69007 ], [ 13.39806, 52.69001 ], [ 13.39801, 52.68993 ], [ 13.39805, 52.68962 ], [ 13.39749, 52.68903 ], [ 13.39777, 52.68907 ] ] ] } },
{ "type": "Feature", "properties": { "boden": "100 % ziemlich arm, mäßig frisch (Z2g)" }, "geometry": { "type": "Polygon", "coordinates": [ [ [ 13.45491, 52.69454 ], [ 13.455, 52.69443 ], [ 13.45567, 52.69411 ], [ 13.45657, 52.69389 ], [ 13.45723, 52.69382 ], [ 13.45816, 52.69387 ], [ 13.45887, 52.69401 ], [ 13.45923, 52.69424 ], [ 13.45991, 52.69417 ], [ 13.46013, 52.6941 ], [ 13.46039, 52.6938 ], [ 13.45959, 52.69316 ], [ 13.45794, 52.69226 ], [ 13.45742, 52.69186 ], [ 13.45678, 52.68886 ], [ 13.45662, 52.68906 ], [ 13.45645, 52.68909 ], [ 13.45529, 52.68911 ], [ 13.45499, 52.68903 ], [ 13.45501, 52.68972 ], [ 13.45557, 52.69014 ], [ 13.45535, 52.69022 ], [ 13.45571, 52.69077 ], [ 13.45585, 52.69126 ], [ 13.45552, 52.69158 ], [ 13.45444, 52.69186 ], [ 13.45399, 52.69207 ], [ 13.45265, 52.69156 ], [ 13.45181, 52.69135 ], [ 13.45119, 52.69126 ], [ 13.45089, 52.69117 ], [ 13.45072, 52.69104 ], [ 13.45051, 52.69074 ], [ 13.45059, 52.69003 ], [ 13.45076, 52.68956 ], [ 13.45058, 52.68895 ], [ 13.44906, 52.68835 ], [ 13.44798, 52.68783 ], [ 13.44671, 52.68682 ], [ 13.44585, 52.68655 ], [ 13.44459, 52.68631 ], [ 13.44404, 52.68625 ], [ 13.44406, 52.68654 ], [ 13.44395, 52.68655 ], [ 13.444, 52.68801 ], [ 13.4417, 52.68778 ], [ 13.44192, 52.68858 ], [ 13.44208, 52.68976 ], [ 13.44179, 52.68978 ], [ 13.44141, 52.68788 ], [ 13.44119, 52.68795 ], [ 13.44052, 52.68802 ], [ 13.44003, 52.68792 ], [ 13.43958, 52.68762 ], [ 13.43881, 52.68684 ], [ 13.43868, 52.68675 ], [ 13.43854, 52.68674 ], [ 13.43817, 52.68682 ], [ 13.43782, 52.68697 ], [ 13.43753, 52.68719 ], [ 13.43707, 52.68742 ], [ 13.43673, 52.68752 ], [ 13.43583, 52.68799 ], [ 13.43548, 52.68829 ], [ 13.43499, 52.689 ], [ 13.43477, 52.69005 ], [ 13.43445, 52.69068 ], [ 13.43432, 52.69079 ], [ 13.43379, 52.69086 ], [ 13.4331, 52.69073 ], [ 13.43314, 52.69112 ], [ 13.43379, 52.69138 ], [ 13.43527, 52.69227 ], [ 13.43642, 52.69305 ], [ 13.43649, 52.69325 ], [ 13.43663, 52.69324 ], [ 13.43669, 52.69363 ], [ 13.43723, 52.69406 ], [ 13.43743, 52.69432 ], [ 13.43797, 52.69473 ], [ 13.43848, 52.69503 ], [ 13.43894, 52.69519 ], [ 13.43955, 52.69534 ], [ 13.44008, 52.6953 ], [ 13.44053, 52.6951 ], [ 13.44078, 52.69471 ], [ 13.44148, 52.6929 ], [ 13.44242, 52.69284 ], [ 13.4428, 52.69299 ], [ 13.44642, 52.69285 ], [ 13.44785, 52.69317 ], [ 13.45103, 52.69349 ], [ 13.45215, 52.69374 ], [ 13.45394, 52.69445 ], [ 13.45439, 52.69455 ], [ 13.45491, 52.69454 ] ] ] } },
{ "type": "Feature", "properties": { "boden": "100 % ziemlich arm, trocken (vermutet) (Z3)" }, "geometry": { "type": "Polygon", "coordinates": [ [ [ 13.40074, 52.69014 ], [ 13.40053, 52.69022 ], [ 13.40022, 52.69017 ], [ 13.39992, 52.6902 ], [ 13.39905, 52.69061 ], [ 13.39903, 52.69073 ], [ 13.3993, 52.69088 ], [ 13.39971, 52.69101 ], [ 13.39985, 52.691 ], [ 13.40055, 52.69053 ], [ 13.40072, 52.69032 ], [ 13.40074, 52.69014 ] ] ] } },
{ "type": "Feature", "properties": { "boden": "100 % ziemlich arm, trocken (vermutet) (Z3)" }, "geometry": { "type": "Polygon", "coordinates": [ [ [ 13.40216, 52.69063 ], [ 13.40209, 52.69068 ], [ 13.40221, 52.69083 ], [ 13.40266, 52.69116 ], [ 13.40307, 52.69125 ], [ 13.40327, 52.6912 ], [ 13.40329, 52.69112 ], [ 13.40317, 52.69094 ], [ 13.40216, 52.69063 ] ] ] } },
{ "type": "Feature", "properties": { "boden": "100 % ziemlich arm, mäßig frisch (Z2)" }, "geometry": { "type": "Polygon", "coordinates": [ [ [ 13.4043, 52.69123 ], [ 13.40458, 52.69075 ], [ 13.40445, 52.69077 ], [ 13.40422, 52.69093 ], [ 13.40387, 52.69102 ], [ 13.40381, 52.69108 ], [ 13.40392, 52.69122 ], [ 13.40411, 52.69125 ], [ 13.4043, 52.69123 ] ] ] } },
{ "type": "Feature", "properties": { "boden": "100 % ziemlich arm, mäßig frisch (Z2)" }, "geometry": { "type": "Polygon", "coordinates": [ [ [ 13.40373, 52.69222 ], [ 13.40343, 52.6918 ], [ 13.40342, 52.69166 ], [ 13.40349, 52.6916 ], [ 13.40325, 52.69159 ], [ 13.40265, 52.69135 ], [ 13.40215, 52.69127 ], [ 13.40129, 52.69106 ], [ 13.40144, 52.69098 ], [ 13.40144, 52.69084 ], [ 13.40136, 52.69064 ], [ 13.40124, 52.69056 ], [ 13.40092, 52.69064 ], [ 13.40046, 52.69097 ], [ 13.39996, 52.6911 ], [ 13.39974, 52.69111 ], [ 13.39882, 52.69071 ], [ 13.39867, 52.69054 ], [ 13.39832, 52.69035 ], [ 13.39793, 52.68995 ], [ 13.39771, 52.68989 ], [ 13.39768, 52.69002 ], [ 13.39847, 52.69065 ], [ 13.3991, 52.69102 ], [ 13.39966, 52.69128 ], [ 13.40015, 52.69132 ], [ 13.40083, 52.69125 ], [ 13.4017, 52.69133 ], [ 13.40195, 52.6914 ], [ 13.40225, 52.69156 ], [ 13.4029, 52.69169 ], [ 13.40329, 52.69187 ], [ 13.40346, 52.69201 ], [ 13.40352, 52.69215 ], [ 13.4037, 52.69225 ], [ 13.40373, 52.69222 ] ] ] } },
{ "type": "Feature", "properties": { "boden": "100 % ziemlich arm, mäßig frisch (Z2)" }, "geometry": { "type": "Polygon", "coordinates": [ [ [ 13.45104, 52.69582 ], [ 13.45097, 52.69535 ], [ 13.45082, 52.6952 ], [ 13.45059, 52.69515 ], [ 13.44913, 52.69517 ], [ 13.44862, 52.69528 ], [ 13.4486, 52.69563 ], [ 13.44872, 52.69571 ], [ 13.4496, 52.69573 ], [ 13.44999, 52.696 ], [ 13.45074, 52.69599 ], [ 13.45104, 52.69582 ] ] ] } },
{ "type": "Feature", "properties": { "boden": "100 % ziemlich arm, mäßig frisch (Z2)" }, "geometry": { "type": "MultiPolygon", "coordinates": [ [ [ [ 13.42653, 52.69944 ], [ 13.42691, 52.69893 ], [ 13.42729, 52.69855 ], [ 13.42816, 52.69821 ], [ 13.42843, 52.69803 ], [ 13.42974, 52.69784 ], [ 13.43007, 52.69772 ], [ 13.43309, 52.69749 ], [ 13.43379, 52.69727 ], [ 13.43405, 52.69692 ], [ 13.43368, 52.69351 ], [ 13.43649, 52.69325 ], [ 13.43642, 52.69305 ], [ 13.43527, 52.69227 ], [ 13.43379, 52.69138 ], [ 13.43162, 52.69049 ], [ 13.431, 52.69041 ], [ 13.42946, 52.69037 ], [ 13.42769, 52.69041 ], [ 13.42629, 52.69023 ], [ 13.42519, 52.69003 ], [ 13.42402, 52.68973 ], [ 13.42127, 52.68846 ], [ 13.42067, 52.68806 ], [ 13.42025, 52.6877 ], [ 13.41996, 52.6873 ], [ 13.41948, 52.68633 ], [ 13.41901, 52.6858 ], [ 13.41886, 52.6857 ], [ 13.41791, 52.68531 ], [ 13.4167, 52.68515 ], [ 13.41594, 52.68518 ], [ 13.41543, 52.68507 ], [ 13.41502, 52.6848 ], [ 13.41507, 52.68454 ], [ 13.41488, 52.6847 ], [ 13.41471, 52.68548 ], [ 13.41458, 52.68556 ], [ 13.4143, 52.68563 ], [ 13.41497, 52.68586 ], [ 13.41542, 52.68615 ], [ 13.41603, 52.68661 ], [ 13.41649, 52.68705 ], [ 13.41656, 52.6873 ], [ 13.41627, 52.68734 ], [ 13.41587, 52.68721 ], [ 13.41445, 52.6865 ], [ 13.41428, 52.68617 ], [ 13.41353, 52.68595 ], [ 13.4128, 52.68596 ], [ 13.41232, 52.68608 ], [ 13.41206, 52.68623 ], [ 13.41242, 52.68642 ], [ 13.41252, 52.68661 ], [ 13.41264, 52.68768 ], [ 13.41262, 52.68781 ], [ 13.41236, 52.68792 ], [ 13.41501, 52.68774 ], [ 13.41503, 52.68848 ], [ 13.416, 52.6917 ], [ 13.41587, 52.69183 ], [ 13.41579, 52.69213 ], [ 13.41569, 52.6929 ], [ 13.41512, 52.69416 ], [ 13.41452, 52.6948 ], [ 13.41464, 52.69489 ], [ 13.41367, 52.69601 ], [ 13.41383, 52.69601 ], [ 13.41442, 52.69617 ], [ 13.41515, 52.69625 ], [ 13.4156, 52.69636 ], [ 13.41573, 52.69635 ], [ 13.41611, 52.69612 ], [ 13.41648, 52.69612 ], [ 13.41718, 52.69634 ], [ 13.41774, 52.69645 ], [ 13.41785, 52.69657 ], [ 13.41837, 52.69668 ], [ 13.41887, 52.69694 ], [ 13.41931, 52.69701 ], [ 13.41995, 52.69721 ], [ 13.42037, 52.69721 ], [ 13.42075, 52.6973 ], [ 13.42096, 52.69743 ], [ 13.42097, 52.6975 ], [ 13.42084, 52.69761 ], [ 13.42097, 52.69808 ], [ 13.42067, 52.69846 ], [ 13.42077, 52.69856 ], [ 13.4208, 52.69884 ], [ 13.42072, 52.69907 ], [ 13.42024, 52.69937 ], [ 13.42653, 52.69944 ] ], [ [ 13.42154, 52.69811 ], [ 13.42152, 52.69828 ], [ 13.42138, 52.69834 ], [ 13.42118, 52.6982 ], [ 13.42119, 52.69807 ], [ 13.42138, 52.69803 ], [ 13.42154, 52.69811 ] ], [ [ 13.42496, 52.69648 ], [ 13.42493, 52.69616 ], [ 13.42506, 52.69605 ], [ 13.42521, 52.69606 ], [ 13.42531, 52.69614 ], [ 13.42532, 52.69639 ], [ 13.42543, 52.69643 ], [ 13.42552, 52.69655 ], [ 13.42543, 52.69666 ], [ 13.42526, 52.6967 ], [ 13.42507, 52.69664 ], [ 13.42496, 52.69648 ] ], [ [ 13.42737, 52.69627 ], [ 13.42731, 52.69637 ], [ 13.42712, 52.69642 ], [ 13.42693, 52.69636 ], [ 13.42687, 52.69627 ], [ 13.42696, 52.69615 ], [ 13.42713, 52.69612 ], [ 13.42732, 52.69617 ], [ 13.42737, 52.69627 ] ], [ [ 13.42388, 52.69527 ], [ 13.42398, 52.69543 ], [ 13.4239, 52.69552 ], [ 13.42359, 52.6954 ], [ 13.42352, 52.69527 ], [ 13.4237, 52.69523 ], [ 13.42388, 52.69527 ] ] ], [ [ [ 13.41955, 52.69936 ], [ 13.41997, 52.69893 ], [ 13.41992, 52.69869 ], [ 13.41968, 52.69855 ], [ 13.4192, 52.69851 ], [ 13.41894, 52.69857 ], [ 13.4186, 52.69876 ], [ 13.41789, 52.69934 ], [ 13.41955, 52.69936 ] ] ], [ [ [ 13.41724, 52.69933 ], [ 13.4174, 52.69877 ], [ 13.41758, 52.6986 ], [ 13.41855, 52.69798 ], [ 13.41852, 52.69781 ], [ 13.41835, 52.69793 ], [ 13.41807, 52.69787 ], [ 13.41797, 52.69782 ], [ 13.41793, 52.69773 ], [ 13.41842, 52.69768 ], [ 13.41821, 52.6976 ], [ 13.41738, 52.69762 ], [ 13.41711, 52.69757 ], [ 13.41619, 52.69718 ], [ 13.4153, 52.69744 ], [ 13.41449, 52.69731 ], [ 13.41331, 52.69699 ], [ 13.41305, 52.69672 ], [ 13.41302, 52.69663 ], [ 13.41311, 52.69654 ], [ 13.41199, 52.69755 ], [ 13.41212, 52.69758 ], [ 13.41221, 52.6977 ], [ 13.41215, 52.6978 ], [ 13.41195, 52.69785 ], [ 13.41176, 52.69779 ], [ 13.41174, 52.69766 ], [ 13.41126, 52.69778 ], [ 13.41052, 52.69776 ], [ 13.40937, 52.69735 ], [ 13.40877, 52.69748 ], [ 13.4088, 52.69922 ], [ 13.41223, 52.69927 ], [ 13.41221, 52.69923 ], [ 13.41232, 52.69921 ], [ 13.41276, 52.69915 ], [ 13.41293, 52.69893 ], [ 13.4131, 52.69884 ], [ 13.41323, 52.69883 ], [ 13.41349, 52.69891 ], [ 13.41358, 52.69899 ], [ 13.41359, 52.69911 ], [ 13.41349, 52.69928 ], [ 13.41724, 52.69933 ] ], [ [ 13.41547, 52.69865 ], [ 13.41551, 52.69888 ], [ 13.41541, 52.69903 ], [ 13.41522, 52.69913 ], [ 13.41506, 52.69914 ], [ 13.41489, 52.69902 ], [ 13.41487, 52.69878 ], [ 13.41529, 52.69862 ], [ 13.41547, 52.69865 ] ], [ [ 13.41256, 52.69867 ], [ 13.4125, 52.69862 ], [ 13.4126, 52.69849 ], [ 13.41329, 52.69806 ], [ 13.41343, 52.69817 ], [ 13.41413, 52.69805 ], [ 13.41433, 52.69812 ], [ 13.41398, 52.69831 ], [ 13.41359, 52.69834 ], [ 13.41345, 52.69847 ], [ 13.41256, 52.69867 ] ], [ [ 13.41692, 52.69778 ], [ 13.41696, 52.69797 ], [ 13.41688, 52.69811 ], [ 13.41679, 52.69814 ], [ 13.4165, 52.69811 ], [ 13.41647, 52.69805 ], [ 13.41665, 52.6978 ], [ 13.41682, 52.69772 ], [ 13.41692, 52.69778 ] ] ] ] } },
{ "type": "Feature", "properties": { "boden": "100 % ziemlich arm, mäßig frisch (Z2)" }, "geometry": { "type": "Polygon", "coordinates": [ [ [ 13.4237, 52.69523 ], [ 13.42352, 52.69527 ], [ 13.42354, 52.69534 ], [ 13.42372, 52.69548 ], [ 13.42396, 52.69551 ], [ 13.42398, 52.69543 ], [ 13.42388, 52.69527 ], [ 13.4237, 52.69523 ] ] ] } },
{ "type": "Feature", "properties": { "boden": "100 % ziemlich arm, mäßig frisch (Z2)" }, "geometry": { "type": "Polygon", "coordinates": [ [ [ 13.45413, 52.69642 ], [ 13.45397, 52.69645 ], [ 13.45387, 52.69657 ], [ 13.45393, 52.69667 ], [ 13.45412, 52.69672 ], [ 13.45432, 52.69667 ], [ 13.45438, 52.69657 ], [ 13.45432, 52.69647 ], [ 13.45413, 52.69642 ] ] ] } },
{ "type": "Feature", "properties": { "boden": "100 % ziemlich arm, mäßig frisch (Z2)" }, "geometry": { "type": "Polygon", "coordinates": [ [ [ 13.42713, 52.69612 ], [ 13.42696, 52.69615 ], [ 13.42687, 52.69627 ], [ 13.42693, 52.69636 ], [ 13.42712, 52.69642 ], [ 13.42731, 52.69637 ], [ 13.42737, 52.69627 ], [ 13.42732, 52.69617 ], [ 13.42713, 52.69612 ] ] ] } },
{ "type": "Feature", "properties": { "boden": "100 % ziemlich arm, mäßig frisch (Z2)" }, "geometry": { "type": "Polygon", "coordinates": [ [ [ 13.42532, 52.69639 ], [ 13.42529, 52.6961 ], [ 13.42506, 52.69605 ], [ 13.42493, 52.69616 ], [ 13.42496, 52.69648 ], [ 13.42502, 52.69653 ], [ 13.42511, 52.69642 ], [ 13.42532, 52.69639 ] ] ] } },
{ "type": "Feature", "properties": { "boden": "100 % ziemlich arm, mäßig frisch (Z2)" }, "geometry": { "type": "Polygon", "coordinates": [ [ [ 13.42527, 52.69639 ], [ 13.42511, 52.69642 ], [ 13.42502, 52.69654 ], [ 13.42507, 52.69664 ], [ 13.42526, 52.6967 ], [ 13.42543, 52.69666 ], [ 13.42552, 52.69655 ], [ 13.42543, 52.69643 ], [ 13.42527, 52.69639 ] ] ] } },
{ "type": "Feature", "properties": { "boden": "100 % ziemlich arm, mäßig frisch (Z2)" }, "geometry": { "type": "Polygon", "coordinates": [ [ [ 13.41526, 52.69676 ], [ 13.41426, 52.69657 ], [ 13.41348, 52.6962 ], [ 13.41325, 52.69641 ], [ 13.41343, 52.69645 ], [ 13.41364, 52.69672 ], [ 13.41421, 52.69699 ], [ 13.41513, 52.6971 ], [ 13.41586, 52.69703 ], [ 13.41526, 52.69676 ] ] ] } },
{ "type": "Feature", "properties": { "boden": "100 % ziemlich arm, mäßig frisch (Z2)" }, "geometry": { "type": "Polygon", "coordinates": [ [ [ 13.41365, 52.69602 ], [ 13.41462, 52.69635 ], [ 13.41496, 52.69626 ], [ 13.41534, 52.69653 ], [ 13.41556, 52.69657 ], [ 13.41576, 52.69658 ], [ 13.41603, 52.69648 ], [ 13.41615, 52.69631 ], [ 13.41632, 52.69631 ], [ 13.41831, 52.69691 ], [ 13.41877, 52.69716 ], [ 13.41953, 52.69726 ], [ 13.42052, 52.69729 ], [ 13.42079, 52.69743 ], [ 13.42084, 52.69761 ], [ 13.42097, 52.6975 ], [ 13.42088, 52.69737 ], [ 13.4206, 52.69724 ], [ 13.41995, 52.69721 ], [ 13.41931, 52.69701 ], [ 13.41887, 52.69694 ], [ 13.41837, 52.69668 ], [ 13.41785, 52.69657 ], [ 13.41774, 52.69645 ], [ 13.41718, 52.69634 ], [ 13.41648, 52.69612 ], [ 13.41611, 52.69612 ], [ 13.41573, 52.69635 ], [ 13.4156, 52.69636 ], [ 13.41515, 52.69625 ], [ 13.41442, 52.69617 ], [ 13.41383, 52.69601 ], [ 13.41365, 52.69602 ] ] ] } },
{ "type": "Feature", "properties": { "boden": "100 % ziemlich arm, mäßig frisch (Z2)" }, "geometry": { "type": "Polygon", "coordinates": [ [ [ 13.45412, 52.69729 ], [ 13.45396, 52.69732 ], [ 13.45387, 52.69744 ], [ 13.45392, 52.69754 ], [ 13.45411, 52.6976 ], [ 13.45431, 52.69754 ], [ 13.45437, 52.69745 ], [ 13.45428, 52.69733 ], [ 13.45412, 52.69729 ] ] ] } },
{ "type": "Feature", "properties": { "boden": "100 % ziemlich arm, trocken (vermutet) (Z3)" }, "geometry": { "type": "Polygon", "coordinates": [ [ [ 13.41586, 52.69703 ], [ 13.41513, 52.6971 ], [ 13.41421, 52.69699 ], [ 13.41364, 52.69672 ], [ 13.41343, 52.69645 ], [ 13.41331, 52.6964 ], [ 13.41302, 52.69663 ], [ 13.41319, 52.6969 ], [ 13.41344, 52.69705 ], [ 13.41407, 52.69718 ], [ 13.41449, 52.69731 ], [ 13.41516, 52.69743 ], [ 13.41554, 52.69739 ], [ 13.41619, 52.69718 ], [ 13.41586, 52.69703 ] ] ] } },
{ "type": "Feature", "properties": { "boden": "100 % ziemlich arm, mäßig frisch (Z2)" }, "geometry": { "type": "Polygon", "coordinates": [ [ [ 13.41199, 52.69755 ], [ 13.41171, 52.6977 ], [ 13.41176, 52.69779 ], [ 13.41195, 52.69785 ], [ 13.41215, 52.6978 ], [ 13.41221, 52.6977 ], [ 13.41212, 52.69758 ], [ 13.41199, 52.69755 ] ] ] } },
{ "type": "Feature", "properties": { "boden": "100 % ziemlich arm, trocken (vermutet) (Z3)" }, "geometry": { "type": "Polygon", "coordinates": [ [ [ 13.41851, 52.69777 ], [ 13.41843, 52.69769 ], [ 13.41826, 52.69767 ], [ 13.41798, 52.6977 ], [ 13.41792, 52.69775 ], [ 13.41807, 52.69787 ], [ 13.41835, 52.69793 ], [ 13.41849, 52.69785 ], [ 13.41851, 52.69777 ] ] ] } },
{ "type": "Feature", "properties": { "boden": "100 % ziemlich arm, trocken (vermutet) (Z3)" }, "geometry": { "type": "Polygon", "coordinates": [ [ [ 13.41682, 52.69772 ], [ 13.41665, 52.6978 ], [ 13.4165, 52.698 ], [ 13.41647, 52.69808 ], [ 13.41657, 52.69812 ], [ 13.41679, 52.69814 ], [ 13.41694, 52.69805 ], [ 13.41692, 52.69778 ], [ 13.41682, 52.69772 ] ] ] } },
{ "type": "Feature", "properties": { "boden": "60 % kräftig, nass (OK3) · 20 % kräftig, nass (NK2) · 20 % mittel, nass (NM2)" }, "geometry": { "type": "Polygon", "coordinates": [ [ [ 13.42079, 52.69743 ], [ 13.42052, 52.69729 ], [ 13.41953, 52.69726 ], [ 13.41877, 52.69716 ], [ 13.41831, 52.69691 ], [ 13.41632, 52.69631 ], [ 13.41615, 52.69631 ], [ 13.41603, 52.69648 ], [ 13.41576, 52.69658 ], [ 13.41534, 52.69653 ], [ 13.41496, 52.69626 ], [ 13.41462, 52.69635 ], [ 13.41365, 52.69602 ], [ 13.41348, 52.6962 ], [ 13.41426, 52.69657 ], [ 13.41526, 52.69676 ], [ 13.41711, 52.69757 ], [ 13.41738, 52.69762 ], [ 13.41821, 52.6976 ], [ 13.41842, 52.69768 ], [ 13.41851, 52.69777 ], [ 13.41855, 52.69798 ], [ 13.41758, 52.6986 ], [ 13.4174, 52.69877 ], [ 13.41724, 52.69933 ], [ 13.41789, 52.69934 ], [ 13.4186, 52.69876 ], [ 13.41894, 52.69857 ], [ 13.41948, 52.69851 ], [ 13.41968, 52.69855 ], [ 13.41992, 52.69869 ], [ 13.41997, 52.69893 ], [ 13.41955, 52.69936 ], [ 13.42024, 52.69937 ], [ 13.42072, 52.69907 ], [ 13.4208, 52.69884 ], [ 13.42077, 52.69856 ], [ 13.42067, 52.69846 ], [ 13.42097, 52.69808 ], [ 13.42079, 52.69743 ] ] ] } },
{ "type": "Feature", "properties": { "boden": "100 % ziemlich arm, trocken (vermutet) (Z3)" }, "geometry": { "type": "Polygon", "coordinates": [ [ [ 13.42138, 52.69803 ], [ 13.42119, 52.69807 ], [ 13.42116, 52.69814 ], [ 13.42125, 52.69829 ], [ 13.42144, 52.69834 ], [ 13.42152, 52.69828 ], [ 13.42154, 52.69811 ], [ 13.42138, 52.69803 ] ] ] } },
{ "type": "Feature", "properties": { "boden": "100 % ziemlich arm, mäßig frisch (Z2)" }, "geometry": { "type": "Polygon", "coordinates": [ [ [ 13.44345, 52.69968 ], [ 13.44396, 52.69899 ], [ 13.4442, 52.69874 ], [ 13.44473, 52.69843 ], [ 13.44509, 52.69828 ], [ 13.44583, 52.69808 ], [ 13.44665, 52.69797 ], [ 13.4484, 52.69792 ], [ 13.44924, 52.69796 ], [ 13.4512, 52.69792 ], [ 13.45238, 52.69794 ], [ 13.45506, 52.69824 ], [ 13.45439, 52.69455 ], [ 13.45394, 52.69445 ], [ 13.45215, 52.69374 ], [ 13.45103, 52.69349 ], [ 13.44785, 52.69317 ], [ 13.44642, 52.69285 ], [ 13.4428, 52.69299 ], [ 13.44242, 52.69284 ], [ 13.44148, 52.6929 ], [ 13.44078, 52.69471 ], [ 13.44053, 52.6951 ], [ 13.44008, 52.6953 ], [ 13.43955, 52.69534 ], [ 13.43894, 52.69519 ], [ 13.43848, 52.69503 ], [ 13.43797, 52.69473 ], [ 13.43743, 52.69432 ], [ 13.43723, 52.69406 ], [ 13.43669, 52.69363 ], [ 13.43663, 52.69324 ], [ 13.43385, 52.69347 ], [ 13.43368, 52.69351 ], [ 13.43405, 52.69692 ], [ 13.43379, 52.69727 ], [ 13.43309, 52.69749 ], [ 13.43007, 52.69772 ], [ 13.42974, 52.69784 ], [ 13.42843, 52.69803 ], [ 13.42816, 52.69821 ], [ 13.42729, 52.69855 ], [ 13.42691, 52.69893 ], [ 13.42652, 52.69946 ], [ 13.43785, 52.69961 ], [ 13.43906, 52.69952 ], [ 13.43916, 52.69954 ], [ 13.43922, 52.69963 ], [ 13.44345, 52.69968 ] ], [ [ 13.45437, 52.69745 ], [ 13.45431, 52.69754 ], [ 13.45411, 52.6976 ], [ 13.45392, 52.69754 ], [ 13.45387, 52.69744 ], [ 13.45396, 52.69732 ], [ 13.45412, 52.69729 ], [ 13.45428, 52.69733 ], [ 13.45437, 52.69745 ] ], [ [ 13.45438, 52.69657 ], [ 13.45432, 52.69667 ], [ 13.45412, 52.69672 ], [ 13.45393, 52.69667 ], [ 13.45387, 52.69657 ], [ 13.45397, 52.69645 ], [ 13.45413, 52.69642 ], [ 13.45432, 52.69647 ], [ 13.45438, 52.69657 ] ], [ [ 13.45074, 52.69599 ], [ 13.44999, 52.696 ], [ 13.4496, 52.69573 ], [ 13.44872, 52.69571 ], [ 13.4486, 52.69563 ], [ 13.44862, 52.69528 ], [ 13.44913, 52.69517 ], [ 13.45, 52.69514 ], [ 13.45059, 52.69515 ], [ 13.45082, 52.6952 ], [ 13.45097, 52.69535 ], [ 13.45104, 52.69582 ], [ 13.45074, 52.69599 ] ] ] } },
{ "type": "Feature", "properties": { "boden": "100 % ziemlich arm, trocken (vermutet) (Z3)" }, "geometry": { "type": "Polygon", "coordinates": [ [ [ 13.4154, 52.69862 ], [ 13.41497, 52.69871 ], [ 13.41487, 52.69878 ], [ 13.41489, 52.69902 ], [ 13.41506, 52.69914 ], [ 13.41522, 52.69913 ], [ 13.41541, 52.69903 ], [ 13.41551, 52.69888 ], [ 13.41551, 52.6987 ], [ 13.4154, 52.69862 ] ] ] } },
{ "type": "Feature", "properties": { "boden": "100 % ziemlich arm, trocken (vermutet) (Z3)" }, "geometry": { "type": "Polygon", "coordinates": [ [ [ 13.41323, 52.69883 ], [ 13.4131, 52.69884 ], [ 13.41293, 52.69893 ], [ 13.41276, 52.69915 ], [ 13.41232, 52.69921 ], [ 13.41221, 52.69923 ], [ 13.41223, 52.69927 ], [ 13.41349, 52.69928 ], [ 13.41359, 52.69911 ], [ 13.41358, 52.69899 ], [ 13.41349, 52.69891 ], [ 13.41323, 52.69883 ] ] ] } },
{ "type": "Feature", "properties": { "boden": "60 % ziemlich arm, mäßig frisch (Z2) · 20 % ziemlich arm, mäßig frisch (Z2) · 20 % ziemlich arm, mäßig frisch (Z2)" }, "geometry": { "type": "Polygon", "coordinates": [ [ [ 13.45506, 52.69824 ], [ 13.45238, 52.69794 ], [ 13.4512, 52.69792 ], [ 13.44924, 52.69796 ], [ 13.4484, 52.69792 ], [ 13.44715, 52.69794 ], [ 13.44583, 52.69808 ], [ 13.44509, 52.69828 ], [ 13.44473, 52.69843 ], [ 13.4442, 52.69874 ], [ 13.44345, 52.69968 ], [ 13.44534, 52.69971 ], [ 13.44533, 52.69953 ], [ 13.44501, 52.69953 ], [ 13.4449, 52.69919 ], [ 13.44548, 52.69916 ], [ 13.44552, 52.69971 ], [ 13.44951, 52.69976 ], [ 13.45126, 52.69961 ], [ 13.45363, 52.69953 ], [ 13.45368, 52.69981 ], [ 13.46033, 52.6999 ], [ 13.46013, 52.69958 ], [ 13.4597, 52.69927 ], [ 13.45936, 52.69912 ], [ 13.45826, 52.69879 ], [ 13.45636, 52.69851 ], [ 13.45506, 52.69824 ] ], [ [ 13.44463, 52.69963 ], [ 13.44403, 52.69967 ], [ 13.44399, 52.69925 ], [ 13.44465, 52.69921 ], [ 13.44463, 52.69963 ] ] ] } },
{ "type": "Feature", "properties": { "boden": "60 % ziemlich arm, mäßig frisch (Z2) · 40 % ziemlich arm, mäßig frisch (Z2)" }, "geometry": { "type": "Polygon", "coordinates": [ [ [ 13.49557, 52.69928 ], [ 13.4947, 52.69974 ], [ 13.49418, 52.69983 ], [ 13.49367, 52.69999 ], [ 13.49361, 52.70033 ], [ 13.49576, 52.70036 ], [ 13.49557, 52.69928 ] ] ] } },
{ "type": "Feature", "properties": { "boden": "100 % mittel, mäßig frisch (M2)" }, "geometry": { "type": "Polygon", "coordinates": [ [ [ 13.49367, 52.69999 ], [ 13.49418, 52.69983 ], [ 13.49427, 52.69959 ], [ 13.49427, 52.6989 ], [ 13.49397, 52.69868 ], [ 13.4914, 52.698 ], [ 13.48957, 52.69761 ], [ 13.48828, 52.69747 ], [ 13.48456, 52.69755 ], [ 13.48383, 52.6975 ], [ 13.48271, 52.69728 ], [ 13.48203, 52.69701 ], [ 13.48139, 52.69666 ], [ 13.48081, 52.69623 ], [ 13.48017, 52.69548 ], [ 13.48013, 52.69516 ], [ 13.47982, 52.69483 ], [ 13.47925, 52.69376 ], [ 13.47908, 52.69316 ], [ 13.47908, 52.69272 ], [ 13.47922, 52.69234 ], [ 13.47982, 52.69145 ], [ 13.48108, 52.69041 ], [ 13.48304, 52.68973 ], [ 13.48506, 52.68922 ], [ 13.48607, 52.68892 ], [ 13.48765, 52.68872 ], [ 13.48933, 52.68857 ], [ 13.4914, 52.6889 ], [ 13.49246, 52.68913 ], [ 13.49366, 52.68875 ], [ 13.49426, 52.68861 ], [ 13.49394, 52.68402 ], [ 13.49316, 52.68435 ], [ 13.49178, 52.68474 ], [ 13.4885, 52.68529 ], [ 13.48712, 52.68557 ], [ 13.48635, 52.68584 ], [ 13.48512, 52.68653 ], [ 13.47978, 52.68702 ], [ 13.47919, 52.68677 ], [ 13.47846, 52.68637 ], [ 13.47748, 52.68601 ], [ 13.47655, 52.68593 ], [ 13.47585, 52.68598 ], [ 13.47638, 52.68876 ], [ 13.47587, 52.68873 ], [ 13.47559, 52.68879 ], [ 13.47547, 52.68932 ], [ 13.47543, 52.68941 ], [ 13.4753, 52.68941 ], [ 13.47339, 52.6886 ], [ 13.47296, 52.6882 ], [ 13.47043, 52.68956 ], [ 13.46966, 52.69064 ], [ 13.46931, 52.69085 ], [ 13.46904, 52.69092 ], [ 13.46846, 52.69098 ], [ 13.46775, 52.69098 ], [ 13.46603, 52.69077 ], [ 13.46546, 52.69065 ], [ 13.46492, 52.69039 ], [ 13.46441, 52.69006 ], [ 13.46368, 52.68985 ], [ 13.4627, 52.68981 ], [ 13.46085, 52.68962 ], [ 13.45956, 52.68956 ], [ 13.45696, 52.68972 ], [ 13.45742, 52.69186 ], [ 13.45794, 52.69226 ], [ 13.45959, 52.69316 ], [ 13.46039, 52.6938 ], [ 13.46013, 52.6941 ], [ 13.45991, 52.69417 ], [ 13.45923, 52.69424 ], [ 13.45887, 52.69401 ], [ 13.45816, 52.69387 ], [ 13.45723, 52.69382 ], [ 13.45657, 52.69389 ], [ 13.45567, 52.69411 ], [ 13.455, 52.69443 ], [ 13.45491, 52.69454 ], [ 13.45439, 52.69455 ], [ 13.45506, 52.69824 ], [ 13.45636, 52.69851 ], [ 13.45783, 52.6987 ], [ 13.45936, 52.69912 ], [ 13.4597, 52.69927 ], [ 13.46013, 52.69958 ], [ 13.46033, 52.6999 ], [ 13.49361, 52.70033 ], [ 13.49367, 52.69999 ] ] ] } },
{ "type": "Feature", "properties": { "boden": "60 % ziemlich arm, mäßig frisch (Z2) · 40 % ziemlich arm, mäßig frisch (Z2)" }, "geometry": { "type": "Polygon", "coordinates": [ [ [ 13.52004, 52.69889 ], [ 13.51975, 52.69957 ], [ 13.51932, 52.70065 ], [ 13.52009, 52.70066 ], [ 13.52015, 52.69891 ], [ 13.52004, 52.69889 ] ] ] } }
]
}
