{"type":"FeatureCollection","features":[{"type":"Feature","properties":{"art":"pfad"},"geometry":{"type":"LineString","coordinates":[[13.48492,52.9642],[13.48363,52.96417],[13.48351,52.96421]]}},{"type":"Feature","properties":{"art":"pfad"},"geometry":{"type":"LineString","coordinates":[[13.48335,52.96426],[13.48332,52.96427],[13.48331,52.96428]]}},{"type":"Feature","properties":{"art":"pfad"},"geometry":{"type":"LineString","coordinates":[[13.48125,52.96522],[13.48076,52.96538]]}},{"type":"Feature","properties":{"art":"pfad"},"geometry":{"type":"LineString","coordinates":[[13.47763,52.9665],[13.47751,52.96655],[13.47664,52.96684],[13.4759,52.96715]]}},{"type":"Feature","properties":{"art":"pfad"},"geometry":{"type":"LineString","coordinates":[[13.48755,52.96574],[13.48783,52.96533]]}},{"type":"Feature","properties":{"art":"strasse"},"geometry":{"type":"LineString","coordinates":[[13.48508,52.96481],[13.48492,52.9642],[13.48461,52.96303],[13.48442,52.96244],[13.48431,52.96214],[13.48424,52.96197],[13.48392,52.96113],[13.48388,52.96035],[13.48424,52.95973],[13.48467,52.95938],[13.48509,52.95899],[13.48521,52.95888],[13.48598,52.9584],[13.48748,52.95754],[13.48805,52.95717],[13.48855,52.95681],[13.48874,52.95655],[13.48885,52.95639],[13.48886,52.95604]]}},{"type":"Feature","properties":{"art":"weg"},"geometry":{"type":"LineString","coordinates":[[13.49243,52.9676],[13.49274,52.96711],[13.49309,52.96659],[13.49327,52.96624],[13.49325,52.96621],[13.4932,52.96613],[13.49299,52.96606],[13.49282,52.96599],[13.49233,52.96562],[13.49107,52.96502],[13.49021,52.96469],[13.48973,52.96458],[13.48892,52.96446],[13.48852,52.96439],[13.48772,52.96424],[13.48693,52.96394],[13.4862,52.9635],[13.48541,52.96282],[13.48431,52.96214]]}},{"type":"Feature","properties":{"art":"weg"},"geometry":{"type":"LineString","coordinates":[[13.49689,52.96875],[13.49647,52.96847],[13.49618,52.96823],[13.49566,52.9678],[13.49484,52.96697],[13.49459,52.96674],[13.49401,52.96644],[13.49325,52.96621]]}},{"type":"Feature","properties":{"art":"weg"},"geometry":{"type":"LineString","coordinates":[[13.49767,52.96902],[13.49806,52.96897],[13.49858,52.96884],[13.49909,52.96871],[13.4993,52.9686],[13.49963,52.96836],[13.49989,52.96828],[13.50015,52.96817],[13.50029,52.96808],[13.50029,52.96807]]}},{"type":"Feature","properties":{"art":"weg"},"geometry":{"type":"LineString","coordinates":[[13.50036,52.96794],[13.50036,52.96794],[13.50048,52.96772],[13.50064,52.96752],[13.50116,52.96746],[13.50194,52.96744],[13.5029,52.96739],[13.50336,52.96738],[13.50376,52.96722],[13.50426,52.96699],[13.50442,52.96683],[13.50483,52.96683],[13.50557,52.96672],[13.50588,52.96669]]}},{"type":"Feature","properties":{"art":"weg"},"geometry":{"type":"LineString","coordinates":[[13.49757,52.96903],[13.49767,52.96902]]}},{"type":"Feature","properties":{"art":"pfad"},"geometry":{"type":"LineString","coordinates":[[13.49632,52.96908],[13.49741,52.96897]]}},{"type":"Feature","properties":{"art":"weg"},"geometry":{"type":"LineString","coordinates":[[13.51545,52.98405],[13.51632,52.98426],[13.5172,52.98677],[13.51766,52.98733],[13.51799,52.9875],[13.5187,52.98773],[13.51974,52.98812]]}},{"type":"Feature","properties":{"art":"weg"},"geometry":{"type":"LineString","coordinates":[[13.50918,52.95912],[13.5099,52.96214],[13.51088,52.96627],[13.51154,52.96901],[13.51281,52.97437],[13.51351,52.97509]]}},{"type":"Feature","properties":{"art":"pfad"},"geometry":{"type":"LineString","coordinates":[[13.51154,52.96901],[13.51315,52.96878],[13.51483,52.96862],[13.51597,52.96854],[13.51799,52.96836],[13.51834,52.96829],[13.51857,52.96822],[13.5187,52.9682]]}},{"type":"Feature","properties":{"art":"weg"},"geometry":{"type":"LineString","coordinates":[[13.51476,52.97939],[13.51358,52.97513],[13.51351,52.97509],[13.51335,52.975],[13.51242,52.97461],[13.50031,52.97006],[13.49741,52.96897],[13.49725,52.96891],[13.49689,52.96875]]}},{"type":"Feature","properties":{"art":"pfad"},"geometry":{"type":"LineString","coordinates":[[13.51397,52.97928],[13.5141,52.97932],[13.51447,52.97939],[13.51476,52.97939]]}},{"type":"Feature","properties":{"art":"weg"},"geometry":{"type":"LineString","coordinates":[[13.52063,52.98846],[13.5206,52.98844],[13.52043,52.98837],[13.52023,52.98833],[13.52011,52.98834],[13.51981,52.98836],[13.5196,52.98837],[13.51915,52.98842],[13.51845,52.98849],[13.51768,52.98851],[13.51734,52.98853],[13.51702,52.98854],[13.51684,52.98855]]}}]}