{"type":"FeatureCollection","features":[{"type":"Feature","properties":{"art":"pfad"},"geometry":{"type":"LineString","coordinates":[[13.46978,52.88518],[13.47167,52.88551],[13.47173,52.88552]]}},{"type":"Feature","properties":{"art":"strasse"},"geometry":{"type":"LineString","coordinates":[[13.46982,52.88514],[13.47081,52.88531]]}},{"type":"Feature","properties":{"art":"weg"},"geometry":{"type":"LineString","coordinates":[[13.47016,52.88619],[13.47006,52.88572],[13.47034,52.88565]]}},{"type":"Feature","properties":{"art":"strasse"},"geometry":{"type":"LineString","coordinates":[[13.47016,52.88619],[13.47152,52.88588]]}},{"type":"Feature","properties":{"art":"strasse"},"geometry":{"type":"LineString","coordinates":[[13.47016,52.88619],[13.46969,52.88625]]}},{"type":"Feature","properties":{"art":"strasse"},"geometry":{"type":"LineString","coordinates":[[13.47136,52.88622],[13.47166,52.88627]]}},{"type":"Feature","properties":{"art":"strasse"},"geometry":{"type":"LineString","coordinates":[[13.47102,52.88687],[13.46936,52.88654],[13.46916,52.88655],[13.46906,52.88678]]}},{"type":"Feature","properties":{"art":"strasse"},"geometry":{"type":"LineString","coordinates":[[13.47168,52.88694],[13.47174,52.88679],[13.47173,52.88675],[13.47175,52.88671],[13.4718,52.88668]]}},{"type":"Feature","properties":{"art":"strasse"},"geometry":{"type":"LineString","coordinates":[[13.47102,52.88687],[13.47163,52.88697]]}},{"type":"Feature","properties":{"art":"strasse"},"geometry":{"type":"LineString","coordinates":[[13.46717,52.88741],[13.46717,52.88724]]}},{"type":"Feature","properties":{"art":"strasse"},"geometry":{"type":"LineString","coordinates":[[13.46397,52.88764],[13.46423,52.88758],[13.46486,52.88748],[13.46556,52.88741],[13.46717,52.88741],[13.46759,52.88747],[13.46816,52.88751],[13.46969,52.8876],[13.47016,52.88763]]}},{"type":"Feature","properties":{"art":"strasse"},"geometry":{"type":"LineString","coordinates":[[13.47169,52.88547],[13.47167,52.88551],[13.47152,52.88588],[13.47136,52.88622],[13.47102,52.88687],[13.4709,52.88723]]}},{"type":"Feature","properties":{"art":"strasse"},"geometry":{"type":"LineString","coordinates":[[13.46759,52.88747],[13.46782,52.88845],[13.46784,52.88878]]}},{"type":"Feature","properties":{"art":"strasse"},"geometry":{"type":"LineString","coordinates":[[13.5116,52.86614],[13.50403,52.86807],[13.49787,52.8696],[13.49541,52.87021],[13.49376,52.87062],[13.49237,52.87097],[13.49203,52.87107],[13.4917,52.87116],[13.49138,52.87126],[13.49106,52.87137],[13.49076,52.87148],[13.49041,52.87161],[13.49001,52.87179],[13.48972,52.87193],[13.48944,52.87207],[13.48904,52.87228],[13.48851,52.87259],[13.48799,52.87289],[13.48773,52.87304],[13.48747,52.87319],[13.48733,52.87326],[13.48719,52.87333],[13.48691,52.87346],[13.48662,52.8736],[13.48633,52.87372],[13.48603,52.87384],[13.48572,52.87396],[13.48541,52.87406],[13.48508,52.87417],[13.48492,52.87421],[13.48476,52.87426],[13.48459,52.8743],[13.48443,52.87435],[13.48409,52.87443],[13.48376,52.87451],[13.48341,52.87458],[13.48307,52.87465],[13.48187,52.8749],[13.48154,52.87497],[13.48018,52.87529],[13.47923,52.87551],[13.4777,52.87587],[13.47655,52.87614],[13.4761,52.87624],[13.47565,52.87634],[13.47513,52.87645],[13.47478,52.87651],[13.47425,52.8766],[13.47374,52.87669],[13.4732,52.87679]]}},{"type":"Feature","properties":{"art":"strasse"},"geometry":{"type":"LineString","coordinates":[[13.4734,52.88585],[13.47342,52.88582],[13.47344,52.88577]]}},{"type":"Feature","properties":{"art":"strasse"},"geometry":{"type":"LineString","coordinates":[[13.47375,52.88592],[13.47377,52.88588],[13.47379,52.88583]]}},{"type":"Feature","properties":{"art":"strasse"},"geometry":{"type":"LineString","coordinates":[[13.47418,52.88599],[13.4742,52.88595],[13.47422,52.8859]]}},{"type":"Feature","properties":{"art":"strasse"},"geometry":{"type":"LineString","coordinates":[[13.47081,52.88531],[13.47169,52.88547],[13.47344,52.88577],[13.47379,52.88583],[13.47422,52.8859],[13.47534,52.8861],[13.47645,52.88627],[13.47713,52.88638],[13.47787,52.8865],[13.47834,52.88658],[13.47837,52.88659],[13.47986,52.88685],[13.4803,52.88693],[13.48266,52.88739],[13.48287,52.88743],[13.4837,52.88759],[13.4842,52.88769]]}},{"type":"Feature","properties":{"art":"strasse"},"geometry":{"type":"LineString","coordinates":[[13.47645,52.88627],[13.47644,52.88633],[13.47637,52.88672]]}},{"type":"Feature","properties":{"art":"strasse"},"geometry":{"type":"LineString","coordinates":[[13.47713,52.88638],[13.4771,52.88644],[13.47703,52.8865],[13.47704,52.88669]]}},{"type":"Feature","properties":{"art":"pfad"},"geometry":{"type":"LineString","coordinates":[[13.47173,52.88552],[13.47342,52.88582],[13.47377,52.88588],[13.4742,52.88595],[13.47532,52.88614],[13.47644,52.88633],[13.4771,52.88644],[13.47835,52.88665],[13.47983,52.8869],[13.48262,52.88744],[13.48411,52.88773],[13.48416,52.88774]]}},{"type":"Feature","properties":{"art":"strasse"},"geometry":{"type":"LineString","coordinates":[[13.47837,52.88659],[13.47835,52.88665],[13.47834,52.88667],[13.47832,52.88689]]}},{"type":"Feature","properties":{"art":"weg"},"geometry":{"type":"LineString","coordinates":[[13.48929,52.88869],[13.48947,52.88861],[13.48991,52.8885],[13.49025,52.88835],[13.49076,52.88795],[13.49319,52.88526],[13.49397,52.88473],[13.49527,52.88374],[13.49619,52.88272],[13.49682,52.88217],[13.49805,52.88136],[13.49884,52.88075],[13.49932,52.88049],[13.50083,52.87984],[13.50333,52.87749],[13.50638,52.87477],[13.50692,52.87428],[13.50776,52.87344],[13.50819,52.87269],[13.50844,52.87116],[13.50856,52.87085],[13.50889,52.87054],[13.51084,52.86923],[13.51129,52.86873],[13.51154,52.86807],[13.5116,52.86614]]}},{"type":"Feature","properties":{"art":"strasse"},"geometry":{"type":"LineString","coordinates":[[13.48287,52.88743],[13.48332,52.88659]]}},{"type":"Feature","properties":{"art":"strasse"},"geometry":{"type":"LineString","coordinates":[[13.4837,52.88759],[13.48413,52.88683]]}},{"type":"Feature","properties":{"art":"strasse"},"geometry":{"type":"LineString","coordinates":[[13.4842,52.88769],[13.48451,52.88774]]}},{"type":"Feature","properties":{"art":"strasse"},"geometry":{"type":"LineString","coordinates":[[13.4842,52.88769],[13.48418,52.88771],[13.48416,52.88774]]}},{"type":"Feature","properties":{"art":"strasse"},"geometry":{"type":"LineString","coordinates":[[13.48451,52.88774],[13.4877,52.88835],[13.48804,52.88842],[13.48836,52.8885]]}},{"type":"Feature","properties":{"art":"weg"},"geometry":{"type":"LineString","coordinates":[[13.48908,52.88876],[13.48929,52.88869]]}},{"type":"Feature","properties":{"art":"pfad"},"geometry":{"type":"LineString","coordinates":[[13.4842,52.88769],[13.48421,52.88766],[13.48425,52.88764],[13.48427,52.88764],[13.4885,52.88842],[13.48929,52.88869],[13.49066,52.88936],[13.49111,52.88955],[13.49116,52.88959],[13.49125,52.88972],[13.49187,52.89003]]}},{"type":"Feature","properties":{"art":"strasse"},"geometry":{"type":"LineString","coordinates":[[13.48734,52.89011],[13.48746,52.8899],[13.48767,52.88952],[13.4878,52.88941],[13.48797,52.8893],[13.48908,52.88876]]}},{"type":"Feature","properties":{"art":"strasse"},"geometry":{"type":"LineString","coordinates":[[13.49232,52.88995],[13.49207,52.88983]]}},{"type":"Feature","properties":{"art":"strasse"},"geometry":{"type":"LineString","coordinates":[[13.47534,52.8861],[13.47532,52.88614],[13.4752,52.88652]]}},{"type":"Feature","properties":{"art":"strasse"},"geometry":{"type":"LineString","coordinates":[[13.47986,52.88685],[13.47983,52.8869],[13.47967,52.88722],[13.47963,52.8873]]}},{"type":"Feature","properties":{"art":"strasse"},"geometry":{"type":"LineString","coordinates":[[13.47935,52.88727],[13.47939,52.88719],[13.47967,52.88722]]}},{"type":"Feature","properties":{"art":"strasse"},"geometry":{"type":"LineString","coordinates":[[13.48416,52.88774],[13.48336,52.88928],[13.48261,52.88922]]}},{"type":"Feature","properties":{"art":"strasse"},"geometry":{"type":"LineString","coordinates":[[13.4918,52.89007],[13.49187,52.89003],[13.49208,52.89001],[13.49232,52.88995],[13.49246,52.88991],[13.49256,52.88985]]}},{"type":"Feature","properties":{"art":"strasse"},"geometry":{"type":"LineString","coordinates":[[13.48725,52.89022],[13.48734,52.89011]]}},{"type":"Feature","properties":{"art":"pfad"},"geometry":{"type":"LineString","coordinates":[[13.49187,52.89003],[13.49272,52.89045]]}},{"type":"Feature","properties":{"art":"strasse"},"geometry":{"type":"LineString","coordinates":[[13.48836,52.8885],[13.48881,52.88865],[13.48908,52.88876],[13.48988,52.88912],[13.4918,52.89007],[13.4927,52.8905]]}},{"type":"Feature","properties":{"art":"strasse"},"geometry":{"type":"LineString","coordinates":[[13.49288,52.89059],[13.49341,52.89085],[13.49374,52.891],[13.49504,52.89163],[13.49623,52.89221]]}},{"type":"Feature","properties":{"art":"weg"},"geometry":{"type":"LineString","coordinates":[[13.48685,52.89052],[13.48713,52.8906],[13.48751,52.89071],[13.48805,52.8909],[13.48851,52.89107],[13.48888,52.89127],[13.48927,52.89141],[13.48969,52.89149],[13.49007,52.89153],[13.491,52.89142],[13.49164,52.89137]]}},{"type":"Feature","properties":{"art":"strasse"},"geometry":{"type":"LineString","coordinates":[[13.49117,52.89174],[13.49164,52.89137],[13.49192,52.89118],[13.49199,52.89113]]}},{"type":"Feature","properties":{"art":"strasse"},"geometry":{"type":"LineString","coordinates":[[13.49332,52.89129],[13.49374,52.891]]}},{"type":"Feature","properties":{"art":"strasse"},"geometry":{"type":"LineString","coordinates":[[13.48462,52.89133],[13.48458,52.8913],[13.48437,52.89105]]}},{"type":"Feature","properties":{"art":"pfad"},"geometry":{"type":"LineString","coordinates":[[13.49272,52.89045],[13.49283,52.8905],[13.49289,52.89053]]}},{"type":"Feature","properties":{"art":"pfad"},"geometry":{"type":"LineString","coordinates":[[13.49292,52.89054],[13.49324,52.8907],[13.49348,52.89081],[13.49513,52.89155],[13.49576,52.89187],[13.4963,52.89219]]}},{"type":"Feature","properties":{"art":"strasse"},"geometry":{"type":"LineString","coordinates":[[13.49215,52.89136],[13.49192,52.89118]]}},{"type":"Feature","properties":{"art":"pfad"},"geometry":{"type":"LineString","coordinates":[[13.47518,52.89223],[13.47923,52.89259],[13.47969,52.89267],[13.48031,52.89279]]}},{"type":"Feature","properties":{"art":"pfad"},"geometry":{"type":"LineString","coordinates":[[13.47947,52.89219],[13.47923,52.89259]]}},{"type":"Feature","properties":{"art":"weg"},"geometry":{"type":"LineString","coordinates":[[13.47774,52.89424],[13.47816,52.89388],[13.47858,52.89369],[13.47979,52.89306],[13.48031,52.89279]]}},{"type":"Feature","properties":{"art":"pfad"},"geometry":{"type":"LineString","coordinates":[[13.47774,52.89424],[13.47768,52.89436],[13.47758,52.89448],[13.47753,52.89456],[13.47751,52.89465],[13.47751,52.89473]]}},{"type":"Feature","properties":{"art":"pfad"},"geometry":{"type":"LineString","coordinates":[[13.52094,52.88588],[13.52078,52.88588],[13.52057,52.88589],[13.5193,52.886],[13.51803,52.88606],[13.51671,52.88613],[13.51484,52.88625],[13.51416,52.88635],[13.51392,52.88635],[13.51348,52.88621],[13.51312,52.88618],[13.51258,52.88627],[13.51229,52.88636],[13.51181,52.88638],[13.51136,52.88635],[13.51089,52.8863],[13.51057,52.88629],[13.50979,52.88639],[13.5085,52.8866],[13.50701,52.88696],[13.50594,52.88717],[13.50384,52.88741],[13.5034,52.8875],[13.50246,52.88771],[13.50184,52.88789],[13.50122,52.88823],[13.5006,52.8885],[13.50004,52.88867],[13.49927,52.88885],[13.49857,52.88891],[13.49798,52.889],[13.49696,52.88933],[13.4957,52.88973],[13.49484,52.89015],[13.49429,52.89045],[13.49384,52.89061],[13.49348,52.89081],[13.49341,52.89085]]}},{"type":"Feature","properties":{"art":"pfad"},"geometry":{"type":"LineString","coordinates":[[13.51371,52.88995],[13.51326,52.88996],[13.51239,52.89002],[13.51129,52.89031],[13.51014,52.89061],[13.50983,52.89072],[13.50887,52.8907],[13.50727,52.89062],[13.50669,52.89057],[13.50623,52.89046],[13.506,52.89036],[13.50594,52.89012],[13.50569,52.88976],[13.50557,52.88967],[13.50513,52.88954],[13.5043,52.88939],[13.50405,52.88934],[13.50354,52.88934],[13.50282,52.88934],[13.50205,52.88939],[13.50159,52.88937],[13.50114,52.88945],[13.50082,52.88946],[13.50012,52.88936],[13.49966,52.88929],[13.499,52.88924],[13.49855,52.88923],[13.49806,52.88932],[13.49711,52.88959],[13.49608,52.88989],[13.49592,52.88994],[13.49578,52.89006],[13.49564,52.8901],[13.49539,52.89013],[13.49519,52.89009],[13.49484,52.89015]]}},{"type":"Feature","properties":{"art":"weg"},"geometry":{"type":"LineString","coordinates":[[13.50315,52.89545],[13.50326,52.89514]]}},{"type":"Feature","properties":{"art":"weg"},"geometry":{"type":"LineString","coordinates":[[13.50312,52.89557],[13.50315,52.89545]]}},{"type":"Feature","properties":{"art":"strasse"},"geometry":{"type":"LineString","coordinates":[[13.50672,52.89737],[13.50676,52.89733]]}},{"type":"Feature","properties":{"art":"strasse"},"geometry":{"type":"LineString","coordinates":[[13.49995,52.89403],[13.50312,52.89557],[13.50519,52.89657],[13.50676,52.89733],[13.50721,52.89754],[13.50736,52.89761],[13.50954,52.8986],[13.5107,52.89914]]}},{"type":"Feature","properties":{"art":"strasse"},"geometry":{"type":"LineString","coordinates":[[13.51111,52.89933],[13.5125,52.89997],[13.51261,52.90002]]}},{"type":"Feature","properties":{"art":"strasse"},"geometry":{"type":"LineString","coordinates":[[13.51324,52.90031],[13.51445,52.90087],[13.51484,52.90101],[13.51512,52.9011],[13.51554,52.9012],[13.51584,52.90125]]}},{"type":"Feature","properties":{"art":"strasse"},"geometry":{"type":"LineString","coordinates":[[13.50154,52.89829],[13.50312,52.89557]]}},{"type":"Feature","properties":{"art":"strasse"},"geometry":{"type":"LineString","coordinates":[[13.50945,52.89867],[13.50954,52.8986]]}},{"type":"Feature","properties":{"art":"pfad"},"geometry":{"type":"LineString","coordinates":[[13.50315,52.89545],[13.50779,52.89766],[13.50813,52.89782],[13.50836,52.89791],[13.50859,52.89804],[13.51073,52.89904]]}},{"type":"Feature","properties":{"art":"pfad"},"geometry":{"type":"LineString","coordinates":[[13.51124,52.89927],[13.51234,52.89979],[13.51241,52.89983],[13.51264,52.89994]]}},{"type":"Feature","properties":{"art":"pfad"},"geometry":{"type":"LineString","coordinates":[[13.51335,52.90027],[13.51442,52.90076],[13.51478,52.90091],[13.51512,52.90102],[13.51557,52.90112],[13.51586,52.90117]]}},{"type":"Feature","properties":{"art":"pfad"},"geometry":{"type":"LineString","coordinates":[[13.5125,52.89997],[13.51208,52.90027],[13.51159,52.90076]]}},{"type":"Feature","properties":{"art":"weg"},"geometry":{"type":"LineString","coordinates":[[13.49651,52.89215],[13.4968,52.89205],[13.49707,52.89198],[13.49738,52.8919],[13.49783,52.89182],[13.49949,52.89155],[13.50076,52.89136],[13.50094,52.89133],[13.50155,52.89122],[13.50187,52.89118],[13.50212,52.89119],[13.50252,52.89119],[13.50274,52.89115]]}},{"type":"Feature","properties":{"art":"strasse"},"geometry":{"type":"LineString","coordinates":[[13.48031,52.89279],[13.48057,52.89267],[13.48093,52.89256]]}},{"type":"Feature","properties":{"art":"strasse"},"geometry":{"type":"LineString","coordinates":[[13.48135,52.89243],[13.48244,52.8921],[13.48298,52.89191],[13.48462,52.89133],[13.48564,52.891],[13.48619,52.89081],[13.48637,52.89073],[13.48653,52.89066],[13.48685,52.89052],[13.48696,52.89046],[13.48718,52.8903],[13.48725,52.89022]]}},{"type":"Feature","properties":{"art":"pfad"},"geometry":{"type":"LineString","coordinates":[[13.48226,52.89163],[13.48226,52.89164],[13.48229,52.89164],[13.48234,52.89169],[13.48236,52.89182],[13.48243,52.892],[13.48244,52.8921]]}},{"type":"Feature","properties":{"art":"strasse"},"geometry":{"type":"LineString","coordinates":[[13.49718,52.892],[13.49707,52.89198]]}},{"type":"Feature","properties":{"art":"pfad"},"geometry":{"type":"LineString","coordinates":[[13.50007,52.89398],[13.50315,52.89545]]}},{"type":"Feature","properties":{"art":"weg"},"geometry":{"type":"LineString","coordinates":[[13.48739,52.89543],[13.48786,52.89518],[13.48789,52.89498],[13.48835,52.89438],[13.48871,52.89401],[13.48939,52.89322],[13.48962,52.89296],[13.48985,52.89264],[13.49,52.89245],[13.49014,52.89238],[13.49038,52.89228],[13.49053,52.8922],[13.49117,52.89174]]}},{"type":"Feature","properties":{"art":"pfad"},"geometry":{"type":"LineString","coordinates":[[13.48062,52.89317],[13.48056,52.89304],[13.48031,52.89279]]}},{"type":"Feature","properties":{"art":"pfad"},"geometry":{"type":"LineString","coordinates":[[13.50708,52.9015],[13.50739,52.90128],[13.5073,52.90119],[13.50661,52.90113]]}},{"type":"Feature","properties":{"art":"pfad"},"geometry":{"type":"LineString","coordinates":[[13.50587,52.90357],[13.5053,52.90329],[13.50486,52.90309],[13.50455,52.90299],[13.50424,52.9029],[13.50299,52.90274],[13.50268,52.90276],[13.50219,52.90299],[13.50162,52.90313],[13.50081,52.90322],[13.49983,52.90329],[13.49866,52.90315],[13.49765,52.90304],[13.497,52.90295],[13.49635,52.9029]]}},{"type":"Feature","properties":{"art":"pfad"},"geometry":{"type":"LineString","coordinates":[[13.50867,52.90498],[13.50825,52.90465],[13.50823,52.90463],[13.50773,52.90439],[13.50728,52.90424],[13.50587,52.90357],[13.50548,52.90324],[13.50522,52.90307],[13.50499,52.90294],[13.50422,52.90259],[13.50419,52.90246]]}},{"type":"Feature","properties":{"art":"pfad"},"geometry":{"type":"LineString","coordinates":[[13.50825,52.90465],[13.50834,52.90441],[13.50832,52.90421]]}},{"type":"Feature","properties":{"art":"strasse"},"geometry":{"type":"LineString","coordinates":[[13.51419,52.90468],[13.51512,52.90448],[13.51561,52.90434],[13.51597,52.9043],[13.51637,52.90427]]}},{"type":"Feature","properties":{"art":"weg"},"geometry":{"type":"LineString","coordinates":[[13.51545,52.90659],[13.51504,52.90682],[13.51486,52.90696],[13.51471,52.9071],[13.51492,52.90725],[13.51543,52.90742],[13.5158,52.90755]]}},{"type":"Feature","properties":{"art":"pfad"},"geometry":{"type":"LineString","coordinates":[[13.50867,52.9068],[13.50972,52.90705],[13.51021,52.90718],[13.51076,52.90733],[13.51162,52.90762],[13.51238,52.90781]]}},{"type":"Feature","properties":{"art":"pfad"},"geometry":{"type":"LineString","coordinates":[[13.51471,52.9071],[13.51454,52.90722],[13.51417,52.90741],[13.51369,52.90763],[13.51339,52.90769],[13.51272,52.90776],[13.51257,52.9078]]}},{"type":"Feature","properties":{"art":"pfad"},"geometry":{"type":"LineString","coordinates":[[13.50298,52.90757],[13.50429,52.90758],[13.50642,52.90742],[13.50743,52.90735],[13.50888,52.90714]]}},{"type":"Feature","properties":{"art":"pfad"},"geometry":{"type":"LineString","coordinates":[[13.50232,52.90875],[13.50298,52.90757],[13.50308,52.90741],[13.50372,52.90647]]}},{"type":"Feature","properties":{"art":"pfad"},"geometry":{"type":"LineString","coordinates":[[13.42856,52.90316],[13.4286,52.9032],[13.42868,52.90336],[13.42869,52.90341]]}},{"type":"Feature","properties":{"art":"weg"},"geometry":{"type":"LineString","coordinates":[[13.42911,52.90317],[13.42883,52.9035],[13.42788,52.90439],[13.42728,52.90485],[13.42697,52.90502],[13.42454,52.90634],[13.42407,52.90658],[13.42342,52.90682],[13.42269,52.90704],[13.42083,52.90763],[13.41949,52.90792],[13.41861,52.9079],[13.41798,52.90779]]}},{"type":"Feature","properties":{"art":"pfad"},"geometry":{"type":"LineString","coordinates":[[13.41902,52.90956],[13.41861,52.9079]]}},{"type":"Feature","properties":{"art":"weg"},"geometry":{"type":"LineString","coordinates":[[13.41814,52.90906],[13.41921,52.90969],[13.42248,52.91086],[13.42396,52.91155],[13.42485,52.91219],[13.42719,52.91413],[13.42777,52.91462],[13.42922,52.91588],[13.42932,52.91599]]}},{"type":"Feature","properties":{"art":"pfad"},"geometry":{"type":"LineString","coordinates":[[13.40842,52.91575],[13.40871,52.91574],[13.41235,52.91571]]}},{"type":"Feature","properties":{"art":"pfad"},"geometry":{"type":"LineString","coordinates":[[13.41632,52.91566],[13.41691,52.9155],[13.41827,52.91513],[13.41956,52.91489],[13.42039,52.91478],[13.42174,52.91455],[13.42301,52.91433],[13.42336,52.91423],[13.4241,52.91403],[13.42476,52.91393],[13.42547,52.91392],[13.42617,52.91394],[13.42672,52.91401],[13.42704,52.91412],[13.42719,52.91413]]}},{"type":"Feature","properties":{"art":"weg"},"geometry":{"type":"LineString","coordinates":[[13.4081,52.91575],[13.40842,52.91575],[13.40875,52.91585],[13.40949,52.91942],[13.41025,52.92292],[13.41039,52.92308],[13.41065,52.92324],[13.41115,52.92355]]}},{"type":"Feature","properties":{"art":"weg"},"geometry":{"type":"LineString","coordinates":[[13.41691,52.92624],[13.41766,52.92581],[13.41785,52.92576],[13.41855,52.9257],[13.41924,52.92568],[13.41952,52.92574],[13.41961,52.92586]]}},{"type":"Feature","properties":{"art":"pfad"},"geometry":{"type":"LineString","coordinates":[[13.49635,52.9029],[13.49545,52.9028],[13.49452,52.90268],[13.49346,52.90278],[13.49307,52.90271],[13.49265,52.90263],[13.49225,52.90251],[13.49188,52.9024],[13.49178,52.9024],[13.49166,52.90245]]}},{"type":"Feature","properties":{"art":"weg"},"geometry":{"type":"LineString","coordinates":[[13.49449,52.90552],[13.49442,52.90531],[13.49443,52.90518],[13.49448,52.90493],[13.4945,52.90469],[13.49449,52.90452],[13.49443,52.9044],[13.49424,52.90424],[13.49406,52.90406],[13.49377,52.90388],[13.49362,52.90376],[13.49334,52.90353],[13.49304,52.90326],[13.49287,52.90304],[13.49257,52.90284],[13.49214,52.90267],[13.49166,52.90245],[13.4915,52.90235],[13.49132,52.90216],[13.49103,52.90187],[13.49072,52.90165],[13.49041,52.90144],[13.49001,52.90129],[13.48961,52.9012],[13.48916,52.90106],[13.48858,52.90099],[13.48797,52.90089]]}},{"type":"Feature","properties":{"art":"weg"},"geometry":{"type":"LineString","coordinates":[[13.47166,52.90806],[13.47194,52.908],[13.47266,52.90786],[13.47376,52.90772],[13.47575,52.90735],[13.47632,52.90727],[13.47676,52.90717],[13.47843,52.90686],[13.47892,52.9068],[13.47996,52.90658],[13.48026,52.90654],[13.48117,52.90634],[13.48213,52.90611],[13.48337,52.90592]]}},{"type":"Feature","properties":{"art":"weg"},"geometry":{"type":"LineString","coordinates":[[13.48588,52.90575],[13.48656,52.90576],[13.48679,52.90578],[13.48728,52.90582],[13.48782,52.90582],[13.48944,52.90583],[13.49092,52.90585],[13.49153,52.90583],[13.49183,52.90582],[13.49407,52.90556],[13.49449,52.90552],[13.49495,52.90552],[13.49615,52.90571]]}},{"type":"Feature","properties":{"art":"weg"},"geometry":{"type":"LineString","coordinates":[[13.50703,52.90522],[13.50736,52.90518],[13.50809,52.90509],[13.50846,52.905],[13.50867,52.90498],[13.50918,52.90494],[13.50959,52.90496],[13.51027,52.90495],[13.51107,52.90494],[13.51233,52.90494],[13.51318,52.9049],[13.5134,52.90487],[13.51419,52.90468]]}},{"type":"Feature","properties":{"art":"pfad"},"geometry":{"type":"LineString","coordinates":[[13.49153,52.90583],[13.49132,52.90769],[13.49121,52.90783],[13.49104,52.90792],[13.49074,52.90803],[13.48978,52.90808],[13.48932,52.90814],[13.48905,52.9082],[13.48872,52.90858],[13.48858,52.90886],[13.48869,52.90921],[13.48883,52.90941],[13.48883,52.90957]]}},{"type":"Feature","properties":{"art":"weg"},"geometry":{"type":"LineString","coordinates":[[13.48065,52.90877],[13.48199,52.90901],[13.4837,52.90924],[13.48462,52.9093],[13.48513,52.90928],[13.48573,52.90937],[13.48618,52.90932],[13.48665,52.9092],[13.4869,52.90915],[13.48706,52.90916],[13.48883,52.90957],[13.4943,52.91086],[13.50006,52.91221],[13.50447,52.91325],[13.50504,52.91338],[13.5073,52.91391]]}},{"type":"Feature","properties":{"art":"pfad"},"geometry":{"type":"LineString","coordinates":[[13.48212,52.9134],[13.48353,52.91347],[13.48404,52.91355]]}},{"type":"Feature","properties":{"art":"weg"},"geometry":{"type":"LineString","coordinates":[[13.4943,52.91086],[13.48999,52.91726]]}},{"type":"Feature","properties":{"art":"pfad"},"geometry":{"type":"LineString","coordinates":[[13.47751,52.89473],[13.47753,52.89477]]}},{"type":"Feature","properties":{"art":"pfad"},"geometry":{"type":"LineString","coordinates":[[13.48601,52.90488],[13.48672,52.90491],[13.48675,52.90512],[13.48692,52.90537],[13.48694,52.90567],[13.48679,52.90578]]}},{"type":"Feature","properties":{"art":"pfad"},"geometry":{"type":"LineString","coordinates":[[13.48076,52.91628],[13.48118,52.91591],[13.48148,52.91562],[13.48153,52.91552],[13.48166,52.91523],[13.48187,52.9145],[13.48212,52.9134],[13.48215,52.9133],[13.48219,52.91308],[13.48211,52.91292],[13.48182,52.91265],[13.48155,52.91245],[13.48132,52.91213],[13.48101,52.91114],[13.48077,52.91084],[13.48059,52.91037],[13.48065,52.90877],[13.48057,52.90837],[13.48049,52.90793],[13.48053,52.90754],[13.48117,52.90634]]}},{"type":"Feature","properties":{"art":"weg"},"geometry":{"type":"LineString","coordinates":[[13.47172,52.91332],[13.47241,52.91325],[13.47311,52.91301],[13.47377,52.91292],[13.47447,52.91273],[13.47535,52.91271],[13.47668,52.91241],[13.4775,52.91239],[13.4789,52.91251],[13.47974,52.91259],[13.48087,52.91263],[13.48182,52.91265]]}},{"type":"Feature","properties":{"art":"pfad"},"geometry":{"type":"LineString","coordinates":[[13.48499,52.91607],[13.48474,52.91599],[13.48439,52.91585],[13.48364,52.91576],[13.48199,52.91557],[13.48153,52.91552],[13.47884,52.91516],[13.47598,52.91481],[13.47422,52.91466]]}},{"type":"Feature","properties":{"art":"pfad"},"geometry":{"type":"LineString","coordinates":[[13.48288,52.91866],[13.48264,52.91856],[13.48034,52.91809],[13.47946,52.91791],[13.47917,52.91781],[13.47901,52.91778],[13.47822,52.91757],[13.47804,52.9175],[13.47717,52.91715],[13.47679,52.91662],[13.47459,52.91485],[13.47422,52.91466],[13.47378,52.91442],[13.47234,52.91382],[13.47181,52.91368],[13.47167,52.91351],[13.47172,52.91332],[13.47145,52.91331],[13.4709,52.9133]]}},{"type":"Feature","properties":{"art":"weg"},"geometry":{"type":"LineString","coordinates":[[13.47076,52.92811],[13.47081,52.928],[13.47173,52.92644],[13.47306,52.92422],[13.47398,52.92293],[13.47401,52.92288],[13.47665,52.92021],[13.47914,52.91784],[13.47917,52.91781],[13.47993,52.9172],[13.48015,52.91663]]}},{"type":"Feature","properties":{"art":"weg"},"geometry":{"type":"LineString","coordinates":[[13.50863,52.90804],[13.50848,52.90805]]}},{"type":"Feature","properties":{"art":"pfad"},"geometry":{"type":"LineString","coordinates":[[13.5198,52.90972],[13.5195,52.90988],[13.51918,52.91],[13.51901,52.91005],[13.51537,52.90873],[13.51412,52.90831],[13.51257,52.9078],[13.51238,52.90781],[13.51178,52.90786],[13.51134,52.90783],[13.5099,52.90785],[13.50881,52.90777]]}},{"type":"Feature","properties":{"art":"weg"},"geometry":{"type":"LineString","coordinates":[[13.50809,52.90509],[13.50867,52.9068],[13.50868,52.90684],[13.50888,52.90714],[13.50904,52.90738],[13.50881,52.90777],[13.50863,52.90804],[13.50504,52.91338]]}},{"type":"Feature","properties":{"art":"pfad"},"geometry":{"type":"LineString","coordinates":[[13.51553,52.90836],[13.51537,52.90873],[13.51524,52.90904],[13.51509,52.90942],[13.51453,52.91147],[13.51453,52.91173],[13.51471,52.91212]]}},{"type":"Feature","properties":{"art":"weg"},"geometry":{"type":"LineString","coordinates":[[13.51471,52.91212],[13.51745,52.91093],[13.51848,52.9106],[13.51926,52.91034],[13.51971,52.91025],[13.51983,52.91015],[13.52001,52.91005],[13.52005,52.90993],[13.51996,52.90983],[13.5198,52.90972],[13.521,52.90896],[13.52139,52.90876],[13.52166,52.90874]]}},{"type":"Feature","properties":{"art":"weg"},"geometry":{"type":"LineString","coordinates":[[13.5073,52.91391],[13.51412,52.90831]]}},{"type":"Feature","properties":{"art":"pfad"},"geometry":{"type":"LineString","coordinates":[[13.51381,52.91268],[13.51408,52.91244],[13.51471,52.91212]]}},{"type":"Feature","properties":{"art":"pfad"},"geometry":{"type":"LineString","coordinates":[[13.5073,52.91391],[13.50751,52.91402],[13.50808,52.91415],[13.50953,52.91444]]}},{"type":"Feature","properties":{"art":"pfad"},"geometry":{"type":"LineString","coordinates":[[13.50844,52.91539],[13.50954,52.91451],[13.50953,52.91444]]}},{"type":"Feature","properties":{"art":"pfad"},"geometry":{"type":"LineString","coordinates":[[13.50447,52.91325],[13.50413,52.91389],[13.5039,52.91403],[13.50246,52.91486],[13.49969,52.91721],[13.49749,52.91914]]}},{"type":"Feature","properties":{"art":"weg"},"geometry":{"type":"LineString","coordinates":[[13.5073,52.91391],[13.50036,52.91984]]}},{"type":"Feature","properties":{"art":"weg"},"geometry":{"type":"LineString","coordinates":[[13.50881,52.90777],[13.50869,52.90778],[13.50861,52.90781],[13.50852,52.90787],[13.50846,52.90794],[13.50848,52.90805],[13.50232,52.90875],[13.50006,52.91221],[13.49574,52.91869],[13.49392,52.92153],[13.49063,52.92666]]}},{"type":"Feature","properties":{"art":"pfad"},"geometry":{"type":"LineString","coordinates":[[13.50342,52.92101],[13.50939,52.91596],[13.50941,52.9159],[13.50844,52.91539]]}},{"type":"Feature","properties":{"art":"weg"},"geometry":{"type":"LineString","coordinates":[[13.51027,52.92245],[13.50868,52.92209],[13.50714,52.92177],[13.50552,52.92146],[13.50342,52.92101],[13.50327,52.92098],[13.50298,52.92073],[13.5027,52.92047],[13.50233,52.92035],[13.50098,52.91999],[13.50036,52.91984]]}},{"type":"Feature","properties":{"art":"weg"},"geometry":{"type":"LineString","coordinates":[[13.51597,52.9246],[13.51502,52.92437],[13.51406,52.92411],[13.51349,52.92392],[13.5131,52.92386],[13.51105,52.924],[13.5082,52.92426],[13.50809,52.92424]]}},{"type":"Feature","properties":{"art":"weg"},"geometry":{"type":"LineString","coordinates":[[13.51349,52.92392],[13.51347,52.92394],[13.5138,52.92509],[13.51445,52.92805]]}},{"type":"Feature","properties":{"art":"strasse"},"geometry":{"type":"LineString","coordinates":[[13.48463,52.93281],[13.48798,52.9314],[13.49472,52.92857],[13.49621,52.92797],[13.4981,52.92731],[13.50247,52.92579],[13.50701,52.9242],[13.50827,52.92377],[13.51027,52.92245],[13.51079,52.92209]]}},{"type":"Feature","properties":{"art":"weg"},"geometry":{"type":"LineString","coordinates":[[13.51445,52.92805],[13.51746,52.92634],[13.51751,52.92631],[13.51879,52.92562],[13.51963,52.92516]]}},{"type":"Feature","properties":{"art":"weg"},"geometry":{"type":"LineString","coordinates":[[13.55272,52.92544],[13.55076,52.92561],[13.55012,52.92569],[13.54794,52.92584],[13.54625,52.92599],[13.54135,52.92636],[13.53947,52.92651],[13.53891,52.92657],[13.53809,52.92677],[13.53691,52.92701],[13.53526,52.92749],[13.53311,52.92781],[13.53282,52.92774],[13.53272,52.92771],[13.53169,52.9274],[13.53109,52.92729],[13.53093,52.92726],[13.5283,52.92748],[13.52547,52.92773],[13.52361,52.9279],[13.52134,52.92806],[13.5192,52.92825],[13.51885,52.92828],[13.51461,52.92866],[13.51341,52.92877],[13.51315,52.92882]]}},{"type":"Feature","properties":{"art":"strasse"},"geometry":{"type":"LineString","coordinates":[[13.50398,52.93159],[13.50454,52.93029],[13.50481,52.92953],[13.50497,52.92924],[13.50545,52.92849],[13.50613,52.92736],[13.50809,52.92424],[13.50829,52.92388],[13.5083,52.9238],[13.50827,52.92377]]}},{"type":"Feature","properties":{"art":"weg"},"geometry":{"type":"LineString","coordinates":[[13.47145,52.91331],[13.47148,52.91299],[13.47176,52.91228],[13.47191,52.91178],[13.47185,52.91155],[13.4719,52.91079],[13.47198,52.9101],[13.47208,52.90943],[13.47209,52.90867],[13.47212,52.90846],[13.47226,52.90829],[13.47229,52.90823],[13.47221,52.9082],[13.47206,52.9081],[13.47194,52.908]]}},{"type":"Feature","properties":{"art":"strasse"},"geometry":{"type":"LineString","coordinates":[[13.46518,52.91786],[13.46518,52.91787],[13.46555,52.9185]]}},{"type":"Feature","properties":{"art":"strasse"},"geometry":{"type":"LineString","coordinates":[[13.46518,52.91787],[13.46525,52.91787],[13.46534,52.9179],[13.46581,52.91805]]}},{"type":"Feature","properties":{"art":"weg"},"geometry":{"type":"LineString","coordinates":[[13.45815,52.92048],[13.45852,52.92046],[13.45943,52.92039],[13.45978,52.92032],[13.4601,52.92026],[13.46094,52.9201],[13.46227,52.92009],[13.46292,52.92001],[13.46464,52.91977],[13.46557,52.91961],[13.46614,52.9196],[13.46675,52.91952],[13.46779,52.91939],[13.4685,52.91938],[13.47042,52.9191],[13.47135,52.919],[13.47249,52.91888],[13.47333,52.91877],[13.47411,52.91865],[13.47463,52.91861],[13.47511,52.91854],[13.4753,52.91849],[13.47577,52.91833],[13.47804,52.9175],[13.47808,52.91748],[13.48015,52.91663]]}},{"type":"Feature","properties":{"art":"strasse"},"geometry":{"type":"LineString","coordinates":[[13.46555,52.9185],[13.46614,52.9196],[13.46669,52.92067],[13.46713,52.92156],[13.46832,52.92365],[13.46901,52.92493],[13.46946,52.92578],[13.47076,52.92811],[13.47158,52.92963],[13.47173,52.92986]]}},{"type":"Feature","properties":{"art":"weg"},"geometry":{"type":"LineString","coordinates":[[13.46183,52.93288],[13.46458,52.92833],[13.46461,52.92829]]}},{"type":"Feature","properties":{"art":"pfad"},"geometry":{"type":"LineString","coordinates":[[13.48288,52.91866],[13.48376,52.91783],[13.48382,52.91763],[13.4839,52.91743],[13.48391,52.91739],[13.48409,52.91703],[13.48441,52.91672],[13.48474,52.91628],[13.48491,52.91621],[13.48499,52.91607],[13.48883,52.90957]]}},{"type":"Feature","properties":{"art":"weg"},"geometry":{"type":"LineString","coordinates":[[13.50036,52.91984],[13.49749,52.91914],[13.49734,52.9191],[13.49574,52.91869],[13.49105,52.91748],[13.48999,52.91726],[13.48644,52.91632],[13.4854,52.91618],[13.48491,52.91621],[13.48188,52.91638],[13.48126,52.91625],[13.48076,52.91628],[13.48036,52.91658],[13.48015,52.91663]]}},{"type":"Feature","properties":{"art":"pfad"},"geometry":{"type":"LineString","coordinates":[[13.49392,52.92153],[13.49376,52.92145],[13.49284,52.92064],[13.49237,52.9203],[13.49199,52.91996],[13.49145,52.91912],[13.49102,52.91871],[13.49047,52.91809],[13.48999,52.91786],[13.48986,52.91775],[13.4898,52.91763]]}},{"type":"Feature","properties":{"art":"pfad"},"geometry":{"type":"LineString","coordinates":[[13.48999,52.91726],[13.48988,52.91752],[13.4898,52.91763],[13.48956,52.91796],[13.4881,52.92022],[13.48775,52.92065],[13.48476,52.92533]]}},{"type":"Feature","properties":{"art":"pfad"},"geometry":{"type":"LineString","coordinates":[[13.50247,52.92579],[13.50229,52.9257],[13.49994,52.92497],[13.49939,52.92464],[13.49885,52.92434],[13.49792,52.92399],[13.49761,52.92376],[13.49728,52.92351],[13.49539,52.92224],[13.49526,52.92209],[13.49511,52.92199],[13.49392,52.92153]]}},{"type":"Feature","properties":{"art":"weg"},"geometry":{"type":"LineString","coordinates":[[13.49621,52.92797],[13.49063,52.92666],[13.48476,52.92533],[13.48235,52.92479],[13.47953,52.92418],[13.47683,52.9236],[13.47398,52.92293],[13.46995,52.92163],[13.46684,52.92065],[13.46669,52.92067]]}},{"type":"Feature","properties":{"art":"pfad"},"geometry":{"type":"LineString","coordinates":[[13.49063,52.92666],[13.48863,52.92988]]}},{"type":"Feature","properties":{"art":"weg"},"geometry":{"type":"LineString","coordinates":[[13.48476,52.92533],[13.4805,52.93188]]}},{"type":"Feature","properties":{"art":"pfad"},"geometry":{"type":"LineString","coordinates":[[13.48863,52.92988],[13.48784,52.93115],[13.48798,52.9314]]}},{"type":"Feature","properties":{"art":"pfad"},"geometry":{"type":"LineString","coordinates":[[13.494,52.93214],[13.49422,52.93205],[13.49443,52.93203],[13.49508,52.93211],[13.49603,52.93234],[13.49729,52.9326],[13.49739,52.93265],[13.49746,52.93271],[13.49752,52.93275]]}},{"type":"Feature","properties":{"art":"pfad"},"geometry":{"type":"LineString","coordinates":[[13.47382,52.93311],[13.47536,52.9307],[13.4754,52.93063],[13.47639,52.9291],[13.47953,52.92418],[13.48201,52.92027],[13.48268,52.91922],[13.48288,52.91866]]}},{"type":"Feature","properties":{"art":"pfad"},"geometry":{"type":"LineString","coordinates":[[13.47639,52.9291],[13.47605,52.929]]}},{"type":"Feature","properties":{"art":"strasse"},"geometry":{"type":"LineString","coordinates":[[13.47173,52.92986],[13.47536,52.9307],[13.4805,52.93188],[13.48463,52.93281]]}},{"type":"Feature","properties":{"art":"pfad"},"geometry":{"type":"LineString","coordinates":[[13.4805,52.93188],[13.47981,52.93286],[13.47932,52.93365],[13.47886,52.93439]]}},{"type":"Feature","properties":{"art":"weg"},"geometry":{"type":"LineString","coordinates":[[13.47715,52.93699],[13.47567,52.93523],[13.47382,52.93311],[13.4737,52.93297],[13.47243,52.93116],[13.47199,52.93036],[13.47173,52.92986]]}},{"type":"Feature","properties":{"art":"pfad"},"geometry":{"type":"LineString","coordinates":[[13.47382,52.93311],[13.46995,52.93924],[13.47496,52.94042],[13.47873,52.9412],[13.48058,52.94172],[13.48239,52.94222]]}},{"type":"Feature","properties":{"art":"strasse"},"geometry":{"type":"LineString","coordinates":[[13.47343,52.94211],[13.47382,52.94195],[13.47395,52.94187],[13.47415,52.94169],[13.47421,52.94164],[13.47496,52.94042],[13.47715,52.93699],[13.47739,52.93679],[13.47817,52.93637]]}},{"type":"Feature","properties":{"art":"pfad"},"geometry":{"type":"LineString","coordinates":[[13.48058,52.94172],[13.48032,52.94215],[13.47996,52.94272],[13.47972,52.94274],[13.47949,52.94277],[13.47897,52.94266],[13.47866,52.94263],[13.4779,52.94267],[13.47771,52.94271],[13.47724,52.94274],[13.47689,52.9428],[13.47669,52.94279],[13.47653,52.94281],[13.47589,52.94296],[13.47526,52.94313],[13.47514,52.94315],[13.47509,52.94315]]}},{"type":"Feature","properties":{"art":"weg"},"geometry":{"type":"LineString","coordinates":[[13.47415,52.94169],[13.47456,52.94226],[13.47477,52.94258],[13.47499,52.94283],[13.47511,52.94305],[13.4751,52.94314],[13.47509,52.94315],[13.47503,52.94326]]}},{"type":"Feature","properties":{"art":"strasse"},"geometry":{"type":"LineString","coordinates":[[13.47132,52.9429],[13.47343,52.94211]]}},{"type":"Feature","properties":{"art":"pfad"},"geometry":{"type":"LineString","coordinates":[[13.50481,52.92953],[13.50385,52.92959],[13.50343,52.92964],[13.49654,52.92805],[13.49621,52.92797]]}},{"type":"Feature","properties":{"art":"pfad"},"geometry":{"type":"LineString","coordinates":[[13.51315,52.92882],[13.51301,52.92881],[13.51133,52.92896],[13.51024,52.92907],[13.50931,52.92917]]}},{"type":"Feature","properties":{"art":"pfad"},"geometry":{"type":"LineString","coordinates":[[13.50931,52.92917],[13.50931,52.92924],[13.50912,52.92932],[13.50872,52.92933],[13.50861,52.9293],[13.50856,52.92925],[13.50862,52.92921],[13.50892,52.92919],[13.50931,52.92917]]}},{"type":"Feature","properties":{"art":"weg"},"geometry":{"type":"LineString","coordinates":[[13.50398,52.93159],[13.50773,52.9314],[13.50848,52.93133],[13.50875,52.93127],[13.50893,52.9312],[13.5097,52.93072],[13.51013,52.93041],[13.5105,52.9302],[13.51116,52.92989],[13.51152,52.9297],[13.51212,52.92933],[13.51238,52.92918],[13.51301,52.92887],[13.51315,52.92882]]}},{"type":"Feature","properties":{"art":"pfad"},"geometry":{"type":"LineString","coordinates":[[13.50343,52.92964],[13.50398,52.93159]]}},{"type":"Feature","properties":{"art":"strasse"},"geometry":{"type":"LineString","coordinates":[[13.50183,52.93196],[13.50357,52.93167],[13.50398,52.93159]]}},{"type":"Feature","properties":{"art":"weg"},"geometry":{"type":"LineString","coordinates":[[13.51445,52.92805],[13.51461,52.92866],[13.51505,52.93048],[13.51581,52.93388],[13.51622,52.93542],[13.51677,52.93767],[13.51697,52.93856],[13.51705,52.93871],[13.51721,52.93945],[13.51783,52.94206]]}},{"type":"Feature","properties":{"art":"pfad"},"geometry":{"type":"LineString","coordinates":[[13.50197,52.93662],[13.50522,52.93636],[13.51055,52.93595],[13.51622,52.93542],[13.51998,52.93509],[13.52122,52.93498],[13.52225,52.93489],[13.52725,52.93444],[13.52735,52.93443],[13.53087,52.93412],[13.53177,52.93406]]}},{"type":"Feature","properties":{"art":"weg"},"geometry":{"type":"LineString","coordinates":[[13.50709,52.94201],[13.50691,52.94186],[13.50635,52.94015],[13.50554,52.93756],[13.50522,52.93636],[13.50405,52.93217],[13.50392,52.93174]]}},{"type":"Feature","properties":{"art":"weg"},"geometry":{"type":"LineString","coordinates":[[13.49641,52.94562],[13.49646,52.94553],[13.49806,52.94272],[13.49887,52.94148],[13.50191,52.93673],[13.50197,52.93662],[13.50392,52.93174],[13.50396,52.93164],[13.50398,52.93159]]}},{"type":"Feature","properties":{"art":"pfad"},"geometry":{"type":"LineString","coordinates":[[13.51142,52.93916],[13.51171,52.9394],[13.51203,52.93962],[13.51258,52.93977]]}},{"type":"Feature","properties":{"art":"pfad"},"geometry":{"type":"LineString","coordinates":[[13.47373,52.93312],[13.47356,52.9329],[13.47322,52.93246],[13.47298,52.93212],[13.47269,52.93162],[13.47234,52.93114],[13.47215,52.9308],[13.47187,52.9303],[13.47167,52.92996],[13.47162,52.92991],[13.47157,52.9299],[13.47105,52.92979],[13.47068,52.92972],[13.46994,52.92955],[13.46868,52.92926],[13.46694,52.92887],[13.46547,52.92853],[13.46458,52.92833]]}},{"type":"Feature","properties":{"art":"pfad"},"geometry":{"type":"LineString","coordinates":[[13.46764,52.93323],[13.46809,52.93226]]}},{"type":"Feature","properties":{"art":"pfad"},"geometry":{"type":"LineString","coordinates":[[13.47382,52.93311],[13.47373,52.93312],[13.47306,52.93321],[13.47239,52.93328],[13.47157,52.93329],[13.4689,52.93331],[13.4682,52.93326],[13.46764,52.93323],[13.46611,52.93315],[13.46518,52.93307],[13.46367,52.93287],[13.46329,52.93285],[13.46241,52.93286],[13.46195,52.93292],[13.46186,52.93293],[13.46158,52.93298],[13.46076,52.93317]]}},{"type":"Feature","properties":{"art":"pfad"},"geometry":{"type":"LineString","coordinates":[[13.46764,52.93323],[13.46738,52.93385]]}},{"type":"Feature","properties":{"art":"pfad"},"geometry":{"type":"LineString","coordinates":[[13.46075,52.93353],[13.46163,52.93647],[13.46138,52.94159],[13.46663,52.94403],[13.46758,52.94442]]}},{"type":"Feature","properties":{"art":"weg"},"geometry":{"type":"LineString","coordinates":[[13.46663,52.94403],[13.46827,52.94352],[13.46977,52.94303],[13.47128,52.94254],[13.47287,52.94201],[13.47371,52.94176],[13.47415,52.94169]]}},{"type":"Feature","properties":{"art":"strasse"},"geometry":{"type":"LineString","coordinates":[[13.46985,52.94347],[13.47099,52.94302],[13.47132,52.9429]]}},{"type":"Feature","properties":{"art":"strasse"},"geometry":{"type":"LineString","coordinates":[[13.47086,52.94347],[13.4709,52.94335],[13.47094,52.9433],[13.47105,52.94325],[13.47114,52.9432],[13.47122,52.9431]]}},{"type":"Feature","properties":{"art":"strasse"},"geometry":{"type":"LineString","coordinates":[[13.46939,52.94376],[13.4696,52.9436],[13.46985,52.94347]]}},{"type":"Feature","properties":{"art":"strasse"},"geometry":{"type":"LineString","coordinates":[[13.46952,52.94402],[13.46941,52.94389],[13.4694,52.94379],[13.46939,52.94376]]}},{"type":"Feature","properties":{"art":"strasse"},"geometry":{"type":"LineString","coordinates":[[13.47817,52.93637],[13.48342,52.93348],[13.48463,52.93281]]}},{"type":"Feature","properties":{"art":"pfad"},"geometry":{"type":"LineString","coordinates":[[13.48693,52.94335],[13.48941,52.93943],[13.49246,52.9346],[13.494,52.93214],[13.49654,52.92805]]}},{"type":"Feature","properties":{"art":"weg"},"geometry":{"type":"LineString","coordinates":[[13.48463,52.93281],[13.48472,52.93283],[13.48485,52.93288],[13.48506,52.93295],[13.48594,52.93315],[13.48654,52.93328],[13.48746,52.93349],[13.48842,52.93369],[13.49017,52.93409],[13.49139,52.93437],[13.49213,52.93453],[13.49246,52.9346],[13.49395,52.93494],[13.49539,52.93528],[13.49734,52.93571],[13.50191,52.93673],[13.50305,52.93697],[13.50554,52.93756],[13.51021,52.93857],[13.51139,52.93905]]}},{"type":"Feature","properties":{"art":"pfad"},"geometry":{"type":"LineString","coordinates":[[13.48654,52.93328],[13.48312,52.93835],[13.4813,52.94119],[13.48115,52.94131]]}},{"type":"Feature","properties":{"art":"weg"},"geometry":{"type":"LineString","coordinates":[[13.49158,52.94446],[13.49421,52.94047],[13.49734,52.93571]]}},{"type":"Feature","properties":{"art":"weg"},"geometry":{"type":"LineString","coordinates":[[13.49887,52.94148],[13.49421,52.94047],[13.48941,52.93943]]}},{"type":"Feature","properties":{"art":"weg"},"geometry":{"type":"LineString","coordinates":[[13.50813,52.94851],[13.50086,52.94671],[13.49778,52.94595],[13.49641,52.94562],[13.49158,52.94446],[13.48693,52.94335],[13.48239,52.94222],[13.48168,52.94189],[13.48115,52.94131],[13.47935,52.93932],[13.47715,52.93699]]}},{"type":"Feature","properties":{"art":"pfad"},"geometry":{"type":"LineString","coordinates":[[13.4828,52.94943],[13.48288,52.9493],[13.48693,52.94335]]}},{"type":"Feature","properties":{"art":"pfad"},"geometry":{"type":"LineString","coordinates":[[13.48679,52.95198],[13.48875,52.94897],[13.49158,52.94446]]}},{"type":"Feature","properties":{"art":"pfad"},"geometry":{"type":"LineString","coordinates":[[13.49499,52.94788],[13.49949,52.94889]]}},{"type":"Feature","properties":{"art":"strasse"},"geometry":{"type":"LineString","coordinates":[[13.44907,52.91464],[13.44846,52.91462],[13.44774,52.91458],[13.44705,52.91451],[13.44663,52.91443],[13.44607,52.91436],[13.44549,52.91423],[13.44486,52.91407],[13.44344,52.91365],[13.44327,52.91363],[13.443,52.91363],[13.44137,52.91378],[13.44017,52.9139],[13.43857,52.91406],[13.4345,52.91464]]}},{"type":"Feature","properties":{"art":"pfad"},"geometry":{"type":"LineString","coordinates":[[13.45815,52.92048],[13.45156,52.92117],[13.44988,52.92142]]}},{"type":"Feature","properties":{"art":"weg"},"geometry":{"type":"LineString","coordinates":[[13.4454,52.924],[13.44551,52.92391],[13.44609,52.92307],[13.44684,52.92251],[13.44922,52.92166],[13.44988,52.92142]]}},{"type":"Feature","properties":{"art":"pfad"},"geometry":{"type":"LineString","coordinates":[[13.44332,52.92403],[13.44337,52.92399],[13.44684,52.92251]]}},{"type":"Feature","properties":{"art":"weg"},"geometry":{"type":"LineString","coordinates":[[13.4454,52.924],[13.44403,52.92407],[13.44332,52.92403],[13.4431,52.92407],[13.44234,52.92447],[13.44213,52.92452],[13.44189,52.92456],[13.44167,52.92458],[13.44147,52.92458],[13.44126,52.92453],[13.44109,52.92442],[13.44096,52.92434],[13.44083,52.9243],[13.44059,52.92427],[13.43874,52.92418],[13.43864,52.92415]]}},{"type":"Feature","properties":{"art":"weg"},"geometry":{"type":"LineString","coordinates":[[13.43864,52.92415],[13.43947,52.92503],[13.43954,52.92523],[13.43976,52.92538],[13.44013,52.92545],[13.44175,52.92593]]}},{"type":"Feature","properties":{"art":"weg"},"geometry":{"type":"LineString","coordinates":[[13.42833,52.90326],[13.42869,52.90341],[13.42883,52.9035],[13.42974,52.90386],[13.43067,52.90416],[13.43145,52.90446],[13.43238,52.90476],[13.43379,52.90534],[13.43414,52.90549],[13.43456,52.90571]]}},{"type":"Feature","properties":{"art":"pfad"},"geometry":{"type":"LineString","coordinates":[[13.42697,52.90502],[13.42715,52.90511],[13.42806,52.90558],[13.42831,52.90603],[13.42867,52.90688],[13.42866,52.90804],[13.42905,52.90929],[13.42983,52.9096]]}},{"type":"Feature","properties":{"art":"pfad"},"geometry":{"type":"LineString","coordinates":[[13.43437,52.91423],[13.43434,52.91425],[13.43372,52.91454],[13.4338,52.91471]]}},{"type":"Feature","properties":{"art":"pfad"},"geometry":{"type":"LineString","coordinates":[[13.44007,52.91331],[13.44017,52.9139]]}},{"type":"Feature","properties":{"art":"strasse"},"geometry":{"type":"LineString","coordinates":[[13.4345,52.91464],[13.43383,52.9147],[13.4338,52.91471]]}},{"type":"Feature","properties":{"art":"pfad"},"geometry":{"type":"LineString","coordinates":[[13.43383,52.9147],[13.43386,52.91479]]}},{"type":"Feature","properties":{"art":"weg"},"geometry":{"type":"LineString","coordinates":[[13.4338,52.91471],[13.43337,52.91476],[13.43316,52.91477],[13.43313,52.91477]]}},{"type":"Feature","properties":{"art":"weg"},"geometry":{"type":"LineString","coordinates":[[13.43198,52.91493],[13.43166,52.91498],[13.43119,52.9151],[13.43087,52.91523]]}},{"type":"Feature","properties":{"art":"weg"},"geometry":{"type":"LineString","coordinates":[[13.43087,52.91523],[13.43041,52.91548],[13.43008,52.91562],[13.42944,52.91587],[13.42936,52.91592],[13.42932,52.91599]]}},{"type":"Feature","properties":{"art":"pfad"},"geometry":{"type":"LineString","coordinates":[[13.4305,52.91685],[13.42953,52.91593],[13.43086,52.91538],[13.43098,52.91541],[13.43183,52.91652]]}},{"type":"Feature","properties":{"art":"pfad"},"geometry":{"type":"LineString","coordinates":[[13.43278,52.91636],[13.43314,52.91664]]}},{"type":"Feature","properties":{"art":"weg"},"geometry":{"type":"LineString","coordinates":[[13.44988,52.92142],[13.452,52.92067],[13.45239,52.92041],[13.4528,52.92001],[13.4536,52.91868],[13.45545,52.91732],[13.45584,52.91706]]}},{"type":"Feature","properties":{"art":"weg"},"geometry":{"type":"LineString","coordinates":[[13.45859,52.91853],[13.45838,52.91927],[13.45815,52.92048],[13.45812,52.92063],[13.45779,52.92116],[13.45503,52.92578],[13.45478,52.92607]]}},{"type":"Feature","properties":{"art":"weg"},"geometry":{"type":"LineString","coordinates":[[13.46076,52.93317],[13.46067,52.93263],[13.4605,52.9316],[13.46032,52.93096],[13.45983,52.92721],[13.45948,52.92634],[13.45904,52.92531],[13.45892,52.92495],[13.45886,52.92471],[13.45886,52.92435],[13.45882,52.92418],[13.45859,52.92366],[13.45847,52.92344],[13.45825,52.92326],[13.45808,52.92307],[13.4579,52.92269],[13.45781,52.92248],[13.45781,52.92231],[13.45797,52.92124],[13.45812,52.92063]]}},{"type":"Feature","properties":{"art":"weg"},"geometry":{"type":"LineString","coordinates":[[13.4454,52.924],[13.4457,52.92401],[13.44705,52.92433],[13.45087,52.92518],[13.45478,52.92607],[13.4592,52.92707],[13.45983,52.92721],[13.46461,52.92829],[13.46972,52.92944],[13.47173,52.92986]]}},{"type":"Feature","properties":{"art":"pfad"},"geometry":{"type":"LineString","coordinates":[[13.45576,52.93286],[13.4592,52.92707]]}},{"type":"Feature","properties":{"art":"pfad"},"geometry":{"type":"LineString","coordinates":[[13.46195,52.93292],[13.46183,52.93288]]}},{"type":"Feature","properties":{"art":"weg"},"geometry":{"type":"LineString","coordinates":[[13.46158,52.93298],[13.46183,52.93288]]}},{"type":"Feature","properties":{"art":"weg"},"geometry":{"type":"LineString","coordinates":[[13.46076,52.93317],[13.46075,52.93353]]}},{"type":"Feature","properties":{"art":"strasse"},"geometry":{"type":"LineString","coordinates":[[13.45414,52.94339],[13.45442,52.94363]]}},{"type":"Feature","properties":{"art":"weg"},"geometry":{"type":"LineString","coordinates":[[13.44072,52.92648],[13.44175,52.92593],[13.4454,52.924]]}},{"type":"Feature","properties":{"art":"pfad"},"geometry":{"type":"LineString","coordinates":[[13.44577,52.92803],[13.45087,52.92518]]}},{"type":"Feature","properties":{"art":"pfad"},"geometry":{"type":"LineString","coordinates":[[13.44838,52.92939],[13.45452,52.92623],[13.45478,52.92607]]}},{"type":"Feature","properties":{"art":"weg"},"geometry":{"type":"LineString","coordinates":[[13.44175,52.92593],[13.44577,52.92803],[13.44838,52.92939],[13.45383,52.93224],[13.45428,52.93266],[13.45465,52.93278],[13.45543,52.93282],[13.45576,52.93286],[13.45592,52.93289],[13.45678,52.93321],[13.45733,52.93327],[13.45854,52.93319],[13.45891,52.93313],[13.45937,52.93315],[13.46054,52.93338],[13.46075,52.93353]]}},{"type":"Feature","properties":{"art":"strasse"},"geometry":{"type":"LineString","coordinates":[[13.45685,52.94677],[13.45532,52.94708],[13.45422,52.94731],[13.45331,52.94748],[13.45279,52.94756],[13.45224,52.9476],[13.44988,52.94764],[13.44838,52.94777],[13.44617,52.94799],[13.44556,52.94809],[13.44348,52.94853],[13.44121,52.94887],[13.44091,52.94893],[13.43725,52.95036]]}},{"type":"Feature","properties":{"art":"weg"},"geometry":{"type":"LineString","coordinates":[[13.45792,52.96065],[13.45727,52.9604],[13.4566,52.96009],[13.45622,52.95986],[13.45568,52.95952],[13.45538,52.95939],[13.45489,52.95926],[13.45383,52.95902],[13.44589,52.95732],[13.44546,52.95718],[13.44504,52.95687],[13.44034,52.95212],[13.43998,52.95177],[13.43954,52.95158],[13.43807,52.95119],[13.43724,52.95085],[13.43678,52.95056],[13.4367,52.95053],[13.43664,52.95053]]}},{"type":"Feature","properties":{"art":"strasse"},"geometry":{"type":"LineString","coordinates":[[13.4571,52.94318],[13.45647,52.94331]]}},{"type":"Feature","properties":{"art":"strasse"},"geometry":{"type":"LineString","coordinates":[[13.45594,52.94341],[13.45536,52.94353],[13.45485,52.94363],[13.45462,52.94368],[13.45442,52.94363],[13.4538,52.94377],[13.45352,52.94371],[13.45332,52.94355]]}},{"type":"Feature","properties":{"art":"strasse"},"geometry":{"type":"LineString","coordinates":[[13.45555,52.94369],[13.45536,52.94353]]}},{"type":"Feature","properties":{"art":"strasse"},"geometry":{"type":"LineString","coordinates":[[13.45681,52.94292],[13.4571,52.94318],[13.45814,52.94409],[13.45921,52.94476],[13.46053,52.94601]]}},{"type":"Feature","properties":{"art":"strasse"},"geometry":{"type":"LineString","coordinates":[[13.45741,52.94424],[13.45756,52.94427],[13.45777,52.94425],[13.45814,52.94409]]}},{"type":"Feature","properties":{"art":"strasse"},"geometry":{"type":"LineString","coordinates":[[13.46297,52.94551],[13.46053,52.94601],[13.45977,52.94615]]}},{"type":"Feature","properties":{"art":"strasse"},"geometry":{"type":"LineString","coordinates":[[13.45977,52.94615],[13.4583,52.94646],[13.45685,52.94677]]}},{"type":"Feature","properties":{"art":"pfad"},"geometry":{"type":"LineString","coordinates":[[13.46236,52.95038],[13.4599,52.94986],[13.4572,52.94931],[13.45638,52.94914]]}},{"type":"Feature","properties":{"art":"pfad"},"geometry":{"type":"LineString","coordinates":[[13.46236,52.95038],[13.46209,52.95083]]}},{"type":"Feature","properties":{"art":"weg"},"geometry":{"type":"LineString","coordinates":[[13.4585,52.95803],[13.45824,52.95758],[13.4581,52.95641],[13.45797,52.95524],[13.45776,52.95457],[13.45746,52.95387],[13.457,52.95308],[13.45655,52.9525],[13.45647,52.9524],[13.4562,52.95207],[13.45552,52.95152],[13.45527,52.95119],[13.45528,52.95078],[13.45638,52.94914],[13.45766,52.94722],[13.45818,52.94654],[13.4583,52.94646]]}},{"type":"Feature","properties":{"art":"pfad"},"geometry":{"type":"LineString","coordinates":[[13.45655,52.9525],[13.4604,52.95349],[13.4639,52.95421]]}},{"type":"Feature","properties":{"art":"strasse"},"geometry":{"type":"LineString","coordinates":[[13.46873,52.94415],[13.46902,52.94393],[13.46939,52.94376]]}},{"type":"Feature","properties":{"art":"strasse"},"geometry":{"type":"LineString","coordinates":[[13.46952,52.94402],[13.46886,52.94412],[13.46873,52.94415]]}},{"type":"Feature","properties":{"art":"strasse"},"geometry":{"type":"LineString","coordinates":[[13.46873,52.94415],[13.46813,52.94429],[13.46805,52.94431]]}},{"type":"Feature","properties":{"art":"strasse"},"geometry":{"type":"LineString","coordinates":[[13.46805,52.94431],[13.46758,52.94442],[13.4662,52.94475],[13.46297,52.94551]]}},{"type":"Feature","properties":{"art":"weg"},"geometry":{"type":"LineString","coordinates":[[13.46053,52.94601],[13.46069,52.94614],[13.46448,52.94702],[13.46985,52.94823]]}},{"type":"Feature","properties":{"art":"pfad"},"geometry":{"type":"LineString","coordinates":[[13.46448,52.94702],[13.46405,52.94774],[13.46369,52.94827],[13.46315,52.94915],[13.46278,52.9497],[13.46236,52.95038]]}},{"type":"Feature","properties":{"art":"pfad"},"geometry":{"type":"LineString","coordinates":[[13.46552,52.95332],[13.46551,52.95271],[13.46406,52.95151],[13.46326,52.94943],[13.46315,52.94915],[13.46229,52.94805],[13.46151,52.94731],[13.46063,52.94623],[13.46069,52.94614]]}},{"type":"Feature","properties":{"art":"pfad"},"geometry":{"type":"LineString","coordinates":[[13.47388,52.95273],[13.46788,52.95138],[13.46727,52.95119],[13.4663,52.95101],[13.46553,52.95079],[13.46502,52.95058],[13.46474,52.95042],[13.46429,52.95019],[13.46392,52.94999],[13.4635,52.94965],[13.46326,52.94943]]}},{"type":"Feature","properties":{"art":"weg"},"geometry":{"type":"LineString","coordinates":[[13.4581,52.95641],[13.45855,52.95626],[13.46054,52.9556],[13.4632,52.95455],[13.46368,52.95432],[13.4639,52.95421],[13.46469,52.95382],[13.46552,52.95332],[13.46568,52.95323],[13.46633,52.95276],[13.46696,52.95224],[13.46755,52.9517],[13.46788,52.95138],[13.46985,52.94823],[13.47053,52.94697],[13.47061,52.94691],[13.47082,52.94678],[13.47107,52.94671],[13.4716,52.94663],[13.47167,52.94659],[13.47171,52.94658],[13.47177,52.94654]]}},{"type":"Feature","properties":{"art":"weg"},"geometry":{"type":"LineString","coordinates":[[13.4664,52.95339],[13.46669,52.95319],[13.46788,52.95138]]}},{"type":"Feature","properties":{"art":"pfad"},"geometry":{"type":"LineString","coordinates":[[13.43406,52.91606],[13.43453,52.91661]]}},{"type":"Feature","properties":{"art":"pfad"},"geometry":{"type":"LineString","coordinates":[[13.43223,52.91792],[13.43213,52.91795],[13.43178,52.91808]]}},{"type":"Feature","properties":{"art":"pfad"},"geometry":{"type":"LineString","coordinates":[[13.43386,52.91479],[13.43437,52.91598],[13.43406,52.91606],[13.43372,52.91614]]}},{"type":"Feature","properties":{"art":"pfad"},"geometry":{"type":"LineString","coordinates":[[13.43351,52.91619],[13.43278,52.91636],[13.43275,52.91633],[13.43209,52.91649],[13.43197,52.91648],[13.43183,52.91652],[13.4305,52.91685],[13.43178,52.91808],[13.43274,52.91899],[13.43489,52.92096],[13.43531,52.92081]]}},{"type":"Feature","properties":{"art":"weg"},"geometry":{"type":"LineString","coordinates":[[13.42932,52.91599],[13.4322,52.9187],[13.43434,52.92072],[13.43473,52.92108],[13.43773,52.92342]]}},{"type":"Feature","properties":{"art":"pfad"},"geometry":{"type":"LineString","coordinates":[[13.43434,52.92072],[13.434,52.92096],[13.43296,52.92151],[13.43153,52.92233],[13.42977,52.92324],[13.42934,52.92349]]}},{"type":"Feature","properties":{"art":"weg"},"geometry":{"type":"LineString","coordinates":[[13.43773,52.92342],[13.43836,52.92392]]}},{"type":"Feature","properties":{"art":"weg"},"geometry":{"type":"LineString","coordinates":[[13.43836,52.92392],[13.43842,52.92397],[13.43864,52.92415]]}},{"type":"Feature","properties":{"art":"strasse"},"geometry":{"type":"LineString","coordinates":[[13.43842,52.92397],[13.43814,52.9241]]}},{"type":"Feature","properties":{"art":"pfad"},"geometry":{"type":"LineString","coordinates":[[13.43182,52.93143],[13.43258,52.93106],[13.43266,52.93087],[13.43423,52.92999],[13.43706,52.92848],[13.44072,52.92648]]}},{"type":"Feature","properties":{"art":"pfad"},"geometry":{"type":"LineString","coordinates":[[13.41065,52.92324],[13.41412,52.92054],[13.41458,52.92027],[13.41514,52.92028],[13.41617,52.91998],[13.41737,52.91956],[13.41835,52.91916],[13.41882,52.919],[13.42288,52.91793],[13.42753,52.91677],[13.42844,52.91644],[13.42919,52.91607],[13.42932,52.91599]]}},{"type":"Feature","properties":{"art":"pfad"},"geometry":{"type":"LineString","coordinates":[[13.41816,52.92039],[13.41833,52.92059],[13.41921,52.92131],[13.41999,52.92206],[13.42114,52.92245],[13.42166,52.9228],[13.42513,52.92092],[13.42571,52.92051],[13.42626,52.92034],[13.42846,52.91904],[13.42882,52.91909],[13.42969,52.91933],[13.43022,52.91932],[13.43049,52.91924],[13.43073,52.91905],[13.43152,52.91868],[13.4322,52.9187]]}},{"type":"Feature","properties":{"art":"pfad"},"geometry":{"type":"LineString","coordinates":[[13.41924,52.92568],[13.41906,52.92534],[13.41873,52.92476],[13.41873,52.92425]]}},{"type":"Feature","properties":{"art":"weg"},"geometry":{"type":"LineString","coordinates":[[13.43642,52.94281],[13.43804,52.94262]]}},{"type":"Feature","properties":{"art":"weg"},"geometry":{"type":"LineString","coordinates":[[13.43997,52.94639],[13.44144,52.94732],[13.44147,52.94742],[13.44144,52.94789],[13.44141,52.94806],[13.44132,52.94834],[13.44121,52.94887]]}},{"type":"Feature","properties":{"art":"weg"},"geometry":{"type":"LineString","coordinates":[[13.43659,52.95055],[13.43636,52.95031],[13.43588,52.95003],[13.43498,52.94945],[13.43444,52.94874]]}},{"type":"Feature","properties":{"art":"strasse"},"geometry":{"type":"LineString","coordinates":[[13.43659,52.95055],[13.43584,52.95086],[13.43542,52.95085],[13.43484,52.95066],[13.43449,52.95055],[13.43402,52.95031]]}},{"type":"Feature","properties":{"art":"strasse"},"geometry":{"type":"LineString","coordinates":[[13.43725,52.95036],[13.43698,52.95043]]}},{"type":"Feature","properties":{"art":"strasse"},"geometry":{"type":"LineString","coordinates":[[13.43698,52.95043],[13.43676,52.95049],[13.43664,52.95053],[13.43659,52.95055]]}},{"type":"Feature","properties":{"art":"weg"},"geometry":{"type":"LineString","coordinates":[[13.43678,52.95056],[13.43676,52.95051],[13.43676,52.95049]]}},{"type":"Feature","properties":{"art":"weg"},"geometry":{"type":"LineString","coordinates":[[13.52109,52.93918],[13.51721,52.93945],[13.51258,52.93977],[13.5116,52.93984],[13.50643,52.94014],[13.50635,52.94015],[13.50628,52.94017],[13.5006,52.9419],[13.49887,52.94148]]}},{"type":"Feature","properties":{"art":"pfad"},"geometry":{"type":"LineString","coordinates":[[13.50691,52.94186],[13.50692,52.94192],[13.50696,52.94225],[13.50696,52.94232]]}},{"type":"Feature","properties":{"art":"pfad"},"geometry":{"type":"LineString","coordinates":[[13.50709,52.94201],[13.50711,52.94238]]}},{"type":"Feature","properties":{"art":"pfad"},"geometry":{"type":"LineString","coordinates":[[13.50782,52.94293],[13.51233,52.94254],[13.51783,52.94206],[13.52179,52.94177]]}},{"type":"Feature","properties":{"art":"pfad"},"geometry":{"type":"LineString","coordinates":[[13.5006,52.9419],[13.50339,52.94248],[13.50377,52.94244]]}},{"type":"Feature","properties":{"art":"pfad"},"geometry":{"type":"LineString","coordinates":[[13.50782,52.94293],[13.50749,52.94296]]}},{"type":"Feature","properties":{"art":"pfad"},"geometry":{"type":"LineString","coordinates":[[13.50703,52.94234],[13.50696,52.94232],[13.50686,52.94229],[13.50655,52.9423],[13.50583,52.94222],[13.5051,52.94221],[13.50411,52.94231],[13.50377,52.94244],[13.50298,52.94274],[13.50232,52.94337],[13.50224,52.94397],[13.50183,52.94454],[13.50182,52.94469],[13.50209,52.94509],[13.50277,52.94538],[13.50288,52.94541],[13.50433,52.94573],[13.50524,52.94582],[13.5061,52.94579],[13.50713,52.94535],[13.5074,52.94524],[13.50745,52.9452],[13.50783,52.94473],[13.50805,52.94421],[13.50812,52.94373],[13.508,52.94327],[13.50782,52.94293],[13.50777,52.94283],[13.5073,52.94246],[13.50711,52.94238],[13.50703,52.94234]]}},{"type":"Feature","properties":{"art":"pfad"},"geometry":{"type":"LineString","coordinates":[[13.51622,52.95784],[13.51618,52.9571],[13.51589,52.95661],[13.51455,52.95187],[13.51406,52.9495],[13.51287,52.94455],[13.51233,52.94254],[13.5116,52.93984],[13.51142,52.93916],[13.51139,52.93905],[13.51055,52.93595],[13.51018,52.93456],[13.50949,52.93212],[13.50893,52.93168],[13.50875,52.93127]]}},{"type":"Feature","properties":{"art":"pfad"},"geometry":{"type":"LineString","coordinates":[[13.50713,52.94535],[13.50694,52.94508]]}},{"type":"Feature","properties":{"art":"pfad"},"geometry":{"type":"LineString","coordinates":[[13.50288,52.94541],[13.50242,52.94546],[13.50184,52.94555],[13.50152,52.9456]]}},{"type":"Feature","properties":{"art":"strasse"},"geometry":{"type":"LineString","coordinates":[[13.47286,52.94346],[13.47329,52.94283],[13.47383,52.94219],[13.47382,52.94195]]}},{"type":"Feature","properties":{"art":"strasse"},"geometry":{"type":"LineString","coordinates":[[13.47099,52.94302],[13.47104,52.94306],[13.47122,52.9431],[13.4719,52.94324],[13.47212,52.94329],[13.47223,52.94332],[13.47286,52.94346],[13.47286,52.94346]]}},{"type":"Feature","properties":{"art":"strasse"},"geometry":{"type":"LineString","coordinates":[[13.47503,52.94326],[13.47464,52.94379],[13.47439,52.94412],[13.47417,52.94433],[13.47367,52.94497]]}},{"type":"Feature","properties":{"art":"strasse"},"geometry":{"type":"LineString","coordinates":[[13.47422,52.94511],[13.47367,52.94497],[13.47334,52.9449],[13.47309,52.94484]]}},{"type":"Feature","properties":{"art":"strasse"},"geometry":{"type":"LineString","coordinates":[[13.46976,52.94407],[13.46952,52.94402]]}},{"type":"Feature","properties":{"art":"strasse"},"geometry":{"type":"LineString","coordinates":[[13.47177,52.94654],[13.47186,52.94639],[13.47195,52.94619]]}},{"type":"Feature","properties":{"art":"strasse"},"geometry":{"type":"LineString","coordinates":[[13.48012,52.9466],[13.47817,52.94613],[13.47672,52.94577],[13.47473,52.94525],[13.47422,52.94511]]}},{"type":"Feature","properties":{"art":"pfad"},"geometry":{"type":"LineString","coordinates":[[13.47473,52.94525],[13.4741,52.94619],[13.47381,52.94668],[13.47354,52.94691],[13.47335,52.94697],[13.473,52.94692]]}},{"type":"Feature","properties":{"art":"strasse"},"geometry":{"type":"LineString","coordinates":[[13.47186,52.94639],[13.47191,52.9464]]}},{"type":"Feature","properties":{"art":"strasse"},"geometry":{"type":"LineString","coordinates":[[13.47171,52.94658],[13.47116,52.94644],[13.47118,52.94641]]}},{"type":"Feature","properties":{"art":"weg"},"geometry":{"type":"LineString","coordinates":[[13.49164,52.95304],[13.4921,52.95238],[13.49499,52.94788],[13.49622,52.94595],[13.49631,52.94579],[13.49641,52.94562]]}},{"type":"Feature","properties":{"art":"pfad"},"geometry":{"type":"LineString","coordinates":[[13.482,52.9507],[13.4823,52.95022],[13.4828,52.94943]]}},{"type":"Feature","properties":{"art":"strasse"},"geometry":{"type":"LineString","coordinates":[[13.48886,52.95604],[13.48877,52.9558],[13.48821,52.95515],[13.48479,52.95154],[13.4828,52.94943],[13.48012,52.9466]]}},{"type":"Feature","properties":{"art":"pfad"},"geometry":{"type":"LineString","coordinates":[[13.482,52.9507],[13.48069,52.95267]]}},{"type":"Feature","properties":{"art":"pfad"},"geometry":{"type":"LineString","coordinates":[[13.46985,52.94823],[13.47599,52.94948],[13.482,52.9507],[13.48351,52.95125],[13.48479,52.95154],[13.48679,52.95198],[13.49164,52.95304],[13.49616,52.95404],[13.50319,52.9556]]}},{"type":"Feature","properties":{"art":"pfad"},"geometry":{"type":"LineString","coordinates":[[13.48582,52.95577],[13.48541,52.95545],[13.4849,52.95511],[13.4847,52.9549],[13.48442,52.9543],[13.4841,52.95369],[13.48392,52.95308],[13.48378,52.95253],[13.48351,52.95125]]}},{"type":"Feature","properties":{"art":"pfad"},"geometry":{"type":"LineString","coordinates":[[13.48069,52.95267],[13.47984,52.95406],[13.47918,52.95514]]}},{"type":"Feature","properties":{"art":"pfad"},"geometry":{"type":"LineString","coordinates":[[13.48885,52.95639],[13.48918,52.95626],[13.48949,52.95602],[13.49164,52.95304]]}},{"type":"Feature","properties":{"art":"pfad"},"geometry":{"type":"LineString","coordinates":[[13.49616,52.95404],[13.49656,52.95547],[13.49679,52.9567]]}},{"type":"Feature","properties":{"art":"pfad"},"geometry":{"type":"LineString","coordinates":[[13.49715,52.95765],[13.49703,52.95723]]}},{"type":"Feature","properties":{"art":"weg"},"geometry":{"type":"LineString","coordinates":[[13.5074,52.94524],[13.50756,52.94597]]}},{"type":"Feature","properties":{"art":"pfad"},"geometry":{"type":"LineString","coordinates":[[13.50086,52.94671],[13.50126,52.94602],[13.50152,52.9456],[13.50173,52.94524],[13.50182,52.94469]]}},{"type":"Feature","properties":{"art":"weg"},"geometry":{"type":"LineString","coordinates":[[13.50756,52.94597],[13.50813,52.94851]]}},{"type":"Feature","properties":{"art":"weg"},"geometry":{"type":"LineString","coordinates":[[13.51111,52.94977],[13.51406,52.9495],[13.51524,52.9494],[13.51958,52.94901],[13.52355,52.94866]]}},{"type":"Feature","properties":{"art":"pfad"},"geometry":{"type":"LineString","coordinates":[[13.50086,52.94671],[13.50079,52.94681],[13.49949,52.94889],[13.49662,52.9535],[13.49616,52.95404]]}},{"type":"Feature","properties":{"art":"pfad"},"geometry":{"type":"LineString","coordinates":[[13.50813,52.94851],[13.50834,52.94894],[13.5087,52.95002],[13.50888,52.95084],[13.50888,52.95139],[13.5087,52.95184],[13.50845,52.9523],[13.50816,52.9527],[13.50837,52.9529]]}},{"type":"Feature","properties":{"art":"pfad"},"geometry":{"type":"LineString","coordinates":[[13.51121,52.94983],[13.51089,52.95018],[13.51063,52.95079],[13.51036,52.95121],[13.50976,52.95168],[13.50947,52.95185],[13.50933,52.9523],[13.50862,52.9528]]}},{"type":"Feature","properties":{"art":"pfad"},"geometry":{"type":"LineString","coordinates":[[13.50862,52.9528],[13.50837,52.9529],[13.50789,52.95315],[13.5074,52.95334]]}},{"type":"Feature","properties":{"art":"weg"},"geometry":{"type":"LineString","coordinates":[[13.52634,52.96002],[13.52284,52.95724],[13.52152,52.9562],[13.52047,52.95536],[13.51455,52.95187],[13.51121,52.94983],[13.51111,52.94977],[13.50978,52.94892],[13.50813,52.94851]]}},{"type":"Feature","properties":{"art":"weg"},"geometry":{"type":"LineString","coordinates":[[13.48855,52.95681],[13.48865,52.95697],[13.4889,52.95713],[13.4889,52.95714],[13.49038,52.95751],[13.49187,52.9577],[13.49364,52.95793],[13.49677,52.95768],[13.49715,52.95765],[13.50048,52.95735],[13.50304,52.95723],[13.5053,52.95834],[13.5065,52.95867],[13.50843,52.95904],[13.50918,52.95912],[13.51045,52.95887],[13.51091,52.95838],[13.51227,52.95813],[13.51396,52.95805],[13.51622,52.95784],[13.5218,52.95733],[13.52284,52.95724],[13.52562,52.95702]]}},{"type":"Feature","properties":{"art":"pfad"},"geometry":{"type":"LineString","coordinates":[[13.47167,52.94659],[13.4727,52.94687],[13.47283,52.94692],[13.473,52.94692]]}},{"type":"Feature","properties":{"art":"pfad"},"geometry":{"type":"LineString","coordinates":[[13.4726,52.95464],[13.47388,52.95273],[13.47599,52.94948],[13.47817,52.94613]]}},{"type":"Feature","properties":{"art":"pfad"},"geometry":{"type":"LineString","coordinates":[[13.47984,52.95406],[13.47388,52.95273]]}},{"type":"Feature","properties":{"art":"weg"},"geometry":{"type":"LineString","coordinates":[[13.48874,52.95655],[13.48864,52.95651],[13.48833,52.9564],[13.48731,52.95618],[13.48582,52.95577],[13.48521,52.95561],[13.48388,52.95541],[13.48256,52.95545],[13.48006,52.95522],[13.47918,52.95514],[13.47632,52.95489],[13.47564,52.95477],[13.47297,52.95468],[13.4726,52.95464],[13.47126,52.9545],[13.47068,52.95456],[13.46984,52.95447],[13.46899,52.95426],[13.46782,52.9539],[13.46692,52.95352],[13.4664,52.95339],[13.46552,52.95332]]}},{"type":"Feature","properties":{"art":"pfad"},"geometry":{"type":"LineString","coordinates":[[13.47651,52.95905],[13.47596,52.9591],[13.47516,52.95924],[13.47495,52.95927]]}},{"type":"Feature","properties":{"art":"pfad"},"geometry":{"type":"LineString","coordinates":[[13.47651,52.95905],[13.47576,52.96025]]}},{"type":"Feature","properties":{"art":"weg"},"geometry":{"type":"LineString","coordinates":[[13.48424,52.96197],[13.48288,52.96156],[13.48135,52.96127],[13.47725,52.96037],[13.47627,52.96024],[13.47576,52.96025],[13.47552,52.96025],[13.47467,52.96016],[13.47456,52.96017]]}},{"type":"Feature","properties":{"art":"weg"},"geometry":{"type":"LineString","coordinates":[[13.46926,52.96124],[13.46872,52.96121],[13.46823,52.9611],[13.46802,52.96105],[13.46509,52.95962],[13.46445,52.95923],[13.46433,52.95918]]}},{"type":"Feature","properties":{"art":"weg"},"geometry":{"type":"LineString","coordinates":[[13.5065,52.95867],[13.50235,52.9591],[13.49764,52.95944],[13.49336,52.95982]]}},{"type":"Feature","properties":{"art":"weg"},"geometry":{"type":"LineString","coordinates":[[13.52663,52.96114],[13.5228,52.9615],[13.52207,52.96155],[13.52087,52.96164],[13.5204,52.96161],[13.51995,52.96152],[13.51953,52.96142],[13.51921,52.96131],[13.51891,52.96116],[13.51858,52.9611],[13.5179,52.96105],[13.51745,52.96096],[13.51697,52.96085],[13.51689,52.96081],[13.51602,52.96055],[13.51521,52.96033],[13.51425,52.96002],[13.51314,52.95973],[13.51204,52.95954],[13.50918,52.95912]]}},{"type":"Feature","properties":{"art":"weg"},"geometry":{"type":"LineString","coordinates":[[13.49187,52.9577],[13.49265,52.95801],[13.49279,52.95816],[13.49295,52.95847],[13.49302,52.95907],[13.49336,52.95982],[13.49364,52.96014],[13.49493,52.96103],[13.49658,52.96195],[13.49693,52.96203],[13.49812,52.9623],[13.49947,52.96259],[13.50019,52.96372],[13.5007,52.96418],[13.50173,52.96482],[13.5025,52.9651],[13.50358,52.96602],[13.50475,52.96616],[13.50521,52.96636],[13.50588,52.96669],[13.51088,52.96627]]}},{"type":"Feature","properties":{"art":"weg"},"geometry":{"type":"LineString","coordinates":[[13.49947,52.96259],[13.50058,52.96267],[13.50133,52.96274],[13.50154,52.96276],[13.5018,52.96275],[13.50204,52.9627],[13.50256,52.96251],[13.5028,52.96244],[13.50308,52.96237],[13.50324,52.96236],[13.5034,52.96238],[13.50368,52.96244],[13.50397,52.96253],[13.50422,52.96257],[13.50441,52.96258],[13.50472,52.96255],[13.50541,52.96252],[13.5099,52.96214]]}},{"type":"Feature","properties":{"art":"weg"},"geometry":{"type":"LineString","coordinates":[[13.52814,52.96268],[13.52786,52.96275],[13.52708,52.96288],[13.52635,52.96314],[13.52593,52.96337],[13.52562,52.9637],[13.52542,52.96397],[13.52528,52.96431],[13.52522,52.96459],[13.52525,52.96483],[13.52522,52.96498],[13.52516,52.96509],[13.52503,52.96517],[13.52488,52.96522],[13.52466,52.96526],[13.52389,52.96528],[13.51936,52.96564],[13.51809,52.96574],[13.51088,52.96627]]}},{"type":"Feature","properties":{"art":"weg"},"geometry":{"type":"LineString","coordinates":[[13.50918,52.95912],[13.5099,52.96214],[13.51088,52.96627],[13.51154,52.96901],[13.51281,52.97437],[13.51351,52.97509]]}},{"type":"Feature","properties":{"art":"weg"},"geometry":{"type":"LineString","coordinates":[[13.49767,52.96902],[13.49806,52.96897],[13.49858,52.96884],[13.49909,52.96871],[13.4993,52.9686],[13.49963,52.96836],[13.49989,52.96828],[13.50015,52.96817],[13.50029,52.96808],[13.50029,52.96807]]}},{"type":"Feature","properties":{"art":"weg"},"geometry":{"type":"LineString","coordinates":[[13.50036,52.96794],[13.50036,52.96794],[13.50048,52.96772],[13.50064,52.96752],[13.50116,52.96746],[13.50194,52.96744],[13.5029,52.96739],[13.50336,52.96738],[13.50376,52.96722],[13.50426,52.96699],[13.50442,52.96683],[13.50483,52.96683],[13.50557,52.96672],[13.50588,52.96669]]}},{"type":"Feature","properties":{"art":"pfad"},"geometry":{"type":"LineString","coordinates":[[13.51154,52.96901],[13.51315,52.96878],[13.51483,52.96862],[13.51597,52.96854],[13.51799,52.96836],[13.51834,52.96829],[13.51857,52.96822],[13.5187,52.9682]]}},{"type":"Feature","properties":{"art":"weg"},"geometry":{"type":"LineString","coordinates":[[13.51476,52.97939],[13.51358,52.97513],[13.51351,52.97509],[13.51335,52.975],[13.51242,52.97461],[13.50031,52.97006],[13.49741,52.96897],[13.49725,52.96891],[13.49689,52.96875]]}},{"type":"Feature","properties":{"art":"weg"},"geometry":{"type":"LineString","coordinates":[[13.49715,52.95765],[13.49764,52.95944]]}},{"type":"Feature","properties":{"art":"pfad"},"geometry":{"type":"LineString","coordinates":[[13.48509,52.95899],[13.48463,52.95902],[13.48375,52.95907],[13.48269,52.95907],[13.48012,52.95903],[13.47651,52.95905]]}},{"type":"Feature","properties":{"art":"pfad"},"geometry":{"type":"LineString","coordinates":[[13.49764,52.95944],[13.49812,52.9623]]}},{"type":"Feature","properties":{"art":"pfad"},"geometry":{"type":"LineString","coordinates":[[13.48783,52.96533],[13.48492,52.9642]]}},{"type":"Feature","properties":{"art":"weg"},"geometry":{"type":"LineString","coordinates":[[13.48783,52.96533],[13.48852,52.96439]]}},{"type":"Feature","properties":{"art":"pfad"},"geometry":{"type":"LineString","coordinates":[[13.48755,52.96574],[13.48783,52.96533]]}},{"type":"Feature","properties":{"art":"weg"},"geometry":{"type":"LineString","coordinates":[[13.49689,52.96875],[13.49647,52.96847],[13.49618,52.96823],[13.49566,52.9678],[13.49484,52.96697],[13.49459,52.96674],[13.49401,52.96644],[13.49325,52.96621]]}},{"type":"Feature","properties":{"art":"weg"},"geometry":{"type":"LineString","coordinates":[[13.49757,52.96903],[13.49767,52.96902]]}},{"type":"Feature","properties":{"art":"pfad"},"geometry":{"type":"LineString","coordinates":[[13.49632,52.96908],[13.49741,52.96897]]}},{"type":"Feature","properties":{"art":"strasse"},"geometry":{"type":"LineString","coordinates":[[13.48508,52.96481],[13.48492,52.9642],[13.48461,52.96303],[13.48442,52.96244],[13.48431,52.96214],[13.48424,52.96197],[13.48392,52.96113],[13.48388,52.96035],[13.48424,52.95973],[13.48467,52.95938],[13.48509,52.95899],[13.48521,52.95888],[13.48598,52.9584],[13.48748,52.95754],[13.48805,52.95717],[13.48855,52.95681],[13.48874,52.95655],[13.48885,52.95639],[13.48886,52.95604]]}},{"type":"Feature","properties":{"art":"weg"},"geometry":{"type":"LineString","coordinates":[[13.49243,52.9676],[13.49274,52.96711],[13.49309,52.96659],[13.49327,52.96624],[13.49325,52.96621],[13.4932,52.96613],[13.49299,52.96606],[13.49282,52.96599],[13.49233,52.96562],[13.49107,52.96502],[13.49021,52.96469],[13.48973,52.96458],[13.48892,52.96446],[13.48852,52.96439],[13.48772,52.96424],[13.48693,52.96394],[13.4862,52.9635],[13.48541,52.96282],[13.48431,52.96214]]}},{"type":"Feature","properties":{"art":"pfad"},"geometry":{"type":"LineString","coordinates":[[13.45855,52.95626],[13.4604,52.95349],[13.46148,52.95179]]}},{"type":"Feature","properties":{"art":"weg"},"geometry":{"type":"LineString","coordinates":[[13.46433,52.95918],[13.45954,52.9595]]}},{"type":"Feature","properties":{"art":"weg"},"geometry":{"type":"LineString","coordinates":[[13.4585,52.95803],[13.45874,52.95845],[13.45884,52.95863],[13.45954,52.9595],[13.45991,52.95993],[13.46025,52.96049],[13.46025,52.96072],[13.46012,52.96078],[13.46005,52.96082],[13.45896,52.9608],[13.45821,52.96071],[13.45792,52.96065],[13.45733,52.96236],[13.45724,52.96259],[13.45654,52.96267],[13.45563,52.96251],[13.45553,52.96252],[13.45543,52.96254],[13.45535,52.96257],[13.45521,52.96269],[13.45499,52.96292]]}},{"type":"Feature","properties":{"art":"pfad"},"geometry":{"type":"LineString","coordinates":[[13.46012,52.96078],[13.46041,52.96111],[13.46068,52.96134],[13.46102,52.96166],[13.46105,52.96171],[13.461,52.96181],[13.46093,52.96185],[13.46014,52.96204]]}},{"type":"Feature","properties":{"art":"pfad"},"geometry":{"type":"LineString","coordinates":[[13.46014,52.96204],[13.45981,52.96209],[13.45937,52.96223],[13.45862,52.96241],[13.45821,52.96244],[13.45748,52.96259],[13.45724,52.96259]]}},{"type":"Feature","properties":{"art":"weg"},"geometry":{"type":"LineString","coordinates":[[13.46669,52.95319],[13.46671,52.95329],[13.4668,52.95342],[13.46692,52.95352]]}},{"type":"Feature","properties":{"art":"weg"},"geometry":{"type":"LineString","coordinates":[[13.47029,52.95954],[13.47002,52.95955],[13.46929,52.95953],[13.46829,52.95953],[13.46684,52.9595],[13.46523,52.95941],[13.46433,52.95918],[13.46405,52.95906],[13.46241,52.9582],[13.46156,52.95784],[13.46131,52.95781],[13.4603,52.95784],[13.45989,52.9579],[13.45945,52.95799],[13.45912,52.95802],[13.4585,52.95803]]}},{"type":"Feature","properties":{"art":"pfad"},"geometry":{"type":"LineString","coordinates":[[13.46823,52.9611],[13.46929,52.95953]]}},{"type":"Feature","properties":{"art":"pfad"},"geometry":{"type":"LineString","coordinates":[[13.48492,52.9642],[13.48363,52.96417],[13.48351,52.96421]]}},{"type":"Feature","properties":{"art":"pfad"},"geometry":{"type":"LineString","coordinates":[[13.48335,52.96426],[13.48332,52.96427],[13.48331,52.96428]]}},{"type":"Feature","properties":{"art":"pfad"},"geometry":{"type":"LineString","coordinates":[[13.48125,52.96522],[13.48076,52.96538]]}},{"type":"Feature","properties":{"art":"pfad"},"geometry":{"type":"LineString","coordinates":[[13.47763,52.9665],[13.47751,52.96655],[13.47664,52.96684],[13.4759,52.96715]]}}]}