{"type":"FeatureCollection","features":[{"type":"Feature","properties":{"art":"weg"},"geometry":{"type":"LineString","coordinates":[[13.50893,52.77773],[13.50889,52.77804],[13.50875,52.77838],[13.5088,52.77862],[13.5091,52.77916],[13.5092,52.77939],[13.50925,52.77964],[13.5091,52.78029],[13.50901,52.78076],[13.50913,52.781],[13.5099,52.78179],[13.51033,52.78221],[13.51076,52.78252],[13.51076,52.78259],[13.5104,52.78372],[13.5104,52.78398],[13.51077,52.78506],[13.51095,52.78599],[13.51112,52.78639],[13.51144,52.78705],[13.51159,52.78792],[13.51177,52.78847],[13.51179,52.78866],[13.51168,52.78929],[13.51163,52.78953],[13.51166,52.78984],[13.51159,52.79065],[13.51163,52.79097],[13.51175,52.79139],[13.51176,52.79153],[13.51168,52.79204],[13.51157,52.79249],[13.51107,52.79413],[13.51078,52.79505],[13.51066,52.79527],[13.50985,52.7963],[13.51002,52.79768],[13.51002,52.79773],[13.51005,52.79782]]}},{"type":"Feature","properties":{"art":"pfad"},"geometry":{"type":"LineString","coordinates":[[13.51428,52.78546],[13.51444,52.78581],[13.51452,52.78599],[13.51455,52.78615],[13.51455,52.78624],[13.51457,52.78633],[13.51461,52.78639],[13.51467,52.78643],[13.51475,52.78644],[13.51479,52.78644],[13.51485,52.7864],[13.51491,52.78639],[13.51499,52.78638],[13.51513,52.7864],[13.51533,52.78645],[13.51546,52.7865],[13.51551,52.78655],[13.51558,52.78661],[13.51563,52.78662],[13.51572,52.78664],[13.51582,52.78662],[13.51589,52.78662],[13.51594,52.78664],[13.5161,52.78677],[13.51623,52.78683],[13.51641,52.7869],[13.51653,52.78699],[13.5167,52.78716],[13.51673,52.78722],[13.51673,52.78728],[13.5167,52.78731],[13.51662,52.78733],[13.51628,52.7874],[13.5161,52.78743],[13.51596,52.78746],[13.51584,52.78753],[13.51576,52.7876],[13.51572,52.78765],[13.51569,52.7877],[13.51568,52.78774],[13.51567,52.78781],[13.51567,52.78788],[13.51569,52.78797],[13.51569,52.78804],[13.51569,52.78807],[13.51565,52.78814],[13.51565,52.78817],[13.51567,52.78822],[13.51576,52.78836],[13.51584,52.78849],[13.51587,52.78858],[13.51588,52.78864],[13.51607,52.78883],[13.51617,52.78891],[13.51624,52.78895],[13.51632,52.78898],[13.51638,52.78898],[13.51655,52.78898],[13.51675,52.78899],[13.5169,52.78901],[13.51699,52.78904],[13.51715,52.78911],[13.51802,52.78976],[13.51872,52.79028],[13.51891,52.79041],[13.51905,52.79048],[13.51929,52.79055],[13.51958,52.79062],[13.5198,52.79064],[13.51995,52.79065],[13.52032,52.79069]]}},{"type":"Feature","properties":{"art":"pfad"},"geometry":{"type":"LineString","coordinates":[[13.51726,52.78758],[13.51675,52.78839],[13.51686,52.78868]]}},{"type":"Feature","properties":{"art":"pfad"},"geometry":{"type":"LineString","coordinates":[[13.5196,52.78795],[13.51675,52.78839],[13.51617,52.7885]]}},{"type":"Feature","properties":{"art":"pfad"},"geometry":{"type":"LineString","coordinates":[[13.50901,52.78973],[13.51168,52.78929]]}},{"type":"Feature","properties":{"art":"weg"},"geometry":{"type":"LineString","coordinates":[[13.51175,52.79139],[13.51349,52.79129],[13.51473,52.79123],[13.51588,52.79118],[13.51854,52.79114],[13.51976,52.79112],[13.52045,52.7911]]}},{"type":"Feature","properties":{"art":"pfad"},"geometry":{"type":"LineString","coordinates":[[13.51723,52.79627],[13.51718,52.79621],[13.51713,52.79614],[13.51673,52.79529],[13.51672,52.79506],[13.51682,52.79495],[13.5171,52.79482],[13.51747,52.79462],[13.51859,52.7938],[13.51937,52.79359],[13.51943,52.79355],[13.51999,52.79269],[13.52027,52.79215],[13.52036,52.79184],[13.52045,52.7911],[13.52047,52.79083],[13.52032,52.79069],[13.5203,52.79049],[13.51992,52.79012],[13.51972,52.78985],[13.51961,52.78966],[13.51944,52.78879],[13.5196,52.78795]]}},{"type":"Feature","properties":{"art":"pfad"},"geometry":{"type":"LineString","coordinates":[[13.49955,52.79576],[13.49963,52.79574],[13.49971,52.79574],[13.5005,52.79596],[13.50092,52.79607],[13.50105,52.79611],[13.50143,52.79621],[13.50248,52.7965],[13.50295,52.79661],[13.50321,52.79667],[13.50345,52.7967],[13.5038,52.79676],[13.50416,52.79678],[13.5048,52.79689],[13.50571,52.79705],[13.50591,52.79712],[13.50613,52.79716],[13.50651,52.79727],[13.5069,52.79736],[13.5072,52.79743],[13.50757,52.79753],[13.50778,52.79756],[13.50809,52.79762],[13.50867,52.79769],[13.50897,52.79772],[13.50926,52.79773],[13.51002,52.79773],[13.51033,52.79769],[13.51071,52.79762],[13.51106,52.79756],[13.51154,52.79744],[13.51164,52.79741]]}},{"type":"Feature","properties":{"art":"pfad"},"geometry":{"type":"LineString","coordinates":[[13.51578,52.79646],[13.51635,52.79635],[13.51718,52.79621],[13.51726,52.7962],[13.51795,52.79607],[13.51844,52.79595],[13.519,52.79573],[13.51957,52.79549],[13.52013,52.79525],[13.52075,52.795],[13.52132,52.79481],[13.52154,52.79476],[13.52217,52.79462],[13.52336,52.79437],[13.52368,52.7943],[13.52441,52.79416],[13.52529,52.79398],[13.52666,52.79369],[13.52725,52.79356],[13.52777,52.79346],[13.52817,52.79339],[13.52858,52.79331],[13.52939,52.79312],[13.53036,52.79293],[13.5309,52.79282],[13.5313,52.79272],[13.53175,52.79265],[13.53264,52.79247],[13.53401,52.7922],[13.53479,52.79206],[13.53525,52.79198],[13.53551,52.79194],[13.53557,52.79193],[13.53624,52.79189],[13.53692,52.79189],[13.53711,52.7919],[13.5373,52.79192],[13.53774,52.79198],[13.53908,52.79218],[13.53985,52.79229],[13.5402,52.79234],[13.54074,52.79239],[13.54113,52.7924]]}},{"type":"Feature","properties":{"art":"strasse"},"geometry":{"type":"LineString","coordinates":[[13.50055,52.79604],[13.50087,52.79613],[13.5025,52.79657],[13.50306,52.7967],[13.50375,52.79682],[13.50507,52.79704],[13.50747,52.79763],[13.50772,52.79769],[13.50797,52.79773],[13.50859,52.79781],[13.5089,52.79784],[13.50921,52.79784],[13.50975,52.79784],[13.51005,52.79782],[13.5102,52.7978],[13.51054,52.79776],[13.51089,52.79769],[13.51158,52.79753],[13.51194,52.79743]]}},{"type":"Feature","properties":{"art":"strasse"},"geometry":{"type":"LineString","coordinates":[[13.51594,52.79652],[13.51723,52.79627],[13.51855,52.796],[13.5189,52.79589],[13.51929,52.79575],[13.52,52.79545],[13.52072,52.79515],[13.52145,52.79489],[13.52182,52.7948],[13.52218,52.79471],[13.52341,52.79446],[13.52412,52.79432]]}},{"type":"Feature","properties":{"art":"pfad"},"geometry":{"type":"LineString","coordinates":[[13.50687,52.78425],[13.50654,52.78516],[13.50646,52.78575],[13.50631,52.78762],[13.50584,52.78873],[13.50564,52.78896],[13.5028,52.78936]]}},{"type":"Feature","properties":{"art":"pfad"},"geometry":{"type":"LineString","coordinates":[[13.50268,52.78936],[13.50201,52.78907],[13.50209,52.78829],[13.50329,52.78802]]}},{"type":"Feature","properties":{"art":"pfad"},"geometry":{"type":"LineString","coordinates":[[13.50011,52.78932],[13.49823,52.78929]]}},{"type":"Feature","properties":{"art":"pfad"},"geometry":{"type":"LineString","coordinates":[[13.50287,52.79054],[13.5028,52.78936],[13.50268,52.78936],[13.50011,52.78932]]}},{"type":"Feature","properties":{"art":"weg"},"geometry":{"type":"LineString","coordinates":[[13.50275,52.79161],[13.50278,52.79137],[13.50287,52.79054],[13.50276,52.79045],[13.50164,52.79029]]}},{"type":"Feature","properties":{"art":"strasse"},"geometry":{"type":"LineString","coordinates":[[13.4979,52.79059],[13.49777,52.79081]]}},{"type":"Feature","properties":{"art":"strasse"},"geometry":{"type":"LineString","coordinates":[[13.50268,52.79137],[13.50278,52.79137]]}},{"type":"Feature","properties":{"art":"pfad"},"geometry":{"type":"LineString","coordinates":[[13.49421,52.79047],[13.49432,52.79043],[13.49438,52.79039],[13.4944,52.79031],[13.4944,52.79016],[13.49442,52.79001],[13.49447,52.78979],[13.49457,52.78944],[13.49459,52.78927],[13.49823,52.78929]]}},{"type":"Feature","properties":{"art":"pfad"},"geometry":{"type":"LineString","coordinates":[[13.50282,52.79161],[13.50286,52.79161],[13.50558,52.79164],[13.50674,52.79172],[13.51175,52.79139]]}},{"type":"Feature","properties":{"art":"strasse"},"geometry":{"type":"LineString","coordinates":[[13.5013,52.79158],[13.50131,52.79155]]}},{"type":"Feature","properties":{"art":"strasse"},"geometry":{"type":"LineString","coordinates":[[13.5004,52.79157],[13.50041,52.79154]]}},{"type":"Feature","properties":{"art":"strasse"},"geometry":{"type":"LineString","coordinates":[[13.49967,52.79162],[13.49969,52.79158]]}},{"type":"Feature","properties":{"art":"strasse"},"geometry":{"type":"LineString","coordinates":[[13.49908,52.79186],[13.49909,52.7919]]}},{"type":"Feature","properties":{"art":"strasse"},"geometry":{"type":"LineString","coordinates":[[13.49909,52.79185],[13.49916,52.79189],[13.49922,52.79213]]}},{"type":"Feature","properties":{"art":"strasse"},"geometry":{"type":"LineString","coordinates":[[13.50282,52.79161],[13.50275,52.79161],[13.50221,52.79162],[13.50174,52.79158],[13.5013,52.79158],[13.5004,52.79157],[13.50015,52.79157],[13.49967,52.79162],[13.49924,52.79167]]}},{"type":"Feature","properties":{"art":"strasse"},"geometry":{"type":"LineString","coordinates":[[13.49557,52.7926],[13.49557,52.79264],[13.49556,52.79281],[13.49653,52.79309]]}},{"type":"Feature","properties":{"art":"strasse"},"geometry":{"type":"LineString","coordinates":[[13.49557,52.79264],[13.49534,52.79268]]}},{"type":"Feature","properties":{"art":"strasse"},"geometry":{"type":"LineString","coordinates":[[13.49368,52.79409],[13.49352,52.79402],[13.49322,52.79388]]}},{"type":"Feature","properties":{"art":"strasse"},"geometry":{"type":"LineString","coordinates":[[13.49354,52.7932],[13.49364,52.79322],[13.4937,52.79322],[13.49395,52.79328],[13.49396,52.7933]]}},{"type":"Feature","properties":{"art":"strasse"},"geometry":{"type":"LineString","coordinates":[[13.49754,52.79325],[13.49749,52.79336],[13.49737,52.79362],[13.49734,52.79368]]}},{"type":"Feature","properties":{"art":"strasse"},"geometry":{"type":"LineString","coordinates":[[13.4981,52.79304],[13.49828,52.79307]]}},{"type":"Feature","properties":{"art":"strasse"},"geometry":{"type":"LineString","coordinates":[[13.49749,52.79336],[13.49789,52.79342]]}},{"type":"Feature","properties":{"art":"strasse"},"geometry":{"type":"LineString","coordinates":[[13.49737,52.79362],[13.49785,52.7937]]}},{"type":"Feature","properties":{"art":"strasse"},"geometry":{"type":"LineString","coordinates":[[13.49726,52.79514],[13.49732,52.79506]]}},{"type":"Feature","properties":{"art":"strasse"},"geometry":{"type":"LineString","coordinates":[[13.49782,52.79529],[13.49784,52.7952]]}},{"type":"Feature","properties":{"art":"strasse"},"geometry":{"type":"LineString","coordinates":[[13.49832,52.79577],[13.49853,52.79549]]}},{"type":"Feature","properties":{"art":"strasse"},"geometry":{"type":"LineString","coordinates":[[13.49843,52.79579],[13.49862,52.79551]]}},{"type":"Feature","properties":{"art":"strasse"},"geometry":{"type":"LineString","coordinates":[[13.50055,52.79604],[13.50054,52.79604],[13.50037,52.79599],[13.49955,52.79576]]}},{"type":"Feature","properties":{"art":"strasse"},"geometry":{"type":"LineString","coordinates":[[13.49368,52.79409],[13.49376,52.79401],[13.49382,52.79393],[13.49389,52.7938],[13.49383,52.79376],[13.49378,52.79373],[13.49382,52.79367]]}},{"type":"Feature","properties":{"art":"pfad"},"geometry":{"type":"LineString","coordinates":[[13.4935,52.79395],[13.49324,52.79384]]}},{"type":"Feature","properties":{"art":"strasse"},"geometry":{"type":"LineString","coordinates":[[13.4887,52.79706],[13.48872,52.79673]]}},{"type":"Feature","properties":{"art":"weg"},"geometry":{"type":"LineString","coordinates":[[13.4487,52.79394],[13.44908,52.79374],[13.44932,52.79362],[13.44976,52.79339],[13.45039,52.79307]]}},{"type":"Feature","properties":{"art":"weg"},"geometry":{"type":"LineString","coordinates":[[13.44769,52.79791],[13.4477,52.7978],[13.4477,52.79777]]}},{"type":"Feature","properties":{"art":"weg"},"geometry":{"type":"LineString","coordinates":[[13.46424,52.79856],[13.46444,52.79768]]}},{"type":"Feature","properties":{"art":"pfad"},"geometry":{"type":"LineString","coordinates":[[13.44671,52.7979],[13.44671,52.79796]]}},{"type":"Feature","properties":{"art":"pfad"},"geometry":{"type":"LineString","coordinates":[[13.46626,52.79854],[13.46638,52.79853],[13.4666,52.79851],[13.46768,52.79832],[13.46838,52.79823],[13.46876,52.79824],[13.4691,52.79823],[13.46935,52.79818],[13.4694,52.79816],[13.46952,52.79816],[13.46971,52.79812],[13.46983,52.79806],[13.46985,52.79803],[13.46987,52.798]]}},{"type":"Feature","properties":{"art":"weg"},"geometry":{"type":"LineString","coordinates":[[13.4477,52.79811],[13.44769,52.79791]]}},{"type":"Feature","properties":{"art":"pfad"},"geometry":{"type":"LineString","coordinates":[[13.46114,52.79883],[13.46113,52.79849],[13.46109,52.79839]]}},{"type":"Feature","properties":{"art":"pfad"},"geometry":{"type":"LineString","coordinates":[[13.46626,52.79854],[13.46424,52.79856],[13.46114,52.79883],[13.46073,52.79885],[13.46027,52.79885],[13.45877,52.79896],[13.4571,52.79896],[13.45405,52.79873],[13.45317,52.79853],[13.45255,52.79848],[13.45084,52.79846],[13.44989,52.79836],[13.44774,52.79851]]}},{"type":"Feature","properties":{"art":"pfad"},"geometry":{"type":"LineString","coordinates":[[13.46073,52.79885],[13.4608,52.79899],[13.46064,52.79931],[13.46037,52.79992],[13.46165,52.79993],[13.4626,52.79991],[13.46295,52.79994],[13.46306,52.80002]]}},{"type":"Feature","properties":{"art":"strasse"},"geometry":{"type":"LineString","coordinates":[[13.47136,52.79781],[13.4735,52.79758]]}},{"type":"Feature","properties":{"art":"strasse"},"geometry":{"type":"LineString","coordinates":[[13.46987,52.798],[13.46989,52.79774]]}},{"type":"Feature","properties":{"art":"strasse"},"geometry":{"type":"LineString","coordinates":[[13.46931,52.79774],[13.46927,52.79811]]}},{"type":"Feature","properties":{"art":"strasse"},"geometry":{"type":"LineString","coordinates":[[13.46987,52.798],[13.47034,52.79794]]}},{"type":"Feature","properties":{"art":"strasse"},"geometry":{"type":"LineString","coordinates":[[13.47066,52.7979],[13.47136,52.79781]]}},{"type":"Feature","properties":{"art":"strasse"},"geometry":{"type":"LineString","coordinates":[[13.46964,52.79804],[13.46962,52.79792]]}},{"type":"Feature","properties":{"art":"strasse"},"geometry":{"type":"LineString","coordinates":[[13.46927,52.79811],[13.46946,52.79807],[13.46964,52.79804],[13.46987,52.798]]}},{"type":"Feature","properties":{"art":"pfad"},"geometry":{"type":"LineString","coordinates":[[13.4694,52.79816],[13.46946,52.79807]]}},{"type":"Feature","properties":{"art":"strasse"},"geometry":{"type":"LineString","coordinates":[[13.47058,52.79977],[13.47071,52.79969],[13.47095,52.79965],[13.47126,52.79967],[13.47147,52.7997]]}},{"type":"Feature","properties":{"art":"strasse"},"geometry":{"type":"LineString","coordinates":[[13.46998,52.79998],[13.47034,52.79981],[13.47041,52.79978],[13.4705,52.79976],[13.47054,52.79976],[13.47058,52.79977],[13.47061,52.79979],[13.47063,52.79983],[13.47067,52.79987],[13.47071,52.79992],[13.47076,52.79996],[13.47082,52.8],[13.47087,52.80004]]}},{"type":"Feature","properties":{"art":"strasse"},"geometry":{"type":"LineString","coordinates":[[13.48615,52.79701],[13.48616,52.79697],[13.48622,52.79666],[13.4863,52.79664],[13.48658,52.79666]]}},{"type":"Feature","properties":{"art":"strasse"},"geometry":{"type":"LineString","coordinates":[[13.48721,52.79703],[13.48723,52.79693],[13.48723,52.79691],[13.48727,52.79671],[13.48738,52.79671]]}},{"type":"Feature","properties":{"art":"strasse"},"geometry":{"type":"LineString","coordinates":[[13.48582,52.79701],[13.48584,52.79682],[13.48585,52.79671]]}},{"type":"Feature","properties":{"art":"strasse"},"geometry":{"type":"LineString","coordinates":[[13.48454,52.79702],[13.48455,52.79698]]}},{"type":"Feature","properties":{"art":"strasse"},"geometry":{"type":"LineString","coordinates":[[13.4877,52.79704],[13.48721,52.79703],[13.48651,52.79702],[13.48615,52.79701],[13.48582,52.79701],[13.48555,52.797]]}},{"type":"Feature","properties":{"art":"strasse"},"geometry":{"type":"LineString","coordinates":[[13.48528,52.797],[13.48455,52.79698],[13.48405,52.79697],[13.48349,52.79698],[13.48323,52.797]]}},{"type":"Feature","properties":{"art":"strasse"},"geometry":{"type":"LineString","coordinates":[[13.48245,52.79768],[13.48239,52.79773]]}},{"type":"Feature","properties":{"art":"strasse"},"geometry":{"type":"LineString","coordinates":[[13.48313,52.79813],[13.48325,52.79805]]}},{"type":"Feature","properties":{"art":"strasse"},"geometry":{"type":"LineString","coordinates":[[13.48395,52.79854],[13.48373,52.79861],[13.48325,52.79878]]}},{"type":"Feature","properties":{"art":"strasse"},"geometry":{"type":"LineString","coordinates":[[13.48196,52.79744],[13.48245,52.79768],[13.48325,52.79805],[13.48359,52.79824],[13.48395,52.79854],[13.48399,52.79858],[13.48412,52.79869],[13.48423,52.79878],[13.48425,52.79881],[13.48448,52.79908],[13.48452,52.79912],[13.4847,52.79935],[13.48471,52.79937],[13.48474,52.79941],[13.48481,52.79953],[13.48491,52.79969],[13.48509,52.79999],[13.4854,52.80061]]}},{"type":"Feature","properties":{"art":"strasse"},"geometry":{"type":"LineString","coordinates":[[13.48324,52.80048],[13.48315,52.80041],[13.48302,52.80029],[13.48293,52.80021],[13.48284,52.80014],[13.48281,52.80011]]}},{"type":"Feature","properties":{"art":"strasse"},"geometry":{"type":"LineString","coordinates":[[13.48293,52.80021],[13.48312,52.80014]]}},{"type":"Feature","properties":{"art":"strasse"},"geometry":{"type":"LineString","coordinates":[[13.48315,52.80041],[13.4835,52.80028]]}},{"type":"Feature","properties":{"art":"strasse"},"geometry":{"type":"LineString","coordinates":[[13.48921,52.79708],[13.48921,52.79704],[13.48925,52.79695],[13.4893,52.79682],[13.48931,52.79675]]}},{"type":"Feature","properties":{"art":"strasse"},"geometry":{"type":"LineString","coordinates":[[13.48651,52.79702],[13.48653,52.79691]]}},{"type":"Feature","properties":{"art":"strasse"},"geometry":{"type":"LineString","coordinates":[[13.48808,52.79705],[13.48809,52.79701]]}},{"type":"Feature","properties":{"art":"strasse"},"geometry":{"type":"LineString","coordinates":[[13.4887,52.79706],[13.48825,52.79705],[13.48808,52.79705],[13.48785,52.79704],[13.4877,52.79704]]}},{"type":"Feature","properties":{"art":"strasse"},"geometry":{"type":"LineString","coordinates":[[13.48964,52.7971],[13.48964,52.79705]]}},{"type":"Feature","properties":{"art":"pfad"},"geometry":{"type":"LineString","coordinates":[[13.48753,52.7989],[13.48756,52.79876],[13.48751,52.79828]]}},{"type":"Feature","properties":{"art":"pfad"},"geometry":{"type":"LineString","coordinates":[[13.49113,52.79959],[13.49077,52.79954],[13.49028,52.79937],[13.49018,52.79926],[13.48978,52.79895],[13.48847,52.79841],[13.48819,52.79833],[13.48793,52.79832],[13.4878,52.79829],[13.48765,52.79829],[13.48751,52.79828]]}},{"type":"Feature","properties":{"art":"pfad"},"geometry":{"type":"LineString","coordinates":[[13.48825,52.79705],[13.48799,52.79774],[13.48793,52.79832],[13.488,52.80028],[13.48798,52.80069],[13.48815,52.80217]]}},{"type":"Feature","properties":{"art":"pfad"},"geometry":{"type":"LineString","coordinates":[[13.48798,52.80229],[13.48815,52.80217],[13.4892,52.80069],[13.49018,52.79926],[13.49102,52.79818],[13.49122,52.79786],[13.49126,52.79779],[13.49117,52.79762],[13.49085,52.79748],[13.49078,52.79715]]}},{"type":"Feature","properties":{"art":"pfad"},"geometry":{"type":"LineString","coordinates":[[13.48546,52.80062],[13.486,52.80036],[13.48608,52.8003],[13.48636,52.79996],[13.48653,52.79966],[13.48676,52.7995],[13.48733,52.79932],[13.48743,52.79915],[13.48753,52.7989]]}},{"type":"Feature","properties":{"art":"strasse"},"geometry":{"type":"LineString","coordinates":[[13.48284,52.80014],[13.48274,52.80021],[13.48263,52.80028]]}},{"type":"Feature","properties":{"art":"pfad"},"geometry":{"type":"LineString","coordinates":[[13.48921,52.80376],[13.48906,52.8037],[13.48877,52.80347],[13.48862,52.80337],[13.48823,52.80284],[13.48798,52.80229],[13.48788,52.80207],[13.48783,52.80068],[13.4878,52.79829],[13.48785,52.79704]]}},{"type":"Feature","properties":{"art":"weg"},"geometry":{"type":"LineString","coordinates":[[13.48783,52.80068],[13.4877,52.80067],[13.48762,52.80067],[13.48751,52.80066]]}},{"type":"Feature","properties":{"art":"pfad"},"geometry":{"type":"LineString","coordinates":[[13.48596,52.80069],[13.48606,52.80066],[13.48751,52.80066]]}},{"type":"Feature","properties":{"art":"strasse"},"geometry":{"type":"LineString","coordinates":[[13.48569,52.80065],[13.4857,52.80073],[13.48573,52.80077],[13.4858,52.80081],[13.48588,52.80084],[13.48636,52.80084],[13.48644,52.80084]]}},{"type":"Feature","properties":{"art":"strasse"},"geometry":{"type":"LineString","coordinates":[[13.48644,52.80084],[13.48689,52.80083],[13.48696,52.80084],[13.487,52.80086],[13.48702,52.80104],[13.48702,52.80112]]}},{"type":"Feature","properties":{"art":"strasse"},"geometry":{"type":"LineString","coordinates":[[13.48656,52.80151],[13.48649,52.80151],[13.48646,52.80149],[13.48643,52.80144],[13.48642,52.80132],[13.48642,52.80127]]}},{"type":"Feature","properties":{"art":"strasse"},"geometry":{"type":"LineString","coordinates":[[13.48644,52.8011],[13.48645,52.80091],[13.48644,52.80084]]}},{"type":"Feature","properties":{"art":"pfad"},"geometry":{"type":"LineString","coordinates":[[13.48815,52.80217],[13.48852,52.80283],[13.48893,52.80334]]}},{"type":"Feature","properties":{"art":"strasse"},"geometry":{"type":"LineString","coordinates":[[13.48646,52.80349],[13.48656,52.80345]]}},{"type":"Feature","properties":{"art":"strasse"},"geometry":{"type":"LineString","coordinates":[[13.48701,52.80384],[13.48693,52.80378],[13.48656,52.80345]]}},{"type":"Feature","properties":{"art":"strasse"},"geometry":{"type":"LineString","coordinates":[[13.48613,52.80362],[13.48622,52.80372]]}},{"type":"Feature","properties":{"art":"pfad"},"geometry":{"type":"LineString","coordinates":[[13.48965,52.80404],[13.48959,52.80381],[13.48942,52.80346]]}},{"type":"Feature","properties":{"art":"weg"},"geometry":{"type":"LineString","coordinates":[[13.48693,52.80378],[13.48681,52.80383],[13.4866,52.80398]]}},{"type":"Feature","properties":{"art":"strasse"},"geometry":{"type":"LineString","coordinates":[[13.48344,52.80042],[13.48351,52.80035],[13.48361,52.80031],[13.48372,52.80031],[13.48383,52.80032]]}},{"type":"Feature","properties":{"art":"strasse"},"geometry":{"type":"LineString","coordinates":[[13.48487,52.80054],[13.4849,52.80047]]}},{"type":"Feature","properties":{"art":"strasse"},"geometry":{"type":"LineString","coordinates":[[13.48324,52.80048],[13.48338,52.80044],[13.48344,52.80042],[13.48358,52.8004],[13.48431,52.80046],[13.48487,52.80054],[13.48492,52.80054],[13.4854,52.80061],[13.48546,52.80062],[13.48566,52.80065],[13.48569,52.80065],[13.48596,52.80069],[13.48602,52.80069]]}},{"type":"Feature","properties":{"art":"strasse"},"geometry":{"type":"LineString","coordinates":[[13.48374,52.80093],[13.48352,52.80074],[13.48324,52.80048]]}},{"type":"Feature","properties":{"art":"strasse"},"geometry":{"type":"LineString","coordinates":[[13.48352,52.80074],[13.48329,52.80083]]}},{"type":"Feature","properties":{"art":"strasse"},"geometry":{"type":"LineString","coordinates":[[13.48319,52.80115],[13.48374,52.80093]]}},{"type":"Feature","properties":{"art":"strasse"},"geometry":{"type":"LineString","coordinates":[[13.4854,52.80061],[13.48543,52.80078],[13.48551,52.80099],[13.48561,52.8012],[13.48572,52.80142],[13.4858,52.80156],[13.48584,52.80164],[13.48595,52.80184],[13.486,52.80188],[13.48612,52.80188],[13.48643,52.80187]]}},{"type":"Feature","properties":{"art":"strasse"},"geometry":{"type":"LineString","coordinates":[[13.49644,52.79491],[13.49649,52.79485]]}},{"type":"Feature","properties":{"art":"strasse"},"geometry":{"type":"LineString","coordinates":[[13.49955,52.79576],[13.49862,52.79551],[13.49853,52.79549],[13.49782,52.79529],[13.49726,52.79514],[13.49682,52.79502],[13.49644,52.79491],[13.49591,52.79477],[13.49492,52.7945],[13.49443,52.79435],[13.49414,52.79427],[13.49368,52.79409]]}},{"type":"Feature","properties":{"art":"strasse"},"geometry":{"type":"LineString","coordinates":[[13.49682,52.79502],[13.49687,52.79494]]}},{"type":"Feature","properties":{"art":"strasse"},"geometry":{"type":"LineString","coordinates":[[13.49204,52.7955],[13.49231,52.79556],[13.49237,52.79559],[13.49241,52.79561],[13.49244,52.79564]]}},{"type":"Feature","properties":{"art":"strasse"},"geometry":{"type":"LineString","coordinates":[[13.49192,52.79569],[13.49204,52.79572]]}},{"type":"Feature","properties":{"art":"strasse"},"geometry":{"type":"LineString","coordinates":[[13.49107,52.79716],[13.49115,52.79683]]}},{"type":"Feature","properties":{"art":"strasse"},"geometry":{"type":"LineString","coordinates":[[13.49895,52.7959],[13.49937,52.79601]]}},{"type":"Feature","properties":{"art":"strasse"},"geometry":{"type":"LineString","coordinates":[[13.49918,52.79616],[13.49918,52.79616],[13.49923,52.79617]]}},{"type":"Feature","properties":{"art":"strasse"},"geometry":{"type":"LineString","coordinates":[[13.49996,52.79633],[13.50004,52.79635],[13.50009,52.79633],[13.50037,52.79599]]}},{"type":"Feature","properties":{"art":"strasse"},"geometry":{"type":"LineString","coordinates":[[13.49742,52.79586],[13.49758,52.7959],[13.4977,52.79596],[13.4978,52.79602],[13.49788,52.79607],[13.49803,52.79611],[13.49797,52.7962],[13.49794,52.79627],[13.49793,52.7963]]}},{"type":"Feature","properties":{"art":"strasse"},"geometry":{"type":"LineString","coordinates":[[13.49932,52.79623],[13.49954,52.79629]]}},{"type":"Feature","properties":{"art":"strasse"},"geometry":{"type":"LineString","coordinates":[[13.49922,52.79618],[13.49923,52.79617],[13.49937,52.79601],[13.49955,52.79576]]}},{"type":"Feature","properties":{"art":"strasse"},"geometry":{"type":"LineString","coordinates":[[13.49782,52.79529],[13.49742,52.79586],[13.4964,52.79727]]}},{"type":"Feature","properties":{"art":"pfad"},"geometry":{"type":"LineString","coordinates":[[13.49465,52.7952],[13.49438,52.79534],[13.49381,52.79552],[13.4925,52.79713],[13.4924,52.79727]]}},{"type":"Feature","properties":{"art":"strasse"},"geometry":{"type":"LineString","coordinates":[[13.49638,52.79725],[13.49629,52.79727]]}},{"type":"Feature","properties":{"art":"strasse"},"geometry":{"type":"LineString","coordinates":[[13.49414,52.79427],[13.49408,52.79434],[13.49465,52.7952],[13.49485,52.79543],[13.49531,52.79592],[13.49638,52.79725],[13.4964,52.79727],[13.49657,52.79742],[13.4967,52.79759]]}},{"type":"Feature","properties":{"art":"strasse"},"geometry":{"type":"LineString","coordinates":[[13.4973,52.79837],[13.49744,52.79857]]}},{"type":"Feature","properties":{"art":"strasse"},"geometry":{"type":"LineString","coordinates":[[13.49748,52.79862],[13.49777,52.79905],[13.49801,52.79931],[13.49887,52.80045]]}},{"type":"Feature","properties":{"art":"strasse"},"geometry":{"type":"LineString","coordinates":[[13.49528,52.79756],[13.49328,52.79732],[13.49275,52.79731],[13.4924,52.79727],[13.49194,52.7972],[13.49107,52.79716],[13.49078,52.79715],[13.48964,52.7971],[13.48921,52.79708],[13.4887,52.79706]]}},{"type":"Feature","properties":{"art":"pfad"},"geometry":{"type":"LineString","coordinates":[[13.51054,52.79905],[13.51118,52.79843],[13.51168,52.79806],[13.51205,52.79798],[13.51308,52.7978]]}},{"type":"Feature","properties":{"art":"strasse"},"geometry":{"type":"LineString","coordinates":[[13.4964,52.79727],[13.49615,52.7976]]}},{"type":"Feature","properties":{"art":"strasse"},"geometry":{"type":"LineString","coordinates":[[13.4968,52.79758],[13.49687,52.79749]]}},{"type":"Feature","properties":{"art":"strasse"},"geometry":{"type":"LineString","coordinates":[[13.49675,52.79813],[13.49667,52.79827]]}},{"type":"Feature","properties":{"art":"pfad"},"geometry":{"type":"LineString","coordinates":[[13.49168,52.7984],[13.49161,52.79828],[13.4915,52.79821],[13.4914,52.79813],[13.49134,52.79805],[13.49126,52.79796],[13.49122,52.79786]]}},{"type":"Feature","properties":{"art":"strasse"},"geometry":{"type":"LineString","coordinates":[[13.49517,52.79825],[13.49514,52.79829],[13.49513,52.79836],[13.49518,52.79846],[13.49523,52.79858],[13.49521,52.7987],[13.49515,52.7988],[13.49505,52.7989]]}},{"type":"Feature","properties":{"art":"pfad"},"geometry":{"type":"LineString","coordinates":[[13.49102,52.79818],[13.49168,52.7984]]}},{"type":"Feature","properties":{"art":"pfad"},"geometry":{"type":"LineString","coordinates":[[13.4924,52.79727],[13.49168,52.7984],[13.49124,52.79907],[13.49103,52.79948],[13.49113,52.79959],[13.49155,52.80006],[13.49157,52.80013],[13.49086,52.80109]]}},{"type":"Feature","properties":{"art":"strasse"},"geometry":{"type":"LineString","coordinates":[[13.49678,52.7995],[13.49667,52.79972],[13.49659,52.79991],[13.49645,52.80008]]}},{"type":"Feature","properties":{"art":"strasse"},"geometry":{"type":"LineString","coordinates":[[13.49822,52.7985],[13.49775,52.79828]]}},{"type":"Feature","properties":{"art":"strasse"},"geometry":{"type":"LineString","coordinates":[[13.49744,52.79859],[13.49678,52.7995]]}},{"type":"Feature","properties":{"art":"strasse"},"geometry":{"type":"LineString","coordinates":[[13.49742,52.79942],[13.49762,52.79921],[13.49773,52.79906],[13.49777,52.79905]]}},{"type":"Feature","properties":{"art":"strasse"},"geometry":{"type":"LineString","coordinates":[[13.49801,52.79931],[13.49796,52.79937],[13.49765,52.79971]]}},{"type":"Feature","properties":{"art":"strasse"},"geometry":{"type":"LineString","coordinates":[[13.49711,52.80028],[13.49708,52.80028],[13.49666,52.80015],[13.49645,52.80008],[13.49628,52.80003],[13.4961,52.79997]]}},{"type":"Feature","properties":{"art":"pfad"},"geometry":{"type":"LineString","coordinates":[[13.50184,52.8023],[13.50181,52.80223],[13.50181,52.80218],[13.50189,52.80211],[13.50548,52.80111],[13.50623,52.80079],[13.50625,52.80066],[13.5061,52.79959],[13.50608,52.79944],[13.50619,52.7993],[13.50747,52.79763]]}},{"type":"Feature","properties":{"art":"weg"},"geometry":{"type":"LineString","coordinates":[[13.50371,52.80315],[13.50325,52.80278],[13.50279,52.80251],[13.50184,52.8023],[13.50153,52.80225],[13.50112,52.80218],[13.50104,52.80217]]}},{"type":"Feature","properties":{"art":"weg"},"geometry":{"type":"LineString","coordinates":[[13.49893,52.80055],[13.49887,52.80045]]}},{"type":"Feature","properties":{"art":"pfad"},"geometry":{"type":"LineString","coordinates":[[13.51059,52.80024],[13.50961,52.79999]]}},{"type":"Feature","properties":{"art":"pfad"},"geometry":{"type":"LineString","coordinates":[[13.50961,52.79999],[13.50913,52.80024],[13.50867,52.80042],[13.50799,52.8005],[13.50688,52.80081],[13.50636,52.80082],[13.50623,52.80079]]}},{"type":"Feature","properties":{"art":"pfad"},"geometry":{"type":"LineString","coordinates":[[13.51005,52.79782],[13.51007,52.79791],[13.51023,52.79836],[13.50991,52.79951],[13.50961,52.79999],[13.5095,52.80016],[13.50876,52.8018],[13.50856,52.80212],[13.50834,52.80266],[13.50672,52.8038],[13.50579,52.80471],[13.50576,52.80475],[13.50572,52.80479]]}},{"type":"Feature","properties":{"art":"pfad"},"geometry":{"type":"LineString","coordinates":[[13.50991,52.79951],[13.51054,52.79905],[13.51059,52.79969],[13.51059,52.80024],[13.51065,52.80128],[13.51098,52.80126],[13.51228,52.80113],[13.51256,52.80112],[13.51272,52.80123],[13.51198,52.80291],[13.51202,52.80335],[13.51218,52.80408],[13.51217,52.80497]]}},{"type":"Feature","properties":{"art":"strasse"},"geometry":{"type":"LineString","coordinates":[[13.49666,52.80015],[13.4968,52.79996],[13.49694,52.79984],[13.49712,52.79973]]}},{"type":"Feature","properties":{"art":"pfad"},"geometry":{"type":"LineString","coordinates":[[13.49158,52.80138],[13.49211,52.80086],[13.4934,52.80021]]}},{"type":"Feature","properties":{"art":"pfad"},"geometry":{"type":"LineString","coordinates":[[13.49223,52.80159],[13.49231,52.80129],[13.49211,52.80086],[13.49181,52.80044],[13.49175,52.80028],[13.49157,52.80013]]}},{"type":"Feature","properties":{"art":"weg"},"geometry":{"type":"LineString","coordinates":[[13.49406,52.80263],[13.49421,52.80245],[13.49434,52.80221],[13.49447,52.80209],[13.49471,52.80173],[13.49496,52.80144]]}},{"type":"Feature","properties":{"art":"weg"},"geometry":{"type":"LineString","coordinates":[[13.4953,52.80103],[13.49601,52.80016],[13.49615,52.80005],[13.49628,52.80003]]}},{"type":"Feature","properties":{"art":"pfad"},"geometry":{"type":"LineString","coordinates":[[13.49406,52.80263],[13.49388,52.80253],[13.49383,52.80213],[13.49223,52.80159],[13.49158,52.80138],[13.49083,52.80112],[13.4892,52.80069],[13.48798,52.80069],[13.48783,52.80068]]}},{"type":"Feature","properties":{"art":"pfad"},"geometry":{"type":"LineString","coordinates":[[13.49507,52.80249],[13.49481,52.80252],[13.49406,52.80263]]}},{"type":"Feature","properties":{"art":"weg"},"geometry":{"type":"LineString","coordinates":[[13.49086,52.80109],[13.49083,52.80112],[13.48981,52.80292],[13.48942,52.80346],[13.48921,52.80376],[13.4893,52.80396],[13.48965,52.80404],[13.48973,52.80406],[13.49014,52.80414],[13.4903,52.80417],[13.49104,52.80434],[13.49133,52.80448],[13.49154,52.80463],[13.4925,52.80557],[13.49348,52.80653]]}},{"type":"Feature","properties":{"art":"pfad"},"geometry":{"type":"LineString","coordinates":[[13.49133,52.80448],[13.4919,52.80431]]}},{"type":"Feature","properties":{"art":"weg"},"geometry":{"type":"LineString","coordinates":[[13.49348,52.80653],[13.49372,52.8066],[13.49412,52.80655]]}},{"type":"Feature","properties":{"art":"weg"},"geometry":{"type":"LineString","coordinates":[[13.49439,52.80652],[13.49446,52.80651],[13.49542,52.80636],[13.49622,52.80648],[13.4978,52.80652],[13.49864,52.80656]]}},{"type":"Feature","properties":{"art":"weg"},"geometry":{"type":"LineString","coordinates":[[13.50184,52.8051],[13.502,52.804],[13.50225,52.80381],[13.50274,52.80365],[13.50343,52.80344],[13.50362,52.80332],[13.50368,52.80324],[13.50371,52.80315]]}},{"type":"Feature","properties":{"art":"pfad"},"geometry":{"type":"LineString","coordinates":[[13.50271,52.80494],[13.50263,52.80476],[13.50258,52.80453],[13.50248,52.80409],[13.50263,52.80376],[13.50274,52.80365]]}},{"type":"Feature","properties":{"art":"pfad"},"geometry":{"type":"LineString","coordinates":[[13.50466,52.80535],[13.50469,52.80526],[13.50468,52.80514],[13.50459,52.8049],[13.50453,52.80476],[13.50448,52.80453],[13.50431,52.80425]]}},{"type":"Feature","properties":{"art":"pfad"},"geometry":{"type":"LineString","coordinates":[[13.50771,52.80684],[13.50758,52.80663],[13.5071,52.80601],[13.50648,52.80551],[13.50572,52.80479],[13.5049,52.80425],[13.5043,52.80363],[13.50371,52.80315]]}},{"type":"Feature","properties":{"art":"pfad"},"geometry":{"type":"LineString","coordinates":[[13.50462,52.80536],[13.50466,52.80535],[13.50524,52.80512],[13.50567,52.80483],[13.50572,52.80479]]}},{"type":"Feature","properties":{"art":"strasse"},"geometry":{"type":"LineString","coordinates":[[13.49944,52.80558],[13.49962,52.80556]]}},{"type":"Feature","properties":{"art":"strasse"},"geometry":{"type":"LineString","coordinates":[[13.49987,52.80553],[13.50093,52.80541],[13.5017,52.80519],[13.50184,52.8051],[13.50225,52.80503],[13.50271,52.80494]]}},{"type":"Feature","properties":{"art":"pfad"},"geometry":{"type":"LineString","coordinates":[[13.50303,52.80564],[13.50271,52.80506]]}},{"type":"Feature","properties":{"art":"strasse"},"geometry":{"type":"LineString","coordinates":[[13.50358,52.80558],[13.5041,52.80556],[13.50462,52.80536]]}},{"type":"Feature","properties":{"art":"strasse"},"geometry":{"type":"LineString","coordinates":[[13.50285,52.80565],[13.50303,52.80564],[13.50358,52.80558]]}},{"type":"Feature","properties":{"art":"pfad"},"geometry":{"type":"LineString","coordinates":[[13.51609,52.80262],[13.51571,52.80283],[13.51547,52.80291],[13.51417,52.80304],[13.51392,52.80317]]}},{"type":"Feature","properties":{"art":"pfad"},"geometry":{"type":"LineString","coordinates":[[13.51725,52.80554],[13.51762,52.80514]]}},{"type":"Feature","properties":{"art":"pfad"},"geometry":{"type":"LineString","coordinates":[[13.50579,52.80471],[13.5061,52.80465],[13.5064,52.80467],[13.50677,52.80486],[13.50703,52.8049],[13.50756,52.80477],[13.50786,52.80477],[13.50812,52.80472],[13.50887,52.80477],[13.50969,52.80473],[13.51009,52.80474],[13.51054,52.80478],[13.51125,52.80476],[13.51217,52.80497]]}},{"type":"Feature","properties":{"art":"pfad"},"geometry":{"type":"LineString","coordinates":[[13.51725,52.80554],[13.51436,52.8053],[13.51369,52.80521],[13.51271,52.80502],[13.51217,52.80497]]}},{"type":"Feature","properties":{"art":"pfad"},"geometry":{"type":"LineString","coordinates":[[13.50969,52.80473],[13.51034,52.80569],[13.5107,52.80615],[13.51104,52.8066]]}},{"type":"Feature","properties":{"art":"pfad"},"geometry":{"type":"LineString","coordinates":[[13.5107,52.80615],[13.50907,52.80651],[13.50771,52.80684]]}},{"type":"Feature","properties":{"art":"pfad"},"geometry":{"type":"LineString","coordinates":[[13.51104,52.8066],[13.51237,52.80857],[13.51263,52.8085],[13.5126,52.8084],[13.51269,52.80811],[13.51492,52.80766],[13.51608,52.80767],[13.51702,52.8076],[13.51783,52.80702],[13.51796,52.80693],[13.51805,52.80671],[13.5173,52.80592],[13.51725,52.80554]]}},{"type":"Feature","properties":{"art":"pfad"},"geometry":{"type":"LineString","coordinates":[[13.51217,52.80497],[13.51213,52.80503],[13.51207,52.80515],[13.51122,52.80617],[13.51104,52.8066],[13.51076,52.80709],[13.51067,52.80748],[13.51022,52.80835],[13.5103,52.80907]]}},{"type":"Feature","properties":{"art":"pfad"},"geometry":{"type":"LineString","coordinates":[[13.51794,52.80747],[13.51702,52.8076]]}},{"type":"Feature","properties":{"art":"pfad"},"geometry":{"type":"LineString","coordinates":[[13.51806,52.8078],[13.51787,52.80778],[13.51637,52.80807],[13.51586,52.80809]]}},{"type":"Feature","properties":{"art":"strasse"},"geometry":{"type":"LineString","coordinates":[[13.50436,52.80615],[13.50449,52.80583],[13.50462,52.80536]]}},{"type":"Feature","properties":{"art":"strasse"},"geometry":{"type":"LineString","coordinates":[[13.50271,52.80494],[13.50271,52.80506],[13.50272,52.80556],[13.50285,52.80565],[13.50283,52.80621],[13.50219,52.80641],[13.50145,52.80655],[13.50081,52.80667],[13.50063,52.8066],[13.5,52.80663],[13.49928,52.80692]]}},{"type":"Feature","properties":{"art":"pfad"},"geometry":{"type":"LineString","coordinates":[[13.49864,52.80656],[13.49944,52.80558]]}},{"type":"Feature","properties":{"art":"strasse"},"geometry":{"type":"LineString","coordinates":[[13.50013,52.80624],[13.50099,52.80619],[13.50119,52.80625],[13.50145,52.80655]]}},{"type":"Feature","properties":{"art":"strasse"},"geometry":{"type":"LineString","coordinates":[[13.50394,52.80721],[13.50409,52.80683],[13.50424,52.80647],[13.50436,52.80615]]}},{"type":"Feature","properties":{"art":"pfad"},"geometry":{"type":"LineString","coordinates":[[13.50229,52.80747],[13.50196,52.80678],[13.50219,52.80641]]}},{"type":"Feature","properties":{"art":"pfad"},"geometry":{"type":"LineString","coordinates":[[13.50544,52.80741],[13.50711,52.80699],[13.50771,52.80684]]}},{"type":"Feature","properties":{"art":"strasse"},"geometry":{"type":"LineString","coordinates":[[13.50424,52.80647],[13.50409,52.80649],[13.50336,52.80677],[13.50283,52.80702],[13.50247,52.80702],[13.50237,52.80711],[13.50229,52.80747],[13.50214,52.80764],[13.50187,52.80772]]}},{"type":"Feature","properties":{"art":"strasse"},"geometry":{"type":"LineString","coordinates":[[13.49864,52.80656],[13.49913,52.80695]]}},{"type":"Feature","properties":{"art":"strasse"},"geometry":{"type":"LineString","coordinates":[[13.50396,52.80795],[13.50395,52.80779],[13.50391,52.80736],[13.50394,52.80721]]}},{"type":"Feature","properties":{"art":"pfad"},"geometry":{"type":"LineString","coordinates":[[13.50395,52.80779],[13.50402,52.80777],[13.50544,52.80741]]}},{"type":"Feature","properties":{"art":"strasse"},"geometry":{"type":"LineString","coordinates":[[13.50301,52.80775],[13.50373,52.80729],[13.50385,52.80723],[13.50394,52.80721]]}},{"type":"Feature","properties":{"art":"strasse"},"geometry":{"type":"LineString","coordinates":[[13.50413,52.80823],[13.50396,52.80795]]}},{"type":"Feature","properties":{"art":"strasse"},"geometry":{"type":"LineString","coordinates":[[13.50396,52.80795],[13.50318,52.8083]]}},{"type":"Feature","properties":{"art":"pfad"},"geometry":{"type":"LineString","coordinates":[[13.50462,52.80864],[13.50413,52.80823]]}},{"type":"Feature","properties":{"art":"strasse"},"geometry":{"type":"LineString","coordinates":[[13.50462,52.80864],[13.50394,52.8089]]}},{"type":"Feature","properties":{"art":"strasse"},"geometry":{"type":"LineString","coordinates":[[13.50276,52.80926],[13.50266,52.80929],[13.50252,52.80937],[13.50233,52.80947],[13.50216,52.80954],[13.50199,52.80957]]}},{"type":"Feature","properties":{"art":"strasse"},"geometry":{"type":"LineString","coordinates":[[13.50152,52.80899],[13.50157,52.80903],[13.50197,52.80938],[13.50199,52.80948],[13.50199,52.80957]]}},{"type":"Feature","properties":{"art":"strasse"},"geometry":{"type":"LineString","coordinates":[[13.4976,52.80929],[13.49753,52.80932],[13.49738,52.80974]]}},{"type":"Feature","properties":{"art":"strasse"},"geometry":{"type":"LineString","coordinates":[[13.50199,52.80957],[13.5016,52.80962],[13.50125,52.80966],[13.50062,52.80966]]}},{"type":"Feature","properties":{"art":"strasse"},"geometry":{"type":"LineString","coordinates":[[13.50062,52.80966],[13.4998,52.80968]]}},{"type":"Feature","properties":{"art":"strasse"},"geometry":{"type":"LineString","coordinates":[[13.50062,52.80966],[13.50057,52.80982]]}},{"type":"Feature","properties":{"art":"strasse"},"geometry":{"type":"LineString","coordinates":[[13.50057,52.80982],[13.4998,52.80968]]}},{"type":"Feature","properties":{"art":"pfad"},"geometry":{"type":"LineString","coordinates":[[13.5019,52.81024],[13.50218,52.80985],[13.50223,52.80973],[13.50216,52.80954]]}},{"type":"Feature","properties":{"art":"strasse"},"geometry":{"type":"LineString","coordinates":[[13.4998,52.80968],[13.49937,52.80963],[13.49884,52.80959],[13.49813,52.80962],[13.49738,52.80974],[13.49684,52.80977]]}},{"type":"Feature","properties":{"art":"strasse"},"geometry":{"type":"LineString","coordinates":[[13.49458,52.80992],[13.49449,52.80993],[13.49407,52.81002],[13.494,52.81005]]}},{"type":"Feature","properties":{"art":"strasse"},"geometry":{"type":"LineString","coordinates":[[13.50173,52.81019],[13.50057,52.80982]]}},{"type":"Feature","properties":{"art":"strasse"},"geometry":{"type":"LineString","coordinates":[[13.50173,52.81019],[13.50168,52.81025],[13.50165,52.81027],[13.50159,52.81027],[13.50146,52.81026],[13.50119,52.81019]]}},{"type":"Feature","properties":{"art":"strasse"},"geometry":{"type":"LineString","coordinates":[[13.49738,52.80974],[13.49809,52.81046],[13.49837,52.81071],[13.49864,52.81086],[13.49872,52.81093],[13.49877,52.811],[13.49879,52.81102]]}},{"type":"Feature","properties":{"art":"weg"},"geometry":{"type":"LineString","coordinates":[[13.50022,52.81108],[13.5004,52.81106]]}},{"type":"Feature","properties":{"art":"pfad"},"geometry":{"type":"LineString","coordinates":[[13.51608,52.80767],[13.51592,52.80796],[13.51586,52.80809],[13.51581,52.80824]]}},{"type":"Feature","properties":{"art":"pfad"},"geometry":{"type":"LineString","coordinates":[[13.5102,52.80916],[13.50901,52.80826],[13.50835,52.80791],[13.50814,52.80758],[13.50771,52.80684]]}},{"type":"Feature","properties":{"art":"pfad"},"geometry":{"type":"LineString","coordinates":[[13.51237,52.80857],[13.5103,52.80907],[13.51026,52.80909],[13.5102,52.80916]]}},{"type":"Feature","properties":{"art":"pfad"},"geometry":{"type":"LineString","coordinates":[[13.5102,52.80916],[13.50948,52.8091],[13.50888,52.80913],[13.50723,52.80905],[13.50662,52.80894],[13.50565,52.80859],[13.50462,52.80864]]}},{"type":"Feature","properties":{"art":"pfad"},"geometry":{"type":"LineString","coordinates":[[13.51229,52.81146],[13.51258,52.81142]]}},{"type":"Feature","properties":{"art":"pfad"},"geometry":{"type":"LineString","coordinates":[[13.51532,52.81099],[13.51798,52.81058],[13.51968,52.81049],[13.52079,52.81054],[13.52137,52.81053],[13.5221,52.81051],[13.52277,52.81042],[13.52281,52.8103],[13.52303,52.81026],[13.52329,52.81017],[13.52494,52.80905],[13.52521,52.80884],[13.52612,52.80845],[13.52718,52.80807],[13.52741,52.80805],[13.5276,52.808]]}},{"type":"Feature","properties":{"art":"pfad"},"geometry":{"type":"LineString","coordinates":[[13.51229,52.81146],[13.51193,52.81112],[13.51165,52.81072],[13.51145,52.81053],[13.51123,52.81024]]}},{"type":"Feature","properties":{"art":"pfad"},"geometry":{"type":"LineString","coordinates":[[13.51069,52.80962],[13.51059,52.80952],[13.51027,52.80918],[13.5102,52.80916]]}},{"type":"Feature","properties":{"art":"pfad"},"geometry":{"type":"LineString","coordinates":[[13.51471,52.81269],[13.51399,52.81231]]}},{"type":"Feature","properties":{"art":"pfad"},"geometry":{"type":"LineString","coordinates":[[13.51247,52.81158],[13.51229,52.81146]]}},{"type":"Feature","properties":{"art":"pfad"},"geometry":{"type":"LineString","coordinates":[[13.51872,52.81367],[13.51614,52.81446],[13.51611,52.81469],[13.5164,52.81483]]}},{"type":"Feature","properties":{"art":"pfad"},"geometry":{"type":"LineString","coordinates":[[13.5164,52.81483],[13.5166,52.81483],[13.51663,52.81493],[13.51651,52.81494],[13.5164,52.81483]]}},{"type":"Feature","properties":{"art":"pfad"},"geometry":{"type":"LineString","coordinates":[[13.51471,52.81269],[13.51872,52.81367],[13.51965,52.81389],[13.52281,52.81464],[13.52509,52.81516],[13.52582,52.81534]]}},{"type":"Feature","properties":{"art":"pfad"},"geometry":{"type":"LineString","coordinates":[[13.52715,52.81565],[13.52719,52.81566],[13.52761,52.81577],[13.52793,52.81586],[13.52814,52.81591],[13.52836,52.81595],[13.53264,52.81646],[13.5348,52.81674],[13.53537,52.81681]]}},{"type":"Feature","properties":{"art":"pfad"},"geometry":{"type":"LineString","coordinates":[[13.5368,52.81697],[13.5373,52.81703],[13.53856,52.81717],[13.54029,52.81734],[13.5409,52.81739],[13.5412,52.81742]]}},{"type":"Feature","properties":{"art":"pfad"},"geometry":{"type":"LineString","coordinates":[[13.54288,52.81767],[13.54303,52.81772]]}},{"type":"Feature","properties":{"art":"pfad"},"geometry":{"type":"LineString","coordinates":[[13.51125,52.81194],[13.51145,52.81182],[13.51189,52.81156],[13.51229,52.81146]]}},{"type":"Feature","properties":{"art":"strasse"},"geometry":{"type":"LineString","coordinates":[[13.50019,52.81109],[13.50022,52.81108]]}},{"type":"Feature","properties":{"art":"strasse"},"geometry":{"type":"LineString","coordinates":[[13.50206,52.81042],[13.50207,52.81036],[13.5019,52.81024],[13.50173,52.81019]]}},{"type":"Feature","properties":{"art":"weg"},"geometry":{"type":"LineString","coordinates":[[13.49858,52.81426],[13.49863,52.81454]]}},{"type":"Feature","properties":{"art":"strasse"},"geometry":{"type":"LineString","coordinates":[[13.494,52.81005],[13.49389,52.80996],[13.49318,52.80933]]}},{"type":"Feature","properties":{"art":"strasse"},"geometry":{"type":"LineString","coordinates":[[13.49134,52.8077],[13.49092,52.80732],[13.48802,52.80474]]}},{"type":"Feature","properties":{"art":"weg"},"geometry":{"type":"LineString","coordinates":[[13.49088,52.80978],[13.49109,52.80991]]}},{"type":"Feature","properties":{"art":"pfad"},"geometry":{"type":"LineString","coordinates":[[13.49157,52.80997],[13.49172,52.81005],[13.49211,52.81024],[13.49299,52.81024],[13.4935,52.81008],[13.49375,52.81],[13.49389,52.80996]]}},{"type":"Feature","properties":{"art":"pfad"},"geometry":{"type":"LineString","coordinates":[[13.49172,52.81005],[13.49161,52.81039]]}},{"type":"Feature","properties":{"art":"pfad"},"geometry":{"type":"LineString","coordinates":[[13.49299,52.81024],[13.49161,52.81039],[13.49143,52.81041],[13.49077,52.81052],[13.49086,52.81071]]}},{"type":"Feature","properties":{"art":"strasse"},"geometry":{"type":"LineString","coordinates":[[13.49457,52.81055],[13.494,52.81005]]}},{"type":"Feature","properties":{"art":"pfad"},"geometry":{"type":"LineString","coordinates":[[13.49086,52.81071],[13.49019,52.81082]]}},{"type":"Feature","properties":{"art":"weg"},"geometry":{"type":"LineString","coordinates":[[13.49291,52.81889],[13.49313,52.81849],[13.49377,52.81742],[13.49417,52.81726],[13.49568,52.81708],[13.49717,52.81651]]}},{"type":"Feature","properties":{"art":"weg"},"geometry":{"type":"LineString","coordinates":[[13.49381,52.82262],[13.49419,52.82256],[13.4962,52.82257],[13.49646,52.8224],[13.49685,52.82229],[13.49877,52.82202]]}},{"type":"Feature","properties":{"art":"pfad"},"geometry":{"type":"LineString","coordinates":[[13.49858,52.81654],[13.49854,52.81716],[13.49864,52.81738],[13.49872,52.81751]]}},{"type":"Feature","properties":{"art":"strasse"},"geometry":{"type":"LineString","coordinates":[[13.49914,52.82279],[13.49877,52.82202],[13.49806,52.82055],[13.49799,52.8204],[13.49793,52.82025],[13.49789,52.8201]]}},{"type":"Feature","properties":{"art":"strasse"},"geometry":{"type":"LineString","coordinates":[[13.49784,52.81981],[13.49782,52.81953],[13.49783,52.81935],[13.49784,52.81919],[13.49791,52.81869],[13.49802,52.81791],[13.49824,52.81642]]}},{"type":"Feature","properties":{"art":"strasse"},"geometry":{"type":"LineString","coordinates":[[13.49827,52.815],[13.49821,52.81475],[13.49812,52.81449],[13.4979,52.81398],[13.49786,52.81391]]}},{"type":"Feature","properties":{"art":"strasse"},"geometry":{"type":"LineString","coordinates":[[13.49721,52.81292],[13.49715,52.81285],[13.49639,52.81215],[13.49629,52.81206]]}},{"type":"Feature","properties":{"art":"weg"},"geometry":{"type":"LineString","coordinates":[[13.50578,52.8205],[13.50598,52.82082],[13.506,52.82086]]}},{"type":"Feature","properties":{"art":"weg"},"geometry":{"type":"LineString","coordinates":[[13.50549,52.82097],[13.50547,52.82093],[13.50528,52.82061]]}},{"type":"Feature","properties":{"art":"weg"},"geometry":{"type":"LineString","coordinates":[[13.50701,52.82071],[13.50654,52.82081],[13.506,52.82086],[13.5057,52.82092],[13.50549,52.82097],[13.50504,52.82107],[13.50441,52.8212]]}},{"type":"Feature","properties":{"art":"weg"},"geometry":{"type":"LineString","coordinates":[[13.50441,52.8212],[13.50401,52.82152],[13.50255,52.82375]]}},{"type":"Feature","properties":{"art":"weg"},"geometry":{"type":"LineString","coordinates":[[13.4962,52.82257],[13.49673,52.82267],[13.49755,52.82282]]}},{"type":"Feature","properties":{"art":"weg"},"geometry":{"type":"LineString","coordinates":[[13.49755,52.82282],[13.49797,52.82276],[13.49809,52.82282],[13.49803,52.82291],[13.49782,52.82293],[13.49775,52.82294],[13.49765,52.8229],[13.49755,52.82282]]}},{"type":"Feature","properties":{"art":"strasse"},"geometry":{"type":"LineString","coordinates":[[13.4994,52.82334],[13.49914,52.82279]]}},{"type":"Feature","properties":{"art":"pfad"},"geometry":{"type":"LineString","coordinates":[[13.49803,52.82291],[13.49843,52.823],[13.49892,52.82326],[13.49911,52.82329],[13.49927,52.82332]]}},{"type":"Feature","properties":{"art":"pfad"},"geometry":{"type":"LineString","coordinates":[[13.49782,52.82293],[13.49787,52.82299],[13.49796,52.82304],[13.4981,52.82312],[13.49829,52.82314],[13.49838,52.82317],[13.49849,52.82319],[13.49857,52.82323],[13.49875,52.82331],[13.49881,52.82334],[13.4989,52.82334],[13.49899,52.82333],[13.49903,52.82332],[13.49911,52.82329]]}},{"type":"Feature","properties":{"art":"pfad"},"geometry":{"type":"LineString","coordinates":[[13.52246,52.81965],[13.52207,52.81955],[13.52095,52.81917],[13.52091,52.81916],[13.51704,52.81835]]}},{"type":"Feature","properties":{"art":"weg"},"geometry":{"type":"LineString","coordinates":[[13.50744,52.82045],[13.50737,52.82052],[13.50701,52.82071]]}},{"type":"Feature","properties":{"art":"pfad"},"geometry":{"type":"LineString","coordinates":[[13.5142,52.82316],[13.51704,52.81835],[13.51796,52.8168]]}},{"type":"Feature","properties":{"art":"pfad"},"geometry":{"type":"LineString","coordinates":[[13.50701,52.82071],[13.50726,52.82075],[13.50764,52.82084],[13.50808,52.82091],[13.50812,52.82085],[13.50816,52.82075]]}},{"type":"Feature","properties":{"art":"pfad"},"geometry":{"type":"LineString","coordinates":[[13.51354,52.82448],[13.5142,52.82316]]}},{"type":"Feature","properties":{"art":"weg"},"geometry":{"type":"LineString","coordinates":[[13.50737,52.82468],[13.50834,52.8231]]}},{"type":"Feature","properties":{"art":"pfad"},"geometry":{"type":"LineString","coordinates":[[13.51983,52.82457],[13.51823,52.82433],[13.51632,52.82412],[13.51381,52.82444],[13.51354,52.82448],[13.51209,52.82469],[13.50954,52.82501],[13.50864,52.82493],[13.50737,52.82468],[13.50511,52.82425],[13.50276,52.82379],[13.50255,52.82375]]}},{"type":"Feature","properties":{"art":"pfad"},"geometry":{"type":"LineString","coordinates":[[13.51209,52.82469],[13.51204,52.82516],[13.51219,52.82544]]}},{"type":"Feature","properties":{"art":"pfad"},"geometry":{"type":"LineString","coordinates":[[13.50623,52.83591],[13.50643,52.83619],[13.50679,52.83643]]}},{"type":"Feature","properties":{"art":"pfad"},"geometry":{"type":"LineString","coordinates":[[13.49927,52.82332],[13.4994,52.82334]]}},{"type":"Feature","properties":{"art":"strasse"},"geometry":{"type":"LineString","coordinates":[[13.49942,52.82338],[13.4994,52.82334]]}},{"type":"Feature","properties":{"art":"weg"},"geometry":{"type":"LineString","coordinates":[[13.50255,52.82375],[13.50088,52.82349],[13.49942,52.82338]]}},{"type":"Feature","properties":{"art":"pfad"},"geometry":{"type":"LineString","coordinates":[[13.49552,52.82466],[13.49749,52.82449],[13.49844,52.8242],[13.49845,52.82373],[13.49864,52.82351],[13.49927,52.82332]]}},{"type":"Feature","properties":{"art":"pfad"},"geometry":{"type":"LineString","coordinates":[[13.5021,52.82899],[13.50239,52.82898],[13.50962,52.8287],[13.51013,52.82892],[13.51052,52.82899]]}},{"type":"Feature","properties":{"art":"strasse"},"geometry":{"type":"LineString","coordinates":[[13.50491,52.83491],[13.5047,52.83449],[13.50386,52.8327],[13.50275,52.83037]]}},{"type":"Feature","properties":{"art":"strasse"},"geometry":{"type":"LineString","coordinates":[[13.50259,52.83002],[13.50233,52.82948],[13.5021,52.82899],[13.50139,52.82749]]}},{"type":"Feature","properties":{"art":"strasse"},"geometry":{"type":"LineString","coordinates":[[13.50133,52.82736],[13.50077,52.82619],[13.49942,52.82338]]}},{"type":"Feature","properties":{"art":"weg"},"geometry":{"type":"LineString","coordinates":[[13.50386,52.8327],[13.5027,52.83308],[13.50192,52.83312],[13.5014,52.83307]]}},{"type":"Feature","properties":{"art":"weg"},"geometry":{"type":"LineString","coordinates":[[13.5047,52.83449],[13.50528,52.83446]]}},{"type":"Feature","properties":{"art":"strasse"},"geometry":{"type":"LineString","coordinates":[[13.48343,52.80136],[13.48357,52.80131]]}},{"type":"Feature","properties":{"art":"strasse"},"geometry":{"type":"LineString","coordinates":[[13.48389,52.80138],[13.48413,52.80128]]}},{"type":"Feature","properties":{"art":"strasse"},"geometry":{"type":"LineString","coordinates":[[13.48397,52.80155],[13.48429,52.80143]]}},{"type":"Feature","properties":{"art":"strasse"},"geometry":{"type":"LineString","coordinates":[[13.48437,52.80166],[13.48449,52.80161]]}},{"type":"Feature","properties":{"art":"strasse"},"geometry":{"type":"LineString","coordinates":[[13.48431,52.80187],[13.48466,52.80175]]}},{"type":"Feature","properties":{"art":"strasse"},"geometry":{"type":"LineString","coordinates":[[13.48656,52.80345],[13.48605,52.803],[13.48576,52.80274],[13.48533,52.80235],[13.48525,52.80228],[13.4851,52.80214],[13.48492,52.80198],[13.48466,52.80175],[13.48449,52.80161],[13.48429,52.80143],[13.48413,52.80128],[13.48374,52.80093]]}},{"type":"Feature","properties":{"art":"strasse"},"geometry":{"type":"LineString","coordinates":[[13.48464,52.80232],[13.4851,52.80214]]}},{"type":"Feature","properties":{"art":"pfad"},"geometry":{"type":"LineString","coordinates":[[13.4844,52.80219],[13.48492,52.80198]]}},{"type":"Feature","properties":{"art":"strasse"},"geometry":{"type":"LineString","coordinates":[[13.4849,52.80242],[13.48525,52.80228]]}},{"type":"Feature","properties":{"art":"strasse"},"geometry":{"type":"LineString","coordinates":[[13.48515,52.80242],[13.48533,52.80235]]}},{"type":"Feature","properties":{"art":"strasse"},"geometry":{"type":"LineString","coordinates":[[13.48576,52.80274],[13.48531,52.80292]]}},{"type":"Feature","properties":{"art":"strasse"},"geometry":{"type":"LineString","coordinates":[[13.4857,52.80314],[13.48605,52.803]]}},{"type":"Feature","properties":{"art":"strasse"},"geometry":{"type":"LineString","coordinates":[[13.47628,52.80438],[13.47695,52.80449]]}},{"type":"Feature","properties":{"art":"strasse"},"geometry":{"type":"LineString","coordinates":[[13.47588,52.80535],[13.4766,52.80546]]}},{"type":"Feature","properties":{"art":"strasse"},"geometry":{"type":"LineString","coordinates":[[13.48604,52.80365],[13.48613,52.80362],[13.48615,52.80361],[13.48646,52.80349]]}},{"type":"Feature","properties":{"art":"pfad"},"geometry":{"type":"LineString","coordinates":[[13.48757,52.80434],[13.48789,52.80427],[13.48804,52.80423],[13.48849,52.80419],[13.48938,52.80407],[13.48965,52.80404]]}},{"type":"Feature","properties":{"art":"strasse"},"geometry":{"type":"LineString","coordinates":[[13.48802,52.80474],[13.48769,52.80444],[13.48757,52.80434],[13.48732,52.80412]]}},{"type":"Feature","properties":{"art":"strasse"},"geometry":{"type":"LineString","coordinates":[[13.48719,52.804],[13.48701,52.80384]]}},{"type":"Feature","properties":{"art":"pfad"},"geometry":{"type":"LineString","coordinates":[[13.494,52.81005],[13.49392,52.81007],[13.49383,52.81006],[13.49375,52.81],[13.49303,52.80935]]}},{"type":"Feature","properties":{"art":"pfad"},"geometry":{"type":"LineString","coordinates":[[13.49126,52.80777],[13.49081,52.80737],[13.48865,52.80544],[13.48762,52.80451],[13.48731,52.80427],[13.4872,52.80417]]}},{"type":"Feature","properties":{"art":"pfad"},"geometry":{"type":"LineString","coordinates":[[13.48706,52.80405],[13.48701,52.804],[13.48681,52.80383],[13.48646,52.80349]]}},{"type":"Feature","properties":{"art":"pfad"},"geometry":{"type":"LineString","coordinates":[[13.48769,52.80444],[13.48762,52.80451],[13.4876,52.80462],[13.48774,52.80517],[13.48783,52.80577],[13.48802,52.80622],[13.48827,52.80694],[13.48863,52.80775],[13.48863,52.80789],[13.48888,52.80818],[13.4892,52.80855]]}},{"type":"Feature","properties":{"art":"pfad"},"geometry":{"type":"LineString","coordinates":[[13.48888,52.80818],[13.49081,52.80737],[13.49092,52.80732]]}},{"type":"Feature","properties":{"art":"pfad"},"geometry":{"type":"LineString","coordinates":[[13.49304,52.81319],[13.49319,52.81314]]}},{"type":"Feature","properties":{"art":"weg"},"geometry":{"type":"LineString","coordinates":[[13.49306,52.81322],[13.49319,52.81314],[13.49353,52.81305],[13.49428,52.81283],[13.49626,52.81219],[13.49639,52.81215]]}},{"type":"Feature","properties":{"art":"pfad"},"geometry":{"type":"LineString","coordinates":[[13.47758,52.85914],[13.47771,52.85912],[13.47799,52.85904],[13.47925,52.85873],[13.47975,52.8586],[13.48019,52.85851],[13.48043,52.85843],[13.48295,52.85781],[13.48412,52.85753]]}},{"type":"Feature","properties":{"art":"strasse"},"geometry":{"type":"LineString","coordinates":[[13.5116,52.86614],[13.50403,52.86807],[13.49787,52.8696],[13.49541,52.87021],[13.49376,52.87062],[13.49237,52.87097],[13.49203,52.87107],[13.4917,52.87116],[13.49138,52.87126],[13.49106,52.87137],[13.49076,52.87148],[13.49041,52.87161],[13.49001,52.87179],[13.48972,52.87193],[13.48944,52.87207],[13.48904,52.87228],[13.48851,52.87259],[13.48799,52.87289],[13.48773,52.87304],[13.48747,52.87319],[13.48733,52.87326],[13.48719,52.87333],[13.48691,52.87346],[13.48662,52.8736],[13.48633,52.87372],[13.48603,52.87384],[13.48572,52.87396],[13.48541,52.87406],[13.48508,52.87417],[13.48492,52.87421],[13.48476,52.87426],[13.48459,52.8743],[13.48443,52.87435],[13.48409,52.87443],[13.48376,52.87451],[13.48341,52.87458],[13.48307,52.87465],[13.48187,52.8749],[13.48154,52.87497],[13.48018,52.87529],[13.47923,52.87551],[13.4777,52.87587],[13.47655,52.87614],[13.4761,52.87624],[13.47565,52.87634],[13.47513,52.87645],[13.47478,52.87651],[13.47425,52.8766],[13.47374,52.87669],[13.4732,52.87679]]}},{"type":"Feature","properties":{"art":"weg"},"geometry":{"type":"LineString","coordinates":[[13.50233,52.82948],[13.50203,52.82944],[13.50172,52.82938],[13.50126,52.82928]]}},{"type":"Feature","properties":{"art":"weg"},"geometry":{"type":"LineString","coordinates":[[13.48187,52.8749],[13.48194,52.87499],[13.48224,52.87526]]}},{"type":"Feature","properties":{"art":"pfad"},"geometry":{"type":"LineString","coordinates":[[13.44437,52.78179],[13.44435,52.78182],[13.44471,52.78189],[13.44727,52.7824],[13.44835,52.7826],[13.44895,52.78272]]}},{"type":"Feature","properties":{"art":"pfad"},"geometry":{"type":"LineString","coordinates":[[13.45546,52.78472],[13.45606,52.78498],[13.45726,52.78549],[13.45874,52.78612]]}},{"type":"Feature","properties":{"art":"strasse"},"geometry":{"type":"LineString","coordinates":[[13.45731,52.78545],[13.45726,52.78549],[13.4572,52.78553],[13.45703,52.78561],[13.45681,52.78568]]}},{"type":"Feature","properties":{"art":"weg"},"geometry":{"type":"LineString","coordinates":[[13.44939,52.78727],[13.44931,52.78689],[13.44881,52.78484],[13.44848,52.78349],[13.44833,52.78264],[13.44835,52.7826],[13.44837,52.78257]]}},{"type":"Feature","properties":{"art":"strasse"},"geometry":{"type":"LineString","coordinates":[[13.43566,52.78999],[13.43568,52.78981],[13.43579,52.78973],[13.43626,52.78957],[13.43633,52.78943],[13.43661,52.78935],[13.43667,52.78926],[13.43649,52.78881]]}},{"type":"Feature","properties":{"art":"strasse"},"geometry":{"type":"LineString","coordinates":[[13.43563,52.78695],[13.43554,52.78682],[13.4353,52.78651],[13.43528,52.78598],[13.43523,52.78527]]}},{"type":"Feature","properties":{"art":"strasse"},"geometry":{"type":"LineString","coordinates":[[13.43259,52.78964],[13.4326,52.78968],[13.43265,52.78987]]}},{"type":"Feature","properties":{"art":"strasse"},"geometry":{"type":"LineString","coordinates":[[13.43392,52.78936],[13.43388,52.78925],[13.43383,52.78924]]}},{"type":"Feature","properties":{"art":"pfad"},"geometry":{"type":"LineString","coordinates":[[13.43988,52.78916],[13.43957,52.78827],[13.43948,52.78802],[13.43925,52.78733],[13.43907,52.78647],[13.43899,52.78606],[13.43894,52.78558]]}},{"type":"Feature","properties":{"art":"strasse"},"geometry":{"type":"LineString","coordinates":[[13.42683,52.79536],[13.42749,52.79547],[13.42885,52.79558],[13.42974,52.79571],[13.43078,52.79575],[13.43164,52.79583],[13.43187,52.79585]]}},{"type":"Feature","properties":{"art":"strasse"},"geometry":{"type":"LineString","coordinates":[[13.43244,52.79589],[13.4336,52.79594],[13.43532,52.79586],[13.43571,52.79573]]}},{"type":"Feature","properties":{"art":"strasse"},"geometry":{"type":"LineString","coordinates":[[13.42366,52.80067],[13.42507,52.79831],[13.42515,52.79818],[13.4253,52.79789]]}},{"type":"Feature","properties":{"art":"strasse"},"geometry":{"type":"LineString","coordinates":[[13.42595,52.79685],[13.42622,52.79643],[13.42683,52.79536],[13.42727,52.79459]]}},{"type":"Feature","properties":{"art":"pfad"},"geometry":{"type":"LineString","coordinates":[[13.42607,52.79643],[13.42569,52.79623]]}},{"type":"Feature","properties":{"art":"pfad"},"geometry":{"type":"LineString","coordinates":[[13.42622,52.79643],[13.42607,52.79643],[13.42564,52.79642]]}},{"type":"Feature","properties":{"art":"pfad"},"geometry":{"type":"LineString","coordinates":[[13.42449,52.79788],[13.42508,52.79817]]}},{"type":"Feature","properties":{"art":"pfad"},"geometry":{"type":"LineString","coordinates":[[13.42176,52.79902],[13.42303,52.79879],[13.42331,52.79873],[13.42474,52.7981],[13.42508,52.79817],[13.42515,52.79818],[13.42516,52.79818]]}},{"type":"Feature","properties":{"art":"strasse"},"geometry":{"type":"LineString","coordinates":[[13.42366,52.80067],[13.42257,52.80047],[13.422,52.80047],[13.42159,52.8004],[13.42157,52.80039]]}},{"type":"Feature","properties":{"art":"strasse"},"geometry":{"type":"LineString","coordinates":[[13.42337,52.80115],[13.42366,52.80067]]}},{"type":"Feature","properties":{"art":"pfad"},"geometry":{"type":"LineString","coordinates":[[13.44671,52.79789],[13.44671,52.7979]]}},{"type":"Feature","properties":{"art":"pfad"},"geometry":{"type":"LineString","coordinates":[[13.4477,52.7978],[13.44755,52.79788],[13.44737,52.79791],[13.44681,52.79789],[13.44674,52.79789],[13.44671,52.79789],[13.44665,52.79789]]}},{"type":"Feature","properties":{"art":"pfad"},"geometry":{"type":"LineString","coordinates":[[13.4302,52.79833],[13.42975,52.79823],[13.42941,52.79816],[13.42902,52.79814],[13.42806,52.79816],[13.42785,52.79817]]}},{"type":"Feature","properties":{"art":"pfad"},"geometry":{"type":"LineString","coordinates":[[13.42668,52.79849],[13.42636,52.79855],[13.42601,52.79849],[13.42516,52.79818]]}},{"type":"Feature","properties":{"art":"pfad"},"geometry":{"type":"LineString","coordinates":[[13.44774,52.79851],[13.44656,52.79832],[13.44432,52.79838],[13.44213,52.79845],[13.44097,52.79849]]}},{"type":"Feature","properties":{"art":"pfad"},"geometry":{"type":"LineString","coordinates":[[13.44097,52.79849],[13.44045,52.79841],[13.4398,52.79854],[13.43264,52.7992],[13.43134,52.79919],[13.43054,52.79918]]}},{"type":"Feature","properties":{"art":"pfad"},"geometry":{"type":"LineString","coordinates":[[13.43054,52.79918],[13.42782,52.79912],[13.42731,52.79896],[13.42709,52.79894],[13.4266,52.7989],[13.42624,52.79879],[13.42581,52.79867],[13.4256,52.79856],[13.42532,52.7984],[13.42507,52.79831]]}},{"type":"Feature","properties":{"art":"pfad"},"geometry":{"type":"LineString","coordinates":[[13.44097,52.79849],[13.43961,52.79902],[13.43884,52.79917],[13.4351,52.79933],[13.43357,52.79951],[13.43264,52.79956],[13.43103,52.79929],[13.43054,52.79918]]}},{"type":"Feature","properties":{"art":"pfad"},"geometry":{"type":"LineString","coordinates":[[13.4351,52.79933],[13.43525,52.80017]]}},{"type":"Feature","properties":{"art":"pfad"},"geometry":{"type":"LineString","coordinates":[[13.42709,52.79894],[13.42841,52.79951],[13.42913,52.80001],[13.42972,52.80046],[13.4305,52.80066],[13.43125,52.80076],[13.43228,52.80064],[13.43338,52.80052],[13.43525,52.80017]]}},{"type":"Feature","properties":{"art":"pfad"},"geometry":{"type":"LineString","coordinates":[[13.44901,52.80006],[13.44689,52.79989],[13.44571,52.79989],[13.44354,52.79984],[13.44184,52.80001],[13.43736,52.80031],[13.43723,52.80027],[13.43707,52.79994],[13.43697,52.79992],[13.43525,52.80017]]}},{"type":"Feature","properties":{"art":"pfad"},"geometry":{"type":"LineString","coordinates":[[13.45655,52.80749],[13.45596,52.80742]]}},{"type":"Feature","properties":{"art":"pfad"},"geometry":{"type":"LineString","coordinates":[[13.45719,52.80087],[13.4576,52.80109]]}},{"type":"Feature","properties":{"art":"pfad"},"geometry":{"type":"LineString","coordinates":[[13.46187,52.80133],[13.46242,52.80136],[13.46274,52.80053],[13.46306,52.80002],[13.4632,52.79993],[13.46395,52.80002],[13.4644,52.79999],[13.46626,52.79854]]}},{"type":"Feature","properties":{"art":"weg"},"geometry":{"type":"LineString","coordinates":[[13.44883,52.80094],[13.44885,52.80084],[13.44889,52.80069],[13.44892,52.80055],[13.44901,52.80006],[13.44903,52.79984],[13.44885,52.79953],[13.44818,52.79897],[13.44774,52.79851],[13.4477,52.79811]]}},{"type":"Feature","properties":{"art":"pfad"},"geometry":{"type":"LineString","coordinates":[[13.46037,52.79992],[13.46031,52.80017],[13.46026,52.80037],[13.46025,52.80044]]}},{"type":"Feature","properties":{"art":"weg"},"geometry":{"type":"LineString","coordinates":[[13.44892,52.80055],[13.4494,52.80057],[13.45427,52.8008],[13.45719,52.80087]]}},{"type":"Feature","properties":{"art":"pfad"},"geometry":{"type":"LineString","coordinates":[[13.46234,52.80182],[13.46242,52.80136]]}},{"type":"Feature","properties":{"art":"strasse"},"geometry":{"type":"LineString","coordinates":[[13.46484,52.80232],[13.4648,52.80229],[13.46462,52.80213],[13.46453,52.8021],[13.46439,52.80213],[13.46398,52.80231]]}},{"type":"Feature","properties":{"art":"strasse"},"geometry":{"type":"LineString","coordinates":[[13.46431,52.80389],[13.46482,52.80363]]}},{"type":"Feature","properties":{"art":"strasse"},"geometry":{"type":"LineString","coordinates":[[13.46572,52.80372],[13.46471,52.80421],[13.46354,52.80477]]}},{"type":"Feature","properties":{"art":"strasse"},"geometry":{"type":"LineString","coordinates":[[13.47646,52.80363],[13.47659,52.80365]]}},{"type":"Feature","properties":{"art":"strasse"},"geometry":{"type":"LineString","coordinates":[[13.47631,52.80395],[13.47645,52.80397]]}},{"type":"Feature","properties":{"art":"strasse"},"geometry":{"type":"LineString","coordinates":[[13.47588,52.80535],[13.47606,52.80492],[13.47617,52.80465],[13.47628,52.80438],[13.47638,52.80413],[13.47645,52.80397],[13.47659,52.80365],[13.4766,52.80363]]}},{"type":"Feature","properties":{"art":"strasse"},"geometry":{"type":"LineString","coordinates":[[13.47638,52.80413],[13.47648,52.80414]]}},{"type":"Feature","properties":{"art":"pfad"},"geometry":{"type":"LineString","coordinates":[[13.47645,52.80397],[13.47633,52.80399],[13.47604,52.80399],[13.47589,52.80402],[13.4758,52.80413],[13.47559,52.8043],[13.47546,52.80437],[13.47489,52.80431],[13.47454,52.80433]]}},{"type":"Feature","properties":{"art":"pfad"},"geometry":{"type":"LineString","coordinates":[[13.46915,52.80319],[13.46877,52.80416],[13.46858,52.80454],[13.46845,52.80495],[13.46815,52.80556],[13.46786,52.80651]]}},{"type":"Feature","properties":{"art":"pfad"},"geometry":{"type":"LineString","coordinates":[[13.47452,52.80437],[13.47454,52.80433],[13.47456,52.80427]]}},{"type":"Feature","properties":{"art":"strasse"},"geometry":{"type":"LineString","coordinates":[[13.47617,52.80465],[13.47626,52.80467]]}},{"type":"Feature","properties":{"art":"strasse"},"geometry":{"type":"LineString","coordinates":[[13.47606,52.80492],[13.47615,52.80493]]}},{"type":"Feature","properties":{"art":"pfad"},"geometry":{"type":"LineString","coordinates":[[13.47582,52.80582],[13.47413,52.80557],[13.47425,52.80503]]}},{"type":"Feature","properties":{"art":"pfad"},"geometry":{"type":"LineString","coordinates":[[13.46786,52.80651],[13.47425,52.80503]]}},{"type":"Feature","properties":{"art":"strasse"},"geometry":{"type":"LineString","coordinates":[[13.47571,52.80616],[13.47573,52.80611],[13.47581,52.80585],[13.47582,52.80582],[13.47582,52.80576],[13.47583,52.80558],[13.47584,52.80544],[13.47588,52.80535]]}},{"type":"Feature","properties":{"art":"strasse"},"geometry":{"type":"LineString","coordinates":[[13.46471,52.80421],[13.46464,52.80415],[13.46431,52.80389],[13.46428,52.80387]]}},{"type":"Feature","properties":{"art":"strasse"},"geometry":{"type":"LineString","coordinates":[[13.46354,52.80477],[13.46207,52.80486],[13.46163,52.80486],[13.46127,52.80485],[13.45967,52.80474],[13.45781,52.80463],[13.45747,52.80461]]}},{"type":"Feature","properties":{"art":"strasse"},"geometry":{"type":"LineString","coordinates":[[13.4565,52.80751],[13.45655,52.80749],[13.45711,52.8073],[13.458,52.80709],[13.46018,52.80639],[13.46046,52.80628],[13.4625,52.80532],[13.46354,52.80477]]}},{"type":"Feature","properties":{"art":"pfad"},"geometry":{"type":"LineString","coordinates":[[13.46786,52.80651],[13.46405,52.80734],[13.46251,52.80755],[13.46257,52.80746],[13.46275,52.80713],[13.46271,52.80687],[13.46251,52.80678],[13.46204,52.80693],[13.46162,52.80688],[13.46114,52.80695],[13.46098,52.80701],[13.46077,52.80699],[13.46018,52.80639]]}},{"type":"Feature","properties":{"art":"pfad"},"geometry":{"type":"LineString","coordinates":[[13.45619,52.80714],[13.45641,52.80723],[13.45655,52.80749]]}},{"type":"Feature","properties":{"art":"pfad"},"geometry":{"type":"LineString","coordinates":[[13.46251,52.80755],[13.46176,52.80768],[13.46158,52.80776],[13.4609,52.80783],[13.46065,52.80798],[13.46052,52.80801],[13.45959,52.80791],[13.45816,52.80779],[13.45699,52.8077],[13.45666,52.80794]]}},{"type":"Feature","properties":{"art":"pfad"},"geometry":{"type":"LineString","coordinates":[[13.46249,52.80818],[13.46251,52.80755]]}},{"type":"Feature","properties":{"art":"pfad"},"geometry":{"type":"LineString","coordinates":[[13.4565,52.80751],[13.45655,52.80767],[13.45662,52.80782],[13.45662,52.80792],[13.45666,52.80794],[13.45674,52.80799],[13.45675,52.80803]]}},{"type":"Feature","properties":{"art":"pfad"},"geometry":{"type":"LineString","coordinates":[[13.45797,52.80811],[13.45801,52.80801],[13.45816,52.80779]]}},{"type":"Feature","properties":{"art":"strasse"},"geometry":{"type":"LineString","coordinates":[[13.45606,52.80766],[13.4565,52.80751]]}},{"type":"Feature","properties":{"art":"strasse"},"geometry":{"type":"LineString","coordinates":[[13.47573,52.80611],[13.4759,52.80614]]}},{"type":"Feature","properties":{"art":"pfad"},"geometry":{"type":"LineString","coordinates":[[13.49552,52.82466],[13.49673,52.82267]]}},{"type":"Feature","properties":{"art":"pfad"},"geometry":{"type":"LineString","coordinates":[[13.4951,52.82538],[13.49517,52.82528],[13.49552,52.82466]]}},{"type":"Feature","properties":{"art":"pfad"},"geometry":{"type":"LineString","coordinates":[[13.4943,52.83675],[13.49213,52.83724]]}},{"type":"Feature","properties":{"art":"pfad"},"geometry":{"type":"LineString","coordinates":[[13.5132,52.83502],[13.51287,52.83561],[13.51197,52.83708],[13.51104,52.8386],[13.51097,52.83872],[13.51074,52.83911]]}},{"type":"Feature","properties":{"art":"pfad"},"geometry":{"type":"LineString","coordinates":[[13.51681,52.83868],[13.51571,52.83846],[13.51436,52.83806],[13.51389,52.83783],[13.51349,52.83752],[13.51305,52.83735],[13.51276,52.83722],[13.51253,52.83718],[13.51237,52.83718],[13.51197,52.83708]]}},{"type":"Feature","properties":{"art":"pfad"},"geometry":{"type":"LineString","coordinates":[[13.50648,52.83647],[13.50679,52.83643],[13.50685,52.83641],[13.51112,52.83627],[13.51287,52.83561],[13.5151,52.83534],[13.51709,52.83482],[13.51913,52.83402],[13.51956,52.83412],[13.51681,52.83868],[13.51612,52.83983],[13.51509,52.84182]]}},{"type":"Feature","properties":{"art":"pfad"},"geometry":{"type":"LineString","coordinates":[[13.51612,52.83983],[13.5113,52.83879],[13.51097,52.83872]]}},{"type":"Feature","properties":{"art":"strasse"},"geometry":{"type":"LineString","coordinates":[[13.52159,52.84599],[13.52136,52.84579],[13.52114,52.84561],[13.5209,52.84545],[13.5204,52.84512],[13.51877,52.84411],[13.51574,52.84224],[13.51509,52.84182],[13.51074,52.83911],[13.50956,52.83838],[13.50839,52.83765],[13.50745,52.83707],[13.50648,52.83647],[13.506,52.83617]]}},{"type":"Feature","properties":{"art":"weg"},"geometry":{"type":"LineString","coordinates":[[13.51574,52.84224],[13.51529,52.84235],[13.51522,52.84234]]}},{"type":"Feature","properties":{"art":"weg"},"geometry":{"type":"LineString","coordinates":[[13.53321,52.84607],[13.53319,52.84601],[13.53315,52.84594],[13.53139,52.84409],[13.53182,52.84326],[13.51612,52.83983]]}},{"type":"Feature","properties":{"art":"strasse"},"geometry":{"type":"LineString","coordinates":[[13.506,52.83617],[13.50566,52.83593],[13.50545,52.83573],[13.50529,52.83555],[13.50513,52.83532],[13.50491,52.83491]]}},{"type":"Feature","properties":{"art":"pfad"},"geometry":{"type":"LineString","coordinates":[[13.50485,52.83743],[13.50364,52.83707],[13.50235,52.83694]]}},{"type":"Feature","properties":{"art":"weg"},"geometry":{"type":"LineString","coordinates":[[13.49667,52.84208],[13.50485,52.83743],[13.50648,52.83647]]}},{"type":"Feature","properties":{"art":"weg"},"geometry":{"type":"LineString","coordinates":[[13.50437,52.83981],[13.50475,52.83911],[13.50491,52.83879],[13.50839,52.83765]]}},{"type":"Feature","properties":{"art":"pfad"},"geometry":{"type":"LineString","coordinates":[[13.4963,52.84229],[13.49657,52.84232],[13.49683,52.84225],[13.49774,52.84215]]}},{"type":"Feature","properties":{"art":"pfad"},"geometry":{"type":"LineString","coordinates":[[13.49952,52.84181],[13.49968,52.84178],[13.50051,52.84168]]}},{"type":"Feature","properties":{"art":"weg"},"geometry":{"type":"LineString","coordinates":[[13.49667,52.84208],[13.4963,52.84229]]}},{"type":"Feature","properties":{"art":"weg"},"geometry":{"type":"LineString","coordinates":[[13.4963,52.84229],[13.49606,52.84242]]}},{"type":"Feature","properties":{"art":"pfad"},"geometry":{"type":"LineString","coordinates":[[13.49606,52.84242],[13.49599,52.84246]]}},{"type":"Feature","properties":{"art":"weg"},"geometry":{"type":"LineString","coordinates":[[13.49434,52.83638],[13.49432,52.83651],[13.4943,52.83675],[13.49427,52.83683],[13.49394,52.83741],[13.4939,52.8377],[13.4939,52.83793],[13.49394,52.83897],[13.4941,52.83978],[13.49422,52.84004],[13.49495,52.84067],[13.49568,52.84116],[13.49636,52.84171],[13.49667,52.84208]]}},{"type":"Feature","properties":{"art":"pfad"},"geometry":{"type":"LineString","coordinates":[[13.4939,52.83793],[13.49602,52.83849],[13.49614,52.83857],[13.49615,52.83867]]}},{"type":"Feature","properties":{"art":"pfad"},"geometry":{"type":"LineString","coordinates":[[13.51187,52.84741],[13.51267,52.84739],[13.51343,52.8474],[13.51439,52.84739],[13.51479,52.84734],[13.51587,52.84733],[13.51868,52.8473],[13.52069,52.84725],[13.52274,52.84726]]}},{"type":"Feature","properties":{"art":"pfad"},"geometry":{"type":"LineString","coordinates":[[13.51187,52.84741],[13.50576,52.84746]]}},{"type":"Feature","properties":{"art":"pfad"},"geometry":{"type":"LineString","coordinates":[[13.51987,52.84775],[13.52002,52.84771],[13.52069,52.84725]]}},{"type":"Feature","properties":{"art":"pfad"},"geometry":{"type":"LineString","coordinates":[[13.51169,52.8477],[13.51183,52.84759],[13.51187,52.84741]]}},{"type":"Feature","properties":{"art":"strasse"},"geometry":{"type":"LineString","coordinates":[[13.51411,52.861],[13.51413,52.861],[13.51427,52.86098]]}},{"type":"Feature","properties":{"art":"strasse"},"geometry":{"type":"LineString","coordinates":[[13.5116,52.86614],[13.51095,52.8643]]}},{"type":"Feature","properties":{"art":"strasse"},"geometry":{"type":"LineString","coordinates":[[13.52798,52.85996],[13.52732,52.86023],[13.52665,52.86051],[13.52532,52.86106],[13.52267,52.86217],[13.52207,52.86241],[13.52143,52.86267],[13.52073,52.86294],[13.52013,52.86318],[13.51984,52.86331],[13.51956,52.86344],[13.51871,52.86384],[13.51704,52.86461],[13.51593,52.86512],[13.51575,52.8652],[13.51556,52.86528],[13.51539,52.86534],[13.51522,52.8654],[13.51504,52.86545],[13.51482,52.86551],[13.5146,52.86556],[13.51425,52.86563],[13.51316,52.86581],[13.51263,52.86591],[13.51233,52.86597],[13.51198,52.86604],[13.51176,52.8661]]}},{"type":"Feature","properties":{"art":"strasse"},"geometry":{"type":"LineString","coordinates":[[13.51176,52.8661],[13.5116,52.86614]]}},{"type":"Feature","properties":{"art":"pfad"},"geometry":{"type":"LineString","coordinates":[[13.51301,52.86732],[13.51334,52.86741],[13.51353,52.86753],[13.51362,52.86761],[13.51357,52.86769],[13.51347,52.8677],[13.51339,52.86771]]}},{"type":"Feature","properties":{"art":"strasse"},"geometry":{"type":"LineString","coordinates":[[13.51176,52.8661],[13.5123,52.86651],[13.51301,52.86732],[13.51339,52.86771],[13.51342,52.86774],[13.51359,52.86792],[13.51373,52.86816],[13.51385,52.86854],[13.51397,52.86893]]}},{"type":"Feature","properties":{"art":"strasse"},"geometry":{"type":"LineString","coordinates":[[13.51438,52.87013],[13.51444,52.87037],[13.51463,52.87091],[13.51487,52.87179],[13.51497,52.87256],[13.51498,52.87291],[13.515,52.87313],[13.51505,52.87339],[13.51521,52.87368],[13.51536,52.87393],[13.51585,52.87468],[13.51664,52.87577],[13.51718,52.87663],[13.51785,52.87768],[13.51795,52.87779]]}},{"type":"Feature","properties":{"art":"pfad"},"geometry":{"type":"LineString","coordinates":[[13.51498,52.87291],[13.51258,52.87343],[13.51132,52.8737],[13.50946,52.87406],[13.50638,52.87477]]}},{"type":"Feature","properties":{"art":"strasse"},"geometry":{"type":"LineString","coordinates":[[13.51795,52.87779],[13.51766,52.87782]]}},{"type":"Feature","properties":{"art":"strasse"},"geometry":{"type":"LineString","coordinates":[[13.51766,52.87782],[13.51714,52.87785]]}},{"type":"Feature","properties":{"art":"weg"},"geometry":{"type":"LineString","coordinates":[[13.48929,52.88869],[13.48947,52.88861],[13.48991,52.8885],[13.49025,52.88835],[13.49076,52.88795],[13.49319,52.88526],[13.49397,52.88473],[13.49527,52.88374],[13.49619,52.88272],[13.49682,52.88217],[13.49805,52.88136],[13.49884,52.88075],[13.49932,52.88049],[13.50083,52.87984],[13.50333,52.87749],[13.50638,52.87477],[13.50692,52.87428],[13.50776,52.87344],[13.50819,52.87269],[13.50844,52.87116],[13.50856,52.87085],[13.50889,52.87054],[13.51084,52.86923],[13.51129,52.86873],[13.51154,52.86807],[13.5116,52.86614]]}}]}