{"type":"FeatureCollection","features":[{"type":"Feature","properties":{"art":"pfad"},"geometry":{"type":"LineString","coordinates":[[13.7294,52.61203],[13.7267,52.6123],[13.72547,52.61244],[13.72517,52.61246],[13.72475,52.61251]]}},{"type":"Feature","properties":{"art":"weg"},"geometry":{"type":"LineString","coordinates":[[13.72934,52.61246],[13.72811,52.61268],[13.72768,52.61276],[13.7274,52.61287],[13.72712,52.61304],[13.72693,52.61324],[13.72675,52.61355]]}},{"type":"Feature","properties":{"art":"weg"},"geometry":{"type":"LineString","coordinates":[[13.72675,52.61355],[13.7266,52.61382],[13.72637,52.61416],[13.72626,52.61438],[13.72596,52.61487],[13.72579,52.61511],[13.72541,52.61548],[13.72535,52.61552]]}},{"type":"Feature","properties":{"art":"weg"},"geometry":{"type":"LineString","coordinates":[[13.73592,52.61234],[13.73594,52.61262],[13.73594,52.61271],[13.73568,52.61266],[13.73543,52.6126],[13.7351,52.61251],[13.73458,52.61246],[13.73409,52.61244],[13.73365,52.61243],[13.73319,52.61241],[13.73105,52.61236],[13.73057,52.61236],[13.73026,52.61236],[13.72996,52.61237],[13.72958,52.61242],[13.72934,52.61246]]}},{"type":"Feature","properties":{"art":"weg"},"geometry":{"type":"LineString","coordinates":[[13.72935,52.61165],[13.7294,52.61203],[13.72947,52.61232]]}},{"type":"Feature","properties":{"art":"weg"},"geometry":{"type":"LineString","coordinates":[[13.72947,52.61232],[13.72945,52.61236],[13.72941,52.61241],[13.72934,52.61246]]}},{"type":"Feature","properties":{"art":"weg"},"geometry":{"type":"LineString","coordinates":[[13.72947,52.61232],[13.72958,52.61242],[13.72977,52.61263],[13.72986,52.61274],[13.72994,52.61283],[13.73011,52.61304],[13.73022,52.61318],[13.73033,52.61331],[13.73039,52.61341],[13.73042,52.61351],[13.73046,52.61368],[13.73048,52.6139],[13.73049,52.61403],[13.73052,52.61416],[13.73058,52.61428],[13.7307,52.61474],[13.73078,52.61506],[13.73082,52.61523],[13.73092,52.61564],[13.731,52.616],[13.73104,52.61618],[13.73124,52.617],[13.73139,52.61764],[13.73145,52.61788],[13.73149,52.61805]]}},{"type":"Feature","properties":{"art":"pfad"},"geometry":{"type":"LineString","coordinates":[[13.72579,52.61511],[13.72588,52.61518],[13.72628,52.6155],[13.72681,52.61595],[13.72692,52.61601],[13.72714,52.61609],[13.7275,52.61618],[13.72844,52.61655],[13.72866,52.61662],[13.72883,52.6167],[13.72913,52.61687],[13.72955,52.61708],[13.73018,52.61743],[13.73083,52.61781],[13.73135,52.61811],[13.7315,52.61814]]}},{"type":"Feature","properties":{"art":"strasse"},"geometry":{"type":"LineString","coordinates":[[13.73165,52.61803],[13.73149,52.61805]]}},{"type":"Feature","properties":{"art":"weg"},"geometry":{"type":"LineString","coordinates":[[13.73149,52.61805],[13.7315,52.61814],[13.73168,52.61879],[13.73176,52.61909],[13.73189,52.6196]]}},{"type":"Feature","properties":{"art":"weg"},"geometry":{"type":"LineString","coordinates":[[13.73604,52.61273],[13.73602,52.61281],[13.73596,52.61297],[13.73591,52.6131],[13.73589,52.61327],[13.73591,52.61345],[13.73592,52.61349]]}},{"type":"Feature","properties":{"art":"strasse"},"geometry":{"type":"LineString","coordinates":[[13.68465,52.64139],[13.68437,52.64136],[13.68402,52.64134]]}},{"type":"Feature","properties":{"art":"weg"},"geometry":{"type":"LineString","coordinates":[[13.68796,52.64234],[13.68944,52.64199],[13.69017,52.64182],[13.69075,52.64165],[13.69124,52.64152],[13.69166,52.64151],[13.69266,52.64162]]}},{"type":"Feature","properties":{"art":"weg"},"geometry":{"type":"LineString","coordinates":[[13.70143,52.64346],[13.7015,52.64347],[13.702,52.6435],[13.70358,52.64407],[13.70441,52.64442]]}},{"type":"Feature","properties":{"art":"pfad"},"geometry":{"type":"LineString","coordinates":[[13.7229,52.66518],[13.72302,52.66522]]}},{"type":"Feature","properties":{"art":"pfad"},"geometry":{"type":"LineString","coordinates":[[13.72302,52.66522],[13.72299,52.6653],[13.72327,52.6654],[13.72335,52.66546],[13.72334,52.66558],[13.7233,52.66565],[13.72309,52.66594]]}},{"type":"Feature","properties":{"art":"pfad"},"geometry":{"type":"LineString","coordinates":[[13.72309,52.66594],[13.72262,52.66583],[13.72243,52.66586],[13.72221,52.66594],[13.722,52.66606],[13.72188,52.66609],[13.72178,52.66607],[13.72104,52.66584],[13.72068,52.66575],[13.72051,52.66574],[13.72034,52.66581],[13.71998,52.66592],[13.71965,52.666],[13.71939,52.66604],[13.71916,52.66604],[13.71871,52.66605],[13.71836,52.66603],[13.71796,52.66595],[13.71636,52.66546],[13.71525,52.6651]]}},{"type":"Feature","properties":{"art":"weg"},"geometry":{"type":"LineString","coordinates":[[13.72412,52.66634],[13.72402,52.66624],[13.72374,52.66616],[13.72335,52.66604],[13.72309,52.66594]]}},{"type":"Feature","properties":{"art":"strasse"},"geometry":{"type":"LineString","coordinates":[[13.72175,52.66751],[13.72184,52.66743],[13.72208,52.6672],[13.72221,52.66711],[13.72284,52.66684],[13.72293,52.66661]]}},{"type":"Feature","properties":{"art":"strasse"},"geometry":{"type":"LineString","coordinates":[[13.72324,52.66727],[13.72331,52.66721],[13.72336,52.66713],[13.72334,52.66706],[13.72311,52.66695],[13.72284,52.66684]]}},{"type":"Feature","properties":{"art":"pfad"},"geometry":{"type":"LineString","coordinates":[[13.72221,52.66711],[13.72251,52.66714]]}},{"type":"Feature","properties":{"art":"pfad"},"geometry":{"type":"LineString","coordinates":[[13.72058,52.6686],[13.72063,52.66852],[13.72066,52.66842],[13.72065,52.66836],[13.72059,52.66829],[13.72054,52.6682],[13.72052,52.66816],[13.72057,52.66811],[13.72061,52.66804],[13.72097,52.66748],[13.7213,52.66711],[13.72145,52.66699],[13.72165,52.66685],[13.72177,52.66679],[13.72192,52.66673],[13.72214,52.66664],[13.7223,52.66659],[13.72244,52.66656],[13.72264,52.66653],[13.72285,52.66653],[13.72303,52.66654]]}},{"type":"Feature","properties":{"art":"pfad"},"geometry":{"type":"LineString","coordinates":[[13.71525,52.6651],[13.7151,52.66516],[13.71492,52.66532],[13.71472,52.66564],[13.71456,52.66587],[13.71432,52.66614]]}},{"type":"Feature","properties":{"art":"strasse"},"geometry":{"type":"LineString","coordinates":[[13.72293,52.66661],[13.72303,52.66654],[13.72351,52.66637],[13.72412,52.66634],[13.72525,52.66664],[13.72645,52.66702],[13.72804,52.66751],[13.72885,52.66778],[13.72943,52.66797],[13.73037,52.66829],[13.73117,52.66857],[13.73304,52.66924],[13.73321,52.66925]]}},{"type":"Feature","properties":{"art":"pfad"},"geometry":{"type":"LineString","coordinates":[[13.73021,52.67041],[13.72949,52.66981],[13.72884,52.6691],[13.72843,52.66847],[13.7285,52.66811],[13.72885,52.66778]]}},{"type":"Feature","properties":{"art":"pfad"},"geometry":{"type":"LineString","coordinates":[[13.72353,52.6712],[13.72375,52.67122],[13.72394,52.67121],[13.72411,52.67113],[13.72436,52.67094],[13.72487,52.67058],[13.72505,52.67048],[13.7252,52.67044],[13.72546,52.67043],[13.72578,52.67047],[13.72651,52.67051],[13.7277,52.67041],[13.7289,52.67039],[13.72962,52.6704],[13.73021,52.67041],[13.73061,52.67042],[13.73133,52.67039],[13.73206,52.67033],[13.73237,52.67032],[13.73264,52.67037],[13.73368,52.67068],[13.73379,52.67068]]}},{"type":"Feature","properties":{"art":"strasse"},"geometry":{"type":"LineString","coordinates":[[13.73397,52.67114],[13.73384,52.67079],[13.73379,52.67068],[13.73321,52.66925],[13.7323,52.66702],[13.73221,52.66681],[13.73202,52.66631],[13.73192,52.66592],[13.7318,52.66514],[13.7318,52.66512]]}},{"type":"Feature","properties":{"art":"strasse"},"geometry":{"type":"LineString","coordinates":[[13.75197,52.61706],[13.75175,52.61724],[13.75173,52.61726]]}},{"type":"Feature","properties":{"art":"pfad"},"geometry":{"type":"LineString","coordinates":[[13.75105,52.61673],[13.75106,52.61682],[13.75118,52.61717]]}},{"type":"Feature","properties":{"art":"strasse"},"geometry":{"type":"LineString","coordinates":[[13.75055,52.61823],[13.75122,52.61768],[13.75169,52.61729],[13.75173,52.61726]]}},{"type":"Feature","properties":{"art":"strasse"},"geometry":{"type":"LineString","coordinates":[[13.75071,52.6183],[13.75087,52.61836],[13.751,52.6184]]}},{"type":"Feature","properties":{"art":"strasse"},"geometry":{"type":"LineString","coordinates":[[13.75122,52.61768],[13.75128,52.61771],[13.75131,52.61772],[13.75139,52.61775],[13.75147,52.61776],[13.75157,52.61778],[13.75164,52.61779]]}},{"type":"Feature","properties":{"art":"weg"},"geometry":{"type":"LineString","coordinates":[[13.74463,52.61845],[13.74473,52.6184],[13.74486,52.61829],[13.74488,52.61816],[13.74483,52.61799],[13.74473,52.61786],[13.74487,52.61774],[13.745,52.61767],[13.74524,52.61757],[13.74603,52.6172],[13.74791,52.61647]]}},{"type":"Feature","properties":{"art":"strasse"},"geometry":{"type":"LineString","coordinates":[[13.75055,52.61823],[13.75061,52.61826],[13.75063,52.61826],[13.75071,52.6183]]}},{"type":"Feature","properties":{"art":"strasse"},"geometry":{"type":"LineString","coordinates":[[13.74984,52.6188],[13.75015,52.61856],[13.75055,52.61823]]}},{"type":"Feature","properties":{"art":"pfad"},"geometry":{"type":"LineString","coordinates":[[13.74212,52.61529],[13.74216,52.61527],[13.74237,52.61516],[13.74326,52.61472],[13.74335,52.61466],[13.74347,52.61456]]}},{"type":"Feature","properties":{"art":"pfad"},"geometry":{"type":"LineString","coordinates":[[13.75169,52.61729],[13.75164,52.61727],[13.75118,52.61717],[13.75001,52.61699],[13.74893,52.6168],[13.74791,52.61647],[13.74749,52.6162],[13.74652,52.61582],[13.74564,52.61543],[13.74513,52.61524],[13.74347,52.61456],[13.74239,52.61412],[13.74219,52.61406],[13.74191,52.614],[13.74133,52.61388],[13.74132,52.61388]]}},{"type":"Feature","properties":{"art":"pfad"},"geometry":{"type":"LineString","coordinates":[[13.73667,52.61288],[13.73604,52.61273],[13.73594,52.61271]]}},{"type":"Feature","properties":{"art":"pfad"},"geometry":{"type":"LineString","coordinates":[[13.74263,52.61598],[13.7425,52.61582],[13.7423,52.61562],[13.74213,52.61532],[13.74212,52.61529]]}},{"type":"Feature","properties":{"art":"weg"},"geometry":{"type":"LineString","coordinates":[[13.74473,52.61786],[13.7443,52.61773],[13.74399,52.61759],[13.74394,52.61749],[13.74391,52.61741],[13.74383,52.61732],[13.7437,52.61723],[13.7436,52.61708],[13.74344,52.61695],[13.74336,52.61682],[13.74322,52.61667],[13.74305,52.61651],[13.74297,52.61636],[13.7428,52.61618],[13.74272,52.61607],[13.74263,52.61598]]}},{"type":"Feature","properties":{"art":"pfad"},"geometry":{"type":"LineString","coordinates":[[13.73854,52.61662],[13.73864,52.61659],[13.7389,52.6165],[13.73923,52.61647],[13.73948,52.61643],[13.73961,52.61644],[13.73988,52.61652],[13.74017,52.61664],[13.74022,52.61672],[13.7402,52.6168],[13.74007,52.61691],[13.73997,52.617],[13.73993,52.61708],[13.73993,52.61708]]}},{"type":"Feature","properties":{"art":"weg"},"geometry":{"type":"LineString","coordinates":[[13.74437,52.61861],[13.74459,52.61848],[13.74463,52.61845]]}},{"type":"Feature","properties":{"art":"pfad"},"geometry":{"type":"LineString","coordinates":[[13.74993,52.61881],[13.74997,52.61878],[13.75004,52.61875],[13.75018,52.61864],[13.75048,52.61839],[13.7505,52.61834],[13.75061,52.61826],[13.75067,52.6182],[13.75075,52.61818],[13.75111,52.61788],[13.75111,52.61785],[13.75113,52.61783],[13.75128,52.61771],[13.75178,52.6173],[13.75173,52.61726]]}},{"type":"Feature","properties":{"art":"pfad"},"geometry":{"type":"LineString","coordinates":[[13.82385,52.626],[13.82367,52.62596],[13.82349,52.62597],[13.82335,52.62598],[13.82328,52.62595],[13.82314,52.6258]]}},{"type":"Feature","properties":{"art":"pfad"},"geometry":{"type":"LineString","coordinates":[[13.81781,52.6341],[13.81805,52.63398],[13.81858,52.63353],[13.81908,52.63295],[13.81952,52.63261],[13.82054,52.63171],[13.82075,52.63155],[13.82092,52.63139],[13.8213,52.63103],[13.82152,52.63082],[13.82196,52.63048],[13.82211,52.63037],[13.82248,52.63014]]}},{"type":"Feature","properties":{"art":"pfad"},"geometry":{"type":"LineString","coordinates":[[13.82497,52.62875],[13.82502,52.62873],[13.82521,52.62868],[13.82548,52.62864],[13.82574,52.62862],[13.82579,52.62861],[13.82585,52.62854],[13.82591,52.62848],[13.82607,52.62843],[13.82623,52.62839],[13.82636,52.62834],[13.82647,52.62825],[13.82657,52.62817],[13.82672,52.62802],[13.82701,52.62764],[13.82727,52.62731],[13.82741,52.62722]]}},{"type":"Feature","properties":{"art":"weg"},"geometry":{"type":"LineString","coordinates":[[13.81694,52.63411],[13.81711,52.6341],[13.81745,52.63411],[13.81781,52.6341]]}},{"type":"Feature","properties":{"art":"pfad"},"geometry":{"type":"LineString","coordinates":[[13.78754,52.64695],[13.78781,52.64669],[13.78789,52.64661]]}},{"type":"Feature","properties":{"art":"pfad"},"geometry":{"type":"LineString","coordinates":[[13.78838,52.64715],[13.78812,52.6471],[13.78765,52.64696],[13.78754,52.64695]]}},{"type":"Feature","properties":{"art":"weg"},"geometry":{"type":"LineString","coordinates":[[13.78811,52.64671],[13.78819,52.64689],[13.78829,52.64705],[13.78838,52.64715],[13.78852,52.64722],[13.78864,52.64728],[13.78963,52.64761],[13.79035,52.64784],[13.79187,52.64838]]}},{"type":"Feature","properties":{"art":"weg"},"geometry":{"type":"LineString","coordinates":[[13.7824,52.65182],[13.78289,52.65141],[13.7845,52.64986],[13.78534,52.64906],[13.78601,52.64842],[13.78665,52.64781],[13.78742,52.64705],[13.78754,52.64695]]}},{"type":"Feature","properties":{"art":"pfad"},"geometry":{"type":"LineString","coordinates":[[13.81781,52.6341],[13.81796,52.63428],[13.81815,52.63443],[13.81865,52.63476],[13.81886,52.63486],[13.81926,52.63494],[13.82061,52.63488]]}},{"type":"Feature","properties":{"art":"strasse"},"geometry":{"type":"LineString","coordinates":[[13.80417,52.63529],[13.80426,52.63537],[13.80427,52.63541],[13.80423,52.63544],[13.80362,52.63568]]}},{"type":"Feature","properties":{"art":"strasse"},"geometry":{"type":"LineString","coordinates":[[13.80305,52.63638],[13.80309,52.6364],[13.80318,52.63649]]}},{"type":"Feature","properties":{"art":"strasse"},"geometry":{"type":"LineString","coordinates":[[13.80133,52.63674],[13.80118,52.63683],[13.801,52.63695],[13.80069,52.63712],[13.80065,52.63714],[13.80028,52.63733],[13.80024,52.63734],[13.8002,52.63734],[13.80018,52.63733]]}},{"type":"Feature","properties":{"art":"strasse"},"geometry":{"type":"LineString","coordinates":[[13.8002,52.63734],[13.80028,52.63737],[13.80035,52.63739],[13.80041,52.6374],[13.80048,52.6374],[13.80057,52.63739],[13.80065,52.63737],[13.80069,52.63734],[13.80072,52.63731],[13.80075,52.63727],[13.80076,52.63722],[13.80075,52.63719],[13.80073,52.63715],[13.80069,52.63712]]}},{"type":"Feature","properties":{"art":"strasse"},"geometry":{"type":"LineString","coordinates":[[13.8002,52.63734],[13.8002,52.63739],[13.80026,52.63758]]}},{"type":"Feature","properties":{"art":"strasse"},"geometry":{"type":"LineString","coordinates":[[13.8002,52.63734],[13.80008,52.63751],[13.80006,52.63761],[13.80007,52.63768],[13.80009,52.63773],[13.80011,52.63778],[13.80016,52.63784],[13.80038,52.63803],[13.80039,52.63805],[13.80037,52.63807],[13.80021,52.63814]]}},{"type":"Feature","properties":{"art":"weg"},"geometry":{"type":"LineString","coordinates":[[13.77658,52.64218],[13.77657,52.64226],[13.77654,52.64268],[13.77659,52.64302],[13.77661,52.64336],[13.77672,52.64364],[13.7768,52.64398],[13.77696,52.64434],[13.77735,52.645],[13.77766,52.64538],[13.77767,52.64543]]}},{"type":"Feature","properties":{"art":"weg"},"geometry":{"type":"LineString","coordinates":[[13.77654,52.64268],[13.77615,52.64281],[13.77575,52.64298],[13.77545,52.64308],[13.77515,52.64322],[13.77435,52.64359]]}},{"type":"Feature","properties":{"art":"strasse"},"geometry":{"type":"LineString","coordinates":[[13.76824,52.64855],[13.77226,52.65038]]}},{"type":"Feature","properties":{"art":"pfad"},"geometry":{"type":"LineString","coordinates":[[13.76843,52.64833],[13.76886,52.64853],[13.77287,52.65037]]}},{"type":"Feature","properties":{"art":"strasse"},"geometry":{"type":"LineString","coordinates":[[13.7805,52.65341],[13.77966,52.65301],[13.77942,52.6529],[13.7787,52.6526],[13.77859,52.65254],[13.7785,52.65248],[13.77845,52.65245],[13.77843,52.65241],[13.77838,52.65233],[13.77835,52.65227],[13.7783,52.65222],[13.77794,52.65203],[13.77779,52.65197]]}},{"type":"Feature","properties":{"art":"weg"},"geometry":{"type":"LineString","coordinates":[[13.7566,52.64492],[13.75668,52.64498],[13.75676,52.64503],[13.75686,52.64512],[13.75691,52.64522],[13.75732,52.6464]]}},{"type":"Feature","properties":{"art":"pfad"},"geometry":{"type":"LineString","coordinates":[[13.75732,52.6464],[13.75721,52.64646],[13.75697,52.64656],[13.75655,52.64671],[13.75641,52.64675],[13.7563,52.64677],[13.75622,52.64678],[13.75609,52.6468],[13.756,52.6468]]}},{"type":"Feature","properties":{"art":"weg"},"geometry":{"type":"LineString","coordinates":[[13.75654,52.65574],[13.75665,52.6558],[13.75726,52.65631]]}},{"type":"Feature","properties":{"art":"pfad"},"geometry":{"type":"LineString","coordinates":[[13.7599,52.65496],[13.76071,52.65455],[13.76092,52.65446],[13.76121,52.65434],[13.762,52.65397],[13.76236,52.65379]]}},{"type":"Feature","properties":{"art":"strasse"},"geometry":{"type":"LineString","coordinates":[[13.78219,52.65197],[13.78224,52.65201]]}},{"type":"Feature","properties":{"art":"strasse"},"geometry":{"type":"LineString","coordinates":[[13.78224,52.65201],[13.7824,52.65218],[13.78254,52.65245],[13.78256,52.65248],[13.78259,52.65251],[13.78268,52.65261],[13.78279,52.65273]]}},{"type":"Feature","properties":{"art":"strasse"},"geometry":{"type":"LineString","coordinates":[[13.7805,52.65341],[13.78124,52.65281],[13.78219,52.65197],[13.7824,52.65182]]}},{"type":"Feature","properties":{"art":"strasse"},"geometry":{"type":"LineString","coordinates":[[13.78356,52.65417],[13.78362,52.65419]]}},{"type":"Feature","properties":{"art":"strasse"},"geometry":{"type":"LineString","coordinates":[[13.78104,52.65365],[13.7805,52.65341]]}},{"type":"Feature","properties":{"art":"weg"},"geometry":{"type":"LineString","coordinates":[[13.78409,52.65477],[13.78419,52.65468],[13.78432,52.65454],[13.78438,52.65447]]}},{"type":"Feature","properties":{"art":"weg"},"geometry":{"type":"LineString","coordinates":[[13.78487,52.65476],[13.78626,52.65516]]}},{"type":"Feature","properties":{"art":"strasse"},"geometry":{"type":"LineString","coordinates":[[13.78034,52.65379],[13.78031,52.65377],[13.78026,52.65373],[13.78023,52.65367],[13.78025,52.65362],[13.78029,52.65358],[13.7805,52.65341]]}},{"type":"Feature","properties":{"art":"pfad"},"geometry":{"type":"LineString","coordinates":[[13.76092,52.65446],[13.76226,52.65528],[13.76233,52.65553],[13.76292,52.65608]]}},{"type":"Feature","properties":{"art":"pfad"},"geometry":{"type":"LineString","coordinates":[[13.77102,52.65945],[13.77063,52.65946],[13.7704,52.65938],[13.77001,52.65926],[13.76926,52.65913],[13.76868,52.65902],[13.76785,52.65888],[13.76755,52.65883],[13.76699,52.65876],[13.76637,52.65864],[13.76603,52.65854],[13.76579,52.6585],[13.76526,52.65844],[13.76463,52.65827],[13.76407,52.65819],[13.76299,52.6583],[13.76269,52.65824],[13.76255,52.65812],[13.76208,52.65794],[13.76193,52.65785],[13.76165,52.65759],[13.76164,52.65758]]}},{"type":"Feature","properties":{"art":"pfad"},"geometry":{"type":"LineString","coordinates":[[13.76143,52.65741],[13.761,52.65706],[13.75906,52.65528],[13.75953,52.65516],[13.7599,52.65496],[13.75913,52.6543],[13.75891,52.65384],[13.75767,52.65318],[13.75752,52.65267],[13.75765,52.65251]]}},{"type":"Feature","properties":{"art":"pfad"},"geometry":{"type":"LineString","coordinates":[[13.76368,52.65575],[13.76292,52.65608],[13.76282,52.65611],[13.76228,52.65639]]}},{"type":"Feature","properties":{"art":"pfad"},"geometry":{"type":"LineString","coordinates":[[13.76154,52.65678],[13.761,52.65706],[13.76031,52.6573],[13.76011,52.65731],[13.75999,52.65733]]}},{"type":"Feature","properties":{"art":"strasse"},"geometry":{"type":"LineString","coordinates":[[13.80069,52.63712],[13.80065,52.63709]]}},{"type":"Feature","properties":{"art":"pfad"},"geometry":{"type":"LineString","coordinates":[[13.80251,52.63791],[13.80263,52.63795],[13.80277,52.63799],[13.8031,52.63794],[13.80324,52.63789],[13.80337,52.63784],[13.80348,52.63782],[13.80383,52.63778],[13.80398,52.63775],[13.80426,52.63763],[13.80451,52.63749],[13.80471,52.63739],[13.80484,52.6373],[13.80493,52.63724],[13.80504,52.63721],[13.80533,52.63716],[13.8054,52.63712],[13.80545,52.63705],[13.80551,52.63695],[13.80552,52.6369],[13.80549,52.63685],[13.80543,52.6368],[13.80534,52.63675],[13.8053,52.63672],[13.80528,52.63665],[13.80526,52.63656],[13.80528,52.63648],[13.8053,52.63645],[13.80534,52.63644]]}},{"type":"Feature","properties":{"art":"pfad"},"geometry":{"type":"LineString","coordinates":[[13.80209,52.63866],[13.80208,52.63862],[13.80207,52.63854],[13.80209,52.63846],[13.80213,52.63835],[13.80218,52.63827],[13.80232,52.63815],[13.80243,52.63809],[13.80252,52.638],[13.80251,52.63791],[13.80207,52.63761],[13.80198,52.63753],[13.80182,52.63741],[13.80148,52.63725],[13.80103,52.63697],[13.801,52.63695]]}},{"type":"Feature","properties":{"art":"pfad"},"geometry":{"type":"LineString","coordinates":[[13.80427,52.63541],[13.80432,52.63542],[13.80534,52.63644],[13.80586,52.63696],[13.80609,52.63716],[13.80629,52.6373],[13.80644,52.63742],[13.80655,52.63756],[13.80661,52.63772],[13.80664,52.63782],[13.80676,52.63819],[13.80679,52.63834],[13.80682,52.63853],[13.80678,52.63873],[13.80669,52.63891],[13.80659,52.63908],[13.80644,52.6393],[13.80621,52.63953],[13.80609,52.63965],[13.80589,52.6398],[13.80568,52.63993],[13.80529,52.64017],[13.80476,52.64037],[13.80463,52.64043]]}},{"type":"Feature","properties":{"art":"pfad"},"geometry":{"type":"LineString","coordinates":[[13.80243,52.63809],[13.80263,52.63802],[13.80277,52.63799]]}},{"type":"Feature","properties":{"art":"pfad"},"geometry":{"type":"LineString","coordinates":[[13.82693,52.63457],[13.82707,52.63458],[13.82716,52.63462],[13.82723,52.63467],[13.82728,52.63472],[13.82732,52.63482],[13.82734,52.63499],[13.82729,52.63513],[13.82727,52.63517],[13.82723,52.63526],[13.82682,52.63624],[13.82634,52.63716],[13.82623,52.63726],[13.82598,52.63741],[13.82366,52.63833],[13.82359,52.63836],[13.82343,52.6384],[13.82327,52.6384],[13.82289,52.63833],[13.82258,52.63825],[13.82229,52.63816],[13.82219,52.63815],[13.82212,52.63817],[13.82204,52.63823],[13.82194,52.63843],[13.82164,52.63889],[13.82151,52.63904],[13.82134,52.63913],[13.82091,52.63929],[13.82063,52.63936],[13.82039,52.63938],[13.8202,52.63936],[13.81974,52.63923],[13.81874,52.63894],[13.8186,52.63893],[13.81848,52.63893],[13.81837,52.63895],[13.81825,52.63901],[13.81811,52.63914],[13.81772,52.63969],[13.81727,52.64034],[13.81636,52.64154],[13.81552,52.64273],[13.81516,52.64325]]}},{"type":"Feature","properties":{"art":"weg"},"geometry":{"type":"LineString","coordinates":[[13.80416,52.64033],[13.80414,52.64028],[13.80405,52.64019],[13.804,52.64014],[13.80383,52.64001],[13.80318,52.63951],[13.80215,52.63872],[13.80209,52.63866]]}},{"type":"Feature","properties":{"art":"strasse"},"geometry":{"type":"LineString","coordinates":[[13.801,52.63962],[13.80128,52.63968],[13.80174,52.63978],[13.80192,52.63982]]}},{"type":"Feature","properties":{"art":"strasse"},"geometry":{"type":"LineString","coordinates":[[13.8018,52.63969],[13.80174,52.63978]]}},{"type":"Feature","properties":{"art":"strasse"},"geometry":{"type":"LineString","coordinates":[[13.80118,52.63984],[13.80128,52.63968]]}},{"type":"Feature","properties":{"art":"pfad"},"geometry":{"type":"LineString","coordinates":[[13.804,52.64014],[13.80428,52.63996],[13.80479,52.63964]]}},{"type":"Feature","properties":{"art":"weg"},"geometry":{"type":"LineString","coordinates":[[13.80192,52.63982],[13.80278,52.64002],[13.80416,52.64033],[13.80426,52.64035]]}},{"type":"Feature","properties":{"art":"weg"},"geometry":{"type":"LineString","coordinates":[[13.80426,52.64035],[13.80463,52.64043]]}},{"type":"Feature","properties":{"art":"weg"},"geometry":{"type":"LineString","coordinates":[[13.80449,52.64053],[13.80426,52.64035]]}},{"type":"Feature","properties":{"art":"pfad"},"geometry":{"type":"LineString","coordinates":[[13.80463,52.64043],[13.80449,52.64053]]}},{"type":"Feature","properties":{"art":"pfad"},"geometry":{"type":"LineString","coordinates":[[13.81499,52.64343],[13.81516,52.64325],[13.8153,52.64322],[13.8155,52.6432],[13.81764,52.64345],[13.81779,52.64343],[13.81791,52.64339],[13.81803,52.64333],[13.81836,52.64308],[13.81883,52.64268],[13.81894,52.64263],[13.81932,52.6425],[13.82302,52.64126],[13.82498,52.6406],[13.82521,52.64058],[13.82674,52.64057]]}},{"type":"Feature","properties":{"art":"weg"},"geometry":{"type":"LineString","coordinates":[[13.80463,52.64043],[13.80539,52.64061]]}},{"type":"Feature","properties":{"art":"weg"},"geometry":{"type":"LineString","coordinates":[[13.81453,52.6431],[13.81499,52.64343],[13.81522,52.6436],[13.81675,52.64472],[13.81691,52.64482]]}},{"type":"Feature","properties":{"art":"weg"},"geometry":{"type":"LineString","coordinates":[[13.81728,52.64506],[13.81733,52.64498],[13.81746,52.6449],[13.81941,52.64464],[13.82175,52.64431],[13.82588,52.64369],[13.82636,52.64365],[13.82711,52.64336],[13.82758,52.64319],[13.82819,52.64309],[13.82855,52.64297],[13.82939,52.6428],[13.83055,52.64268],[13.83089,52.64261],[13.83138,52.6426],[13.83208,52.64249],[13.83262,52.64251],[13.83325,52.64244],[13.83397,52.6425],[13.83481,52.64279],[13.83532,52.64293],[13.83571,52.64296]]}},{"type":"Feature","properties":{"art":"weg"},"geometry":{"type":"LineString","coordinates":[[13.8126,52.64702],[13.81252,52.64688],[13.81244,52.64676],[13.8123,52.64653]]}},{"type":"Feature","properties":{"art":"weg"},"geometry":{"type":"LineString","coordinates":[[13.80478,52.64075],[13.80449,52.64053]]}},{"type":"Feature","properties":{"art":"weg"},"geometry":{"type":"LineString","coordinates":[[13.81691,52.64482],[13.81728,52.64506],[13.81763,52.64532]]}},{"type":"Feature","properties":{"art":"weg"},"geometry":{"type":"LineString","coordinates":[[13.817,52.65092],[13.81673,52.65064],[13.81629,52.65026],[13.81598,52.64997],[13.81554,52.64961],[13.81479,52.64903],[13.81428,52.6486],[13.81361,52.64805],[13.8132,52.6477],[13.81287,52.64739],[13.81273,52.6472],[13.8126,52.64702]]}},{"type":"Feature","properties":{"art":"pfad"},"geometry":{"type":"LineString","coordinates":[[13.79225,52.6487],[13.79234,52.64871],[13.7924,52.64872],[13.79249,52.64875],[13.79257,52.6488],[13.79274,52.64892],[13.79321,52.64921],[13.79337,52.64932],[13.7936,52.64949],[13.79381,52.64962],[13.79404,52.64975],[13.79441,52.65008],[13.79465,52.65026],[13.79494,52.65049],[13.79518,52.65066],[13.79551,52.65085],[13.7957,52.65097],[13.79606,52.65125],[13.79632,52.65146],[13.7967,52.6518],[13.79685,52.6519],[13.79703,52.65198],[13.79728,52.65207],[13.79757,52.65212],[13.79796,52.65218],[13.79823,52.6522],[13.79988,52.65229],[13.80015,52.6523],[13.8003,52.65231],[13.80096,52.65231],[13.80161,52.6523],[13.802,52.6523],[13.80223,52.65227],[13.80245,52.65222],[13.80262,52.65215],[13.8029,52.65201],[13.80343,52.65171],[13.80407,52.65136],[13.80445,52.65116],[13.80509,52.65079],[13.80587,52.65036],[13.80649,52.65002],[13.80681,52.64983],[13.8074,52.64948],[13.80848,52.6489],[13.80885,52.64871],[13.80991,52.64811],[13.81049,52.64779],[13.81082,52.64762],[13.81148,52.64732],[13.81174,52.64721],[13.81217,52.64702],[13.81228,52.64698],[13.81246,52.64693],[13.81252,52.64688],[13.81258,52.64685],[13.81298,52.64668]]}},{"type":"Feature","properties":{"art":"weg"},"geometry":{"type":"LineString","coordinates":[[13.81779,52.65066],[13.817,52.65092]]}},{"type":"Feature","properties":{"art":"pfad"},"geometry":{"type":"LineString","coordinates":[[13.81139,52.65264],[13.81176,52.65269]]}},{"type":"Feature","properties":{"art":"pfad"},"geometry":{"type":"LineString","coordinates":[[13.80885,52.64871],[13.80969,52.64954],[13.80993,52.64979],[13.81111,52.65095],[13.81246,52.65232],[13.81298,52.65283],[13.8142,52.65397],[13.8147,52.65456],[13.81527,52.65504],[13.81608,52.65584],[13.81651,52.65635],[13.81747,52.65733]]}},{"type":"Feature","properties":{"art":"weg"},"geometry":{"type":"LineString","coordinates":[[13.80407,52.65136],[13.80329,52.65246],[13.80128,52.65522]]}},{"type":"Feature","properties":{"art":"pfad"},"geometry":{"type":"LineString","coordinates":[[13.80913,52.65336],[13.80937,52.65365],[13.81008,52.65413],[13.81054,52.65445],[13.81066,52.65456],[13.81087,52.65458],[13.81173,52.65431],[13.81204,52.6542],[13.81206,52.65414],[13.8112,52.65347],[13.8109,52.65319],[13.81077,52.65299],[13.81071,52.65286]]}},{"type":"Feature","properties":{"art":"weg"},"geometry":{"type":"LineString","coordinates":[[13.817,52.65092],[13.81387,52.6519],[13.81246,52.65232],[13.81139,52.65264],[13.81071,52.65286],[13.80939,52.65328],[13.80913,52.65336],[13.80734,52.6539],[13.8051,52.6546],[13.80297,52.65526],[13.80183,52.65562],[13.79847,52.65663],[13.79653,52.65719],[13.79629,52.65723],[13.79606,52.65723],[13.79566,52.65717]]}},{"type":"Feature","properties":{"art":"weg"},"geometry":{"type":"LineString","coordinates":[[13.79187,52.64838],[13.79209,52.64845],[13.79217,52.64847],[13.79227,52.64848]]}},{"type":"Feature","properties":{"art":"strasse"},"geometry":{"type":"LineString","coordinates":[[13.79248,52.65623],[13.79251,52.65616],[13.79255,52.656],[13.79258,52.65572],[13.79264,52.65461],[13.79264,52.65436],[13.79231,52.65257],[13.79224,52.65214],[13.79209,52.65131],[13.79208,52.65119],[13.79207,52.65106],[13.79209,52.6508],[13.79211,52.6505],[13.79213,52.6502],[13.79225,52.6487],[13.79227,52.64848],[13.7923,52.64809]]}},{"type":"Feature","properties":{"art":"pfad"},"geometry":{"type":"LineString","coordinates":[[13.79231,52.65257],[13.79242,52.65255],[13.79275,52.65246],[13.79632,52.65146]]}},{"type":"Feature","properties":{"art":"weg"},"geometry":{"type":"LineString","coordinates":[[13.79901,52.65262],[13.79962,52.65247],[13.80015,52.6523]]}},{"type":"Feature","properties":{"art":"pfad"},"geometry":{"type":"LineString","coordinates":[[13.79264,52.65436],[13.79282,52.65435],[13.79387,52.65405],[13.79465,52.65383],[13.79541,52.65362],[13.7981,52.65289],[13.79901,52.65262],[13.79952,52.65259],[13.80028,52.65273],[13.80074,52.65287],[13.80164,52.65293],[13.80222,52.65293]]}},{"type":"Feature","properties":{"art":"pfad"},"geometry":{"type":"LineString","coordinates":[[13.79275,52.65246],[13.79335,52.65287],[13.79381,52.6532],[13.79465,52.65383],[13.79532,52.65435],[13.79615,52.65491],[13.79659,52.65533],[13.79723,52.65579],[13.79847,52.65663]]}},{"type":"Feature","properties":{"art":"weg"},"geometry":{"type":"LineString","coordinates":[[13.79248,52.65623],[13.79278,52.6563]]}},{"type":"Feature","properties":{"art":"strasse"},"geometry":{"type":"LineString","coordinates":[[13.7918,52.65699],[13.79237,52.65637],[13.79248,52.65623]]}},{"type":"Feature","properties":{"art":"weg"},"geometry":{"type":"LineString","coordinates":[[13.79566,52.65717],[13.79407,52.65676],[13.7929,52.65634],[13.79278,52.6563]]}},{"type":"Feature","properties":{"art":"weg"},"geometry":{"type":"LineString","coordinates":[[13.78835,52.65533],[13.78857,52.6554],[13.78881,52.65547]]}},{"type":"Feature","properties":{"art":"weg"},"geometry":{"type":"LineString","coordinates":[[13.78731,52.65489],[13.78704,52.65523],[13.78689,52.65543]]}},{"type":"Feature","properties":{"art":"weg"},"geometry":{"type":"LineString","coordinates":[[13.7885,52.65565],[13.78841,52.65562],[13.78771,52.65543],[13.78704,52.65523],[13.78643,52.65505],[13.7864,52.65504],[13.78636,52.65505],[13.78633,52.65506],[13.78631,52.65507],[13.78626,52.65516],[13.78616,52.65538]]}},{"type":"Feature","properties":{"art":"weg"},"geometry":{"type":"LineString","coordinates":[[13.78789,52.65521],[13.78771,52.65543],[13.78767,52.65548]]}},{"type":"Feature","properties":{"art":"weg"},"geometry":{"type":"LineString","coordinates":[[13.78857,52.6554],[13.78841,52.65562],[13.7884,52.65563]]}},{"type":"Feature","properties":{"art":"pfad"},"geometry":{"type":"LineString","coordinates":[[13.80445,52.65116],[13.80734,52.6539],[13.80932,52.65562],[13.81003,52.65633],[13.81156,52.65774]]}},{"type":"Feature","properties":{"art":"pfad"},"geometry":{"type":"LineString","coordinates":[[13.81173,52.65431],[13.81275,52.65555]]}},{"type":"Feature","properties":{"art":"pfad"},"geometry":{"type":"LineString","coordinates":[[13.8051,52.6546],[13.80568,52.6551],[13.80626,52.65543],[13.80932,52.65562],[13.81187,52.65573],[13.81272,52.65556],[13.81275,52.65555],[13.81372,52.65547],[13.81527,52.65504],[13.81588,52.65487],[13.81697,52.65477],[13.81838,52.65473],[13.81897,52.65477],[13.81969,52.65462],[13.82004,52.65436]]}},{"type":"Feature","properties":{"art":"weg"},"geometry":{"type":"LineString","coordinates":[[13.7981,52.65289],[13.7996,52.654],[13.80128,52.65522],[13.80183,52.65562],[13.8041,52.65713],[13.80614,52.65851]]}},{"type":"Feature","properties":{"art":"pfad"},"geometry":{"type":"LineString","coordinates":[[13.81003,52.65633],[13.81087,52.65607]]}},{"type":"Feature","properties":{"art":"weg"},"geometry":{"type":"LineString","coordinates":[[13.83159,52.66252],[13.83153,52.66244],[13.83135,52.66215],[13.83117,52.66197],[13.83097,52.66175],[13.83073,52.66158],[13.83013,52.6613],[13.82934,52.66086],[13.82862,52.66043],[13.82822,52.66017],[13.82787,52.65988],[13.82754,52.65945],[13.82725,52.65922],[13.8261,52.65849],[13.82521,52.6579],[13.82444,52.6574],[13.82381,52.65701],[13.82219,52.65598],[13.82129,52.6549],[13.82039,52.65405],[13.8178,52.65164],[13.817,52.65092]]}},{"type":"Feature","properties":{"art":"pfad"},"geometry":{"type":"LineString","coordinates":[[13.81323,52.65749],[13.81335,52.65723],[13.81357,52.65708],[13.8137,52.65703],[13.81386,52.65698],[13.81464,52.65689],[13.81493,52.65681],[13.81542,52.65643],[13.81591,52.65604],[13.81608,52.65584]]}},{"type":"Feature","properties":{"art":"pfad"},"geometry":{"type":"LineString","coordinates":[[13.8137,52.65703],[13.81362,52.65693],[13.81355,52.65683]]}},{"type":"Feature","properties":{"art":"weg"},"geometry":{"type":"LineString","coordinates":[[13.82219,52.65598],[13.82176,52.65621],[13.81957,52.65729],[13.81931,52.65725],[13.81871,52.65731],[13.81747,52.65733],[13.81646,52.65757],[13.81572,52.65768],[13.81486,52.65759],[13.81395,52.6574],[13.81323,52.65749],[13.81284,52.65772],[13.81263,52.65783],[13.81239,52.65784],[13.81156,52.65774],[13.8105,52.65758],[13.81017,52.6575],[13.80968,52.65747],[13.80947,52.65748],[13.80924,52.65755],[13.80848,52.6579],[13.80712,52.65834],[13.80614,52.65851],[13.80531,52.65878],[13.80395,52.6593],[13.80374,52.65929],[13.80348,52.65923],[13.8029,52.65907],[13.80158,52.65864],[13.8006,52.65825],[13.80011,52.65813],[13.7996,52.65808],[13.79889,52.65805],[13.79871,52.65803],[13.79822,52.65792],[13.79566,52.65717]]}},{"type":"Feature","properties":{"art":"pfad"},"geometry":{"type":"LineString","coordinates":[[13.8105,52.65758],[13.81056,52.65775],[13.81062,52.65789],[13.81162,52.6591],[13.81194,52.65937],[13.81267,52.65952],[13.81393,52.66008]]}},{"type":"Feature","properties":{"art":"weg"},"geometry":{"type":"LineString","coordinates":[[13.7893,52.65555],[13.78913,52.65577]]}},{"type":"Feature","properties":{"art":"weg"},"geometry":{"type":"LineString","coordinates":[[13.79077,52.6558],[13.79054,52.6561]]}},{"type":"Feature","properties":{"art":"weg"},"geometry":{"type":"LineString","coordinates":[[13.79014,52.65554],[13.78983,52.65593]]}},{"type":"Feature","properties":{"art":"strasse"},"geometry":{"type":"LineString","coordinates":[[13.79167,52.65713],[13.79159,52.65711],[13.79132,52.65703],[13.7912,52.65701]]}},{"type":"Feature","properties":{"art":"strasse"},"geometry":{"type":"LineString","coordinates":[[13.79112,52.65775],[13.79167,52.65713],[13.7918,52.65699]]}},{"type":"Feature","properties":{"art":"strasse"},"geometry":{"type":"LineString","coordinates":[[13.79115,52.65792],[13.79126,52.65795]]}},{"type":"Feature","properties":{"art":"strasse"},"geometry":{"type":"LineString","coordinates":[[13.79111,52.65802],[13.79112,52.65802]]}},{"type":"Feature","properties":{"art":"strasse"},"geometry":{"type":"LineString","coordinates":[[13.79105,52.65783],[13.79112,52.65775]]}},{"type":"Feature","properties":{"art":"strasse"},"geometry":{"type":"LineString","coordinates":[[13.79108,52.65831],[13.79141,52.65846]]}},{"type":"Feature","properties":{"art":"pfad"},"geometry":{"type":"LineString","coordinates":[[13.79871,52.65803],[13.79855,52.65834],[13.79832,52.65872],[13.79768,52.65962],[13.79776,52.65963],[13.79807,52.65962]]}},{"type":"Feature","properties":{"art":"strasse"},"geometry":{"type":"LineString","coordinates":[[13.79099,52.65893],[13.79129,52.65906],[13.79248,52.65961],[13.79278,52.65975],[13.7935,52.66007]]}},{"type":"Feature","properties":{"art":"strasse"},"geometry":{"type":"LineString","coordinates":[[13.79226,52.65978],[13.79248,52.65961]]}},{"type":"Feature","properties":{"art":"weg"},"geometry":{"type":"LineString","coordinates":[[13.77972,52.65909],[13.77948,52.65926],[13.77942,52.65933],[13.77941,52.65939],[13.77944,52.65945],[13.77956,52.6595],[13.78117,52.66],[13.78166,52.66014],[13.78191,52.66022],[13.78272,52.66048],[13.7839,52.66087],[13.78481,52.66115],[13.78572,52.66147],[13.78585,52.66153],[13.78616,52.66171],[13.78765,52.66221],[13.78856,52.66253]]}},{"type":"Feature","properties":{"art":"strasse"},"geometry":{"type":"LineString","coordinates":[[13.79278,52.65975],[13.79259,52.65992]]}},{"type":"Feature","properties":{"art":"strasse"},"geometry":{"type":"LineString","coordinates":[[13.79345,52.66014],[13.79333,52.66013],[13.79306,52.66018]]}},{"type":"Feature","properties":{"art":"strasse"},"geometry":{"type":"LineString","coordinates":[[13.7935,52.66007],[13.79498,52.66074]]}},{"type":"Feature","properties":{"art":"pfad"},"geometry":{"type":"LineString","coordinates":[[13.81646,52.65757],[13.81673,52.65791],[13.81696,52.65816],[13.8173,52.65862],[13.81847,52.66004],[13.81955,52.66138],[13.82005,52.66189],[13.82034,52.6622],[13.82059,52.66256],[13.82071,52.66276]]}},{"type":"Feature","properties":{"art":"pfad"},"geometry":{"type":"LineString","coordinates":[[13.81284,52.65772],[13.81305,52.65793],[13.81393,52.66008],[13.81417,52.66058],[13.81435,52.66136],[13.81472,52.66221],[13.81488,52.66289]]}},{"type":"Feature","properties":{"art":"pfad"},"geometry":{"type":"LineString","coordinates":[[13.81393,52.66008],[13.81493,52.66034],[13.81556,52.6606],[13.81617,52.66084],[13.81669,52.66105]]}},{"type":"Feature","properties":{"art":"pfad"},"geometry":{"type":"LineString","coordinates":[[13.80395,52.6593],[13.80404,52.6595],[13.80415,52.65974],[13.80421,52.66036],[13.8046,52.66188],[13.80488,52.66292],[13.80493,52.66306]]}},{"type":"Feature","properties":{"art":"pfad"},"geometry":{"type":"LineString","coordinates":[[13.82161,52.66206],[13.82005,52.66189],[13.81864,52.6616],[13.81775,52.66135],[13.81669,52.66105],[13.81593,52.66101],[13.81528,52.66112],[13.81473,52.66129],[13.81435,52.66136]]}},{"type":"Feature","properties":{"art":"pfad"},"geometry":{"type":"LineString","coordinates":[[13.8046,52.66188],[13.80588,52.66183],[13.81047,52.66161],[13.81435,52.66136]]}},{"type":"Feature","properties":{"art":"pfad"},"geometry":{"type":"LineString","coordinates":[[13.81047,52.66161],[13.81059,52.66237],[13.8104,52.66265],[13.81039,52.66287],[13.81038,52.66297]]}},{"type":"Feature","properties":{"art":"strasse"},"geometry":{"type":"LineString","coordinates":[[13.80035,52.66319],[13.80047,52.66316],[13.80063,52.66313],[13.80179,52.66314],[13.80493,52.66306],[13.80915,52.663],[13.81038,52.66297],[13.81206,52.66294],[13.81267,52.66292],[13.81327,52.66291],[13.81488,52.66289],[13.81751,52.66283],[13.81917,52.66279],[13.82071,52.66276],[13.82254,52.66273],[13.82614,52.66266],[13.82721,52.66264],[13.83051,52.66257],[13.83159,52.66252],[13.83184,52.66258]]}},{"type":"Feature","properties":{"art":"strasse"},"geometry":{"type":"LineString","coordinates":[[13.7993,52.66272],[13.80035,52.66319],[13.80163,52.66378]]}},{"type":"Feature","properties":{"art":"pfad"},"geometry":{"type":"LineString","coordinates":[[13.81206,52.66294],[13.81204,52.66304],[13.81176,52.6643],[13.8109,52.66484],[13.80959,52.66524],[13.80901,52.66528],[13.80897,52.66543],[13.80831,52.66561]]}},{"type":"Feature","properties":{"art":"strasse"},"geometry":{"type":"LineString","coordinates":[[13.79498,52.66074],[13.79505,52.66077],[13.79849,52.66234],[13.7993,52.66272]]}},{"type":"Feature","properties":{"art":"strasse"},"geometry":{"type":"LineString","coordinates":[[13.78945,52.66225],[13.78929,52.66242],[13.78928,52.66245],[13.78929,52.66247],[13.78931,52.66248],[13.79091,52.663],[13.79237,52.66341],[13.79273,52.66352],[13.79285,52.66353]]}},{"type":"Feature","properties":{"art":"strasse"},"geometry":{"type":"LineString","coordinates":[[13.79116,52.66285],[13.79106,52.66297]]}},{"type":"Feature","properties":{"art":"strasse"},"geometry":{"type":"LineString","coordinates":[[13.79239,52.6632],[13.79237,52.66341]]}},{"type":"Feature","properties":{"art":"strasse"},"geometry":{"type":"LineString","coordinates":[[13.79134,52.66291],[13.79106,52.66297],[13.79091,52.663],[13.79041,52.6631],[13.79036,52.66311],[13.79035,52.66312]]}},{"type":"Feature","properties":{"art":"strasse"},"geometry":{"type":"LineString","coordinates":[[13.79287,52.66333],[13.79285,52.66353]]}},{"type":"Feature","properties":{"art":"strasse"},"geometry":{"type":"LineString","coordinates":[[13.79215,52.67045],[13.79216,52.67042],[13.79219,52.67029],[13.7923,52.66962],[13.79247,52.66829],[13.79255,52.66758],[13.7926,52.66713],[13.79274,52.66611],[13.79292,52.66463],[13.79302,52.6639],[13.79308,52.66339]]}},{"type":"Feature","properties":{"art":"strasse"},"geometry":{"type":"LineString","coordinates":[[13.79343,52.66042],[13.79345,52.66014],[13.79345,52.66011],[13.7935,52.66007]]}},{"type":"Feature","properties":{"art":"strasse"},"geometry":{"type":"LineString","coordinates":[[13.79204,52.67044],[13.79184,52.67037],[13.79152,52.67028],[13.79143,52.67026],[13.79123,52.67026]]}},{"type":"Feature","properties":{"art":"strasse"},"geometry":{"type":"LineString","coordinates":[[13.79163,52.67057],[13.79185,52.67048],[13.79204,52.67044],[13.79215,52.67045]]}},{"type":"Feature","properties":{"art":"weg"},"geometry":{"type":"LineString","coordinates":[[13.78804,52.66192],[13.78825,52.66202],[13.78842,52.66208],[13.78847,52.66208],[13.78852,52.66207],[13.78865,52.66198]]}},{"type":"Feature","properties":{"art":"weg"},"geometry":{"type":"LineString","coordinates":[[13.78817,52.66183],[13.78804,52.66192],[13.78767,52.6622],[13.78765,52.66221]]}},{"type":"Feature","properties":{"art":"strasse"},"geometry":{"type":"LineString","coordinates":[[13.78889,52.66234],[13.78922,52.66246],[13.78931,52.66248]]}},{"type":"Feature","properties":{"art":"weg"},"geometry":{"type":"LineString","coordinates":[[13.79035,52.66312],[13.78856,52.66253]]}},{"type":"Feature","properties":{"art":"pfad"},"geometry":{"type":"LineString","coordinates":[[13.77633,52.66113],[13.77663,52.66127],[13.77683,52.66138],[13.77689,52.66141],[13.77709,52.66145],[13.77746,52.66151],[13.77758,52.66153],[13.77938,52.66214],[13.78338,52.66349],[13.78567,52.66427],[13.78714,52.66504],[13.78792,52.66538],[13.78833,52.66557],[13.78965,52.66621],[13.79137,52.66696],[13.79255,52.66758],[13.79377,52.66842],[13.79439,52.66893],[13.79506,52.66938],[13.79592,52.66995],[13.79767,52.67125],[13.79848,52.67183],[13.79951,52.67261],[13.79988,52.67269],[13.80187,52.67307],[13.80414,52.67387]]}},{"type":"Feature","properties":{"art":"pfad"},"geometry":{"type":"LineString","coordinates":[[13.79035,52.66312],[13.7892,52.66342],[13.78683,52.664],[13.78567,52.66427],[13.78434,52.6646],[13.78212,52.66512],[13.78079,52.66546],[13.7794,52.66579],[13.77845,52.66598],[13.77829,52.66604],[13.77811,52.66609],[13.77733,52.66629],[13.77616,52.66662]]}},{"type":"Feature","properties":{"art":"pfad"},"geometry":{"type":"LineString","coordinates":[[13.78833,52.66557],[13.78499,52.66813]]}},{"type":"Feature","properties":{"art":"pfad"},"geometry":{"type":"LineString","coordinates":[[13.77811,52.66609],[13.77856,52.6662],[13.77998,52.66669],[13.78499,52.66813],[13.78765,52.66887],[13.78968,52.6696],[13.79036,52.66984],[13.79164,52.67025],[13.79216,52.67042]]}},{"type":"Feature","properties":{"art":"pfad"},"geometry":{"type":"LineString","coordinates":[[13.7323,52.66702],[13.73251,52.66702],[13.73281,52.66699],[13.73397,52.66721],[13.73419,52.66729],[13.73458,52.66751],[13.73496,52.66767],[13.73525,52.66776],[13.73555,52.66778],[13.73573,52.66777],[13.73707,52.66797],[13.73759,52.66795],[13.73792,52.66788],[13.73877,52.66788],[13.73934,52.66791],[13.73957,52.6679],[13.74012,52.66798],[13.74048,52.66798],[13.74092,52.66805],[13.74166,52.66808],[13.74238,52.66822],[13.74273,52.66825],[13.74312,52.66817],[13.7433,52.66803],[13.74356,52.66798],[13.74463,52.66808],[13.74581,52.66813],[13.74598,52.66805],[13.74607,52.66789],[13.74616,52.66746],[13.74648,52.66669],[13.74654,52.66661],[13.74668,52.66657],[13.7469,52.66658]]}},{"type":"Feature","properties":{"art":"pfad"},"geometry":{"type":"LineString","coordinates":[[13.73707,52.66797],[13.7369,52.66839],[13.73686,52.66852],[13.73685,52.66867],[13.73682,52.66878]]}},{"type":"Feature","properties":{"art":"pfad"},"geometry":{"type":"LineString","coordinates":[[13.73832,52.66897],[13.73807,52.66887],[13.73745,52.6688],[13.73682,52.66878],[13.73636,52.66874]]}},{"type":"Feature","properties":{"art":"pfad"},"geometry":{"type":"LineString","coordinates":[[13.73682,52.66878],[13.73681,52.66883],[13.73597,52.66947],[13.73523,52.67021],[13.73495,52.67059]]}},{"type":"Feature","properties":{"art":"pfad"},"geometry":{"type":"LineString","coordinates":[[13.73384,52.67079],[13.73409,52.67075],[13.73495,52.67059],[13.73507,52.67058],[13.73595,52.67055],[13.73657,52.67052],[13.73671,52.6705],[13.7368,52.67044],[13.73743,52.66975],[13.73803,52.66912],[13.73817,52.66902],[13.73832,52.66897],[13.73924,52.66905],[13.74068,52.66915],[13.74107,52.66918],[13.74157,52.66919],[13.74193,52.66924]]}},{"type":"Feature","properties":{"art":"pfad"},"geometry":{"type":"LineString","coordinates":[[13.7433,52.66803],[13.7432,52.66799],[13.74316,52.66782]]}},{"type":"Feature","properties":{"art":"strasse"},"geometry":{"type":"LineString","coordinates":[[13.65721,52.64696],[13.6558,52.64861],[13.65493,52.64961]]}},{"type":"Feature","properties":{"art":"strasse"},"geometry":{"type":"LineString","coordinates":[[13.64415,52.65842],[13.64378,52.65866]]}},{"type":"Feature","properties":{"art":"weg"},"geometry":{"type":"LineString","coordinates":[[13.67779,52.67235],[13.67861,52.67178]]}},{"type":"Feature","properties":{"art":"weg"},"geometry":{"type":"LineString","coordinates":[[13.68271,52.67497],[13.68256,52.67485],[13.68226,52.67468],[13.6815,52.67428],[13.68095,52.67397],[13.68055,52.67376],[13.6799,52.67341],[13.67943,52.67315],[13.67892,52.67284],[13.67779,52.67235],[13.67706,52.67193],[13.67641,52.6716],[13.67422,52.6709],[13.67389,52.67083]]}},{"type":"Feature","properties":{"art":"strasse"},"geometry":{"type":"LineString","coordinates":[[13.67224,52.67573],[13.67294,52.67576],[13.67414,52.67575],[13.67457,52.67576],[13.67559,52.67577],[13.67664,52.67575],[13.67735,52.67571],[13.67855,52.67559],[13.68004,52.67548],[13.68129,52.67528],[13.68215,52.67512],[13.68271,52.67497]]}},{"type":"Feature","properties":{"art":"strasse"},"geometry":{"type":"LineString","coordinates":[[13.67462,52.67615],[13.67457,52.67576]]}},{"type":"Feature","properties":{"art":"weg"},"geometry":{"type":"LineString","coordinates":[[13.67224,52.67573],[13.67389,52.67083],[13.6741,52.67015],[13.67431,52.66953]]}},{"type":"Feature","properties":{"art":"strasse"},"geometry":{"type":"LineString","coordinates":[[13.67234,52.67612],[13.67227,52.67593],[13.67224,52.67573]]}},{"type":"Feature","properties":{"art":"strasse"},"geometry":{"type":"LineString","coordinates":[[13.67678,52.69752],[13.67645,52.69745],[13.67608,52.69738],[13.67554,52.69731],[13.67517,52.69728],[13.67441,52.69726],[13.67291,52.69726],[13.67255,52.69724],[13.67227,52.69722],[13.67197,52.69718],[13.6716,52.69711],[13.67128,52.69704],[13.67018,52.69676],[13.66866,52.69638],[13.66833,52.69631]]}},{"type":"Feature","properties":{"art":"pfad"},"geometry":{"type":"LineString","coordinates":[[13.71074,52.66865],[13.71032,52.66839]]}},{"type":"Feature","properties":{"art":"pfad"},"geometry":{"type":"LineString","coordinates":[[13.71061,52.66877],[13.71409,52.66951],[13.71423,52.66954],[13.71445,52.66956],[13.71464,52.66956],[13.71485,52.6696],[13.71506,52.66968],[13.71606,52.66988],[13.71636,52.66991],[13.71669,52.66996],[13.7172,52.67009],[13.71782,52.67021],[13.71862,52.67035],[13.7194,52.67048],[13.71956,52.6705],[13.71999,52.67035],[13.72021,52.67032],[13.72037,52.67025],[13.72052,52.67016],[13.72051,52.67004],[13.72051,52.66982],[13.72051,52.66957],[13.7205,52.66928],[13.72049,52.66904],[13.72047,52.66887],[13.72045,52.66879],[13.72049,52.66868],[13.72058,52.6686]]}},{"type":"Feature","properties":{"art":"weg"},"geometry":{"type":"LineString","coordinates":[[13.71023,52.66904],[13.71061,52.66877],[13.71074,52.66865],[13.7112,52.66839],[13.71235,52.66772],[13.71288,52.66738]]}},{"type":"Feature","properties":{"art":"strasse"},"geometry":{"type":"LineString","coordinates":[[13.70085,52.67048],[13.70067,52.67084],[13.70041,52.67143],[13.70009,52.67227],[13.70004,52.67247]]}},{"type":"Feature","properties":{"art":"strasse"},"geometry":{"type":"LineString","coordinates":[[13.69639,52.66813],[13.70085,52.67048],[13.70133,52.67073]]}},{"type":"Feature","properties":{"art":"strasse"},"geometry":{"type":"LineString","coordinates":[[13.71266,52.67528],[13.71327,52.67544],[13.714,52.67563],[13.71593,52.67614],[13.71656,52.6763]]}},{"type":"Feature","properties":{"art":"weg"},"geometry":{"type":"LineString","coordinates":[[13.69373,52.67683],[13.69389,52.6767],[13.69422,52.67648]]}},{"type":"Feature","properties":{"art":"pfad"},"geometry":{"type":"LineString","coordinates":[[13.71327,52.67544],[13.71312,52.67556],[13.71142,52.67689],[13.71149,52.67701],[13.71162,52.67713],[13.71158,52.67728],[13.71214,52.67758],[13.71245,52.67768],[13.71305,52.6779],[13.71358,52.67792]]}},{"type":"Feature","properties":{"art":"pfad"},"geometry":{"type":"LineString","coordinates":[[13.70135,52.67707],[13.70164,52.67704],[13.70254,52.67703],[13.70309,52.67706],[13.70373,52.67706],[13.70403,52.67699],[13.70411,52.67693],[13.70422,52.67612]]}},{"type":"Feature","properties":{"art":"pfad"},"geometry":{"type":"LineString","coordinates":[[13.70411,52.67693],[13.7056,52.67695],[13.70575,52.67695],[13.70591,52.6769],[13.70592,52.67682],[13.70594,52.67658],[13.706,52.67648]]}},{"type":"Feature","properties":{"art":"pfad"},"geometry":{"type":"LineString","coordinates":[[13.7139,52.67783],[13.71398,52.67773],[13.71441,52.67735],[13.71488,52.67703],[13.71528,52.67669],[13.7157,52.67642],[13.71593,52.67614]]}},{"type":"Feature","properties":{"art":"pfad"},"geometry":{"type":"LineString","coordinates":[[13.71158,52.67728],[13.71112,52.67718],[13.71065,52.67699]]}},{"type":"Feature","properties":{"art":"pfad"},"geometry":{"type":"LineString","coordinates":[[13.70124,52.67538],[13.70118,52.67539],[13.70114,52.67543],[13.70114,52.67562],[13.70115,52.67615],[13.70127,52.67668],[13.70135,52.67707],[13.70143,52.67738],[13.70146,52.67754],[13.70152,52.6778],[13.70165,52.67832],[13.70167,52.6787],[13.70166,52.67891],[13.70167,52.67903],[13.7016,52.67918],[13.70135,52.67921],[13.70092,52.67924],[13.6998,52.6792],[13.69904,52.67921],[13.69857,52.67922],[13.69816,52.67909],[13.69759,52.6789],[13.69698,52.67862],[13.69622,52.6782],[13.69543,52.67746],[13.69468,52.6771],[13.69409,52.67686],[13.69373,52.67683],[13.69316,52.67687],[13.69275,52.67693],[13.69241,52.67699],[13.69124,52.67734],[13.69089,52.67744],[13.6907,52.6775],[13.68999,52.67771],[13.68916,52.67797],[13.68806,52.6783],[13.68769,52.6783],[13.68749,52.67832],[13.68715,52.67844],[13.6866,52.67858],[13.68654,52.67859],[13.68646,52.67857]]}},{"type":"Feature","properties":{"art":"pfad"},"geometry":{"type":"LineString","coordinates":[[13.71214,52.67758],[13.71182,52.67816],[13.71171,52.67825],[13.71146,52.67826],[13.71038,52.67819]]}},{"type":"Feature","properties":{"art":"weg"},"geometry":{"type":"LineString","coordinates":[[13.71199,52.68077],[13.71319,52.67673],[13.714,52.67563]]}},{"type":"Feature","properties":{"art":"pfad"},"geometry":{"type":"LineString","coordinates":[[13.69089,52.67744],[13.69098,52.67789],[13.69112,52.6786]]}},{"type":"Feature","properties":{"art":"pfad"},"geometry":{"type":"LineString","coordinates":[[13.69112,52.6786],[13.69178,52.67862],[13.6922,52.67871],[13.69266,52.67875]]}},{"type":"Feature","properties":{"art":"pfad"},"geometry":{"type":"LineString","coordinates":[[13.7016,52.67918],[13.70185,52.67918],[13.70229,52.67918],[13.70276,52.67917],[13.70298,52.67917],[13.70369,52.67914],[13.70464,52.67913],[13.7052,52.67915]]}},{"type":"Feature","properties":{"art":"pfad"},"geometry":{"type":"LineString","coordinates":[[13.6924,52.68131],[13.69245,52.6812],[13.69275,52.68084],[13.69278,52.68046],[13.69272,52.6796],[13.69266,52.67875],[13.69263,52.67822],[13.69265,52.67796],[13.69255,52.67752],[13.69254,52.67723],[13.69241,52.67699]]}},{"type":"Feature","properties":{"art":"pfad"},"geometry":{"type":"LineString","coordinates":[[13.71227,52.67949],[13.71165,52.67951],[13.71129,52.67959],[13.71085,52.67991],[13.71067,52.68004]]}},{"type":"Feature","properties":{"art":"pfad"},"geometry":{"type":"LineString","coordinates":[[13.71179,52.68001],[13.71176,52.67964],[13.71178,52.67957]]}},{"type":"Feature","properties":{"art":"pfad"},"geometry":{"type":"LineString","coordinates":[[13.71244,52.6803],[13.71225,52.68023],[13.71179,52.68001],[13.71124,52.67991],[13.71085,52.67991]]}},{"type":"Feature","properties":{"art":"pfad"},"geometry":{"type":"LineString","coordinates":[[13.69112,52.6786],[13.69129,52.67923],[13.69148,52.6809],[13.69136,52.68116]]}},{"type":"Feature","properties":{"art":"pfad"},"geometry":{"type":"LineString","coordinates":[[13.7052,52.67915],[13.70519,52.67921],[13.70512,52.67947],[13.70495,52.67976],[13.70478,52.68017],[13.70461,52.68061],[13.70443,52.68101]]}},{"type":"Feature","properties":{"art":"pfad"},"geometry":{"type":"LineString","coordinates":[[13.71378,52.68086],[13.71307,52.68054],[13.71244,52.6803]]}},{"type":"Feature","properties":{"art":"pfad"},"geometry":{"type":"LineString","coordinates":[[13.70795,52.68156],[13.708,52.68134],[13.70813,52.68113],[13.70821,52.68082],[13.70846,52.6805],[13.7086,52.6803],[13.70909,52.68046],[13.70936,52.68062],[13.70967,52.68074],[13.70992,52.68064],[13.71017,52.68046],[13.71041,52.68028],[13.71055,52.68014],[13.71067,52.68004]]}},{"type":"Feature","properties":{"art":"pfad"},"geometry":{"type":"LineString","coordinates":[[13.71342,52.68136],[13.71217,52.68107]]}},{"type":"Feature","properties":{"art":"pfad"},"geometry":{"type":"LineString","coordinates":[[13.6988,52.68208],[13.69729,52.68199],[13.69653,52.68188],[13.69532,52.68172],[13.69498,52.68167],[13.694,52.6816],[13.69263,52.68139],[13.6924,52.68131],[13.69136,52.68116],[13.69082,52.68109],[13.68919,52.68086],[13.68871,52.68081],[13.68788,52.68063]]}},{"type":"Feature","properties":{"art":"pfad"},"geometry":{"type":"LineString","coordinates":[[13.71306,52.68191],[13.71181,52.68161]]}},{"type":"Feature","properties":{"art":"pfad"},"geometry":{"type":"LineString","coordinates":[[13.71224,52.68311],[13.71174,52.68299],[13.71152,52.68293],[13.71125,52.68281],[13.71082,52.68267],[13.71021,52.68247],[13.70924,52.68209],[13.7084,52.68175],[13.70811,52.68166],[13.70795,52.68156]]}},{"type":"Feature","properties":{"art":"pfad"},"geometry":{"type":"LineString","coordinates":[[13.69238,52.68365],[13.69236,52.68359],[13.6923,52.68351],[13.69228,52.68334],[13.69242,52.68274],[13.69241,52.68241],[13.69251,52.68198],[13.69263,52.68139]]}},{"type":"Feature","properties":{"art":"pfad"},"geometry":{"type":"LineString","coordinates":[[13.71178,52.67957],[13.71227,52.67949],[13.71275,52.67931],[13.71296,52.67918],[13.71299,52.67861],[13.71303,52.6784],[13.71321,52.67817],[13.71358,52.67792],[13.71374,52.67787],[13.7139,52.67783],[13.71394,52.67794],[13.71405,52.67801],[13.7148,52.67833],[13.71507,52.67845],[13.71515,52.6785],[13.71521,52.67858],[13.7152,52.67868],[13.71514,52.67878],[13.71494,52.67899],[13.71478,52.67919],[13.71463,52.67946],[13.71437,52.6799],[13.71423,52.68015],[13.71416,52.68025],[13.71387,52.68076],[13.71378,52.68086],[13.71368,52.68098],[13.71354,52.68117],[13.71342,52.68136],[13.71328,52.68159],[13.71306,52.68191],[13.71288,52.68218],[13.71269,52.68245],[13.71235,52.68293],[13.71224,52.68311],[13.71194,52.6836],[13.7118,52.68383],[13.71159,52.68419],[13.71132,52.68462],[13.71091,52.68521],[13.71042,52.68586],[13.71028,52.68602],[13.71011,52.68626],[13.70937,52.68733],[13.70929,52.68745],[13.70912,52.68761],[13.70902,52.68776]]}},{"type":"Feature","properties":{"art":"pfad"},"geometry":{"type":"LineString","coordinates":[[13.69532,52.68172],[13.69473,52.68374],[13.69238,52.68365]]}},{"type":"Feature","properties":{"art":"pfad"},"geometry":{"type":"LineString","coordinates":[[13.7118,52.68383],[13.71037,52.6832]]}},{"type":"Feature","properties":{"art":"weg"},"geometry":{"type":"LineString","coordinates":[[13.69857,52.67922],[13.69865,52.67988],[13.69889,52.68112],[13.6988,52.68208],[13.69885,52.68229],[13.69883,52.68256],[13.69853,52.68331],[13.69842,52.68447],[13.69832,52.68504],[13.69813,52.68551],[13.69806,52.68567],[13.69792,52.68671],[13.69789,52.68712],[13.69772,52.68788]]}},{"type":"Feature","properties":{"art":"pfad"},"geometry":{"type":"LineString","coordinates":[[13.692,52.68548],[13.69205,52.68539],[13.69212,52.6851]]}},{"type":"Feature","properties":{"art":"pfad"},"geometry":{"type":"LineString","coordinates":[[13.69236,52.684],[13.69235,52.68389],[13.69238,52.68365]]}},{"type":"Feature","properties":{"art":"pfad"},"geometry":{"type":"LineString","coordinates":[[13.70528,52.68464],[13.70909,52.68591],[13.71011,52.68626]]}},{"type":"Feature","properties":{"art":"strasse"},"geometry":{"type":"LineString","coordinates":[[13.69303,52.68595],[13.69311,52.68554],[13.69214,52.68549],[13.692,52.68548],[13.69196,52.68548]]}},{"type":"Feature","properties":{"art":"strasse"},"geometry":{"type":"LineString","coordinates":[[13.69196,52.68548],[13.69181,52.68548],[13.69167,52.68548],[13.69146,52.68552],[13.69129,52.68558],[13.69118,52.68566],[13.69111,52.68576],[13.69107,52.68588],[13.69097,52.6864],[13.69088,52.68689],[13.69079,52.68706],[13.69063,52.68717],[13.69042,52.68724],[13.69021,52.68726],[13.68906,52.6872],[13.68855,52.68715],[13.688,52.68707],[13.68794,52.68707]]}},{"type":"Feature","properties":{"art":"weg"},"geometry":{"type":"LineString","coordinates":[[13.68282,52.67507],[13.68319,52.67501],[13.68348,52.675]]}},{"type":"Feature","properties":{"art":"strasse"},"geometry":{"type":"LineString","coordinates":[[13.68312,52.67533],[13.68282,52.67507],[13.68279,52.67504],[13.68271,52.67497]]}},{"type":"Feature","properties":{"art":"weg"},"geometry":{"type":"LineString","coordinates":[[13.68646,52.67857],[13.6862,52.6784]]}},{"type":"Feature","properties":{"art":"pfad"},"geometry":{"type":"LineString","coordinates":[[13.68788,52.68063],[13.68784,52.68056],[13.68779,52.68054],[13.6876,52.68037],[13.68757,52.6803],[13.68735,52.68001],[13.68707,52.67967],[13.68694,52.67947],[13.68693,52.67934],[13.68687,52.67903],[13.68673,52.67883],[13.68651,52.67863],[13.68646,52.67857]]}},{"type":"Feature","properties":{"art":"strasse"},"geometry":{"type":"LineString","coordinates":[[13.68768,52.68167],[13.68769,52.68151]]}},{"type":"Feature","properties":{"art":"pfad"},"geometry":{"type":"LineString","coordinates":[[13.68959,52.69379],[13.68906,52.69335],[13.68794,52.69221],[13.68704,52.69143],[13.68499,52.69022]]}},{"type":"Feature","properties":{"art":"pfad"},"geometry":{"type":"LineString","coordinates":[[13.72052,52.67016],[13.72063,52.67033],[13.72083,52.67046],[13.72112,52.67062],[13.7215,52.67077],[13.7216,52.67083],[13.72188,52.67083],[13.72219,52.67084],[13.72282,52.67104],[13.72326,52.67116],[13.72353,52.6712]]}},{"type":"Feature","properties":{"art":"pfad"},"geometry":{"type":"LineString","coordinates":[[13.71956,52.6705],[13.71975,52.67053],[13.72002,52.67057],[13.72038,52.67062],[13.72069,52.6707],[13.72096,52.67076],[13.72122,52.67082],[13.7216,52.67083]]}},{"type":"Feature","properties":{"art":"pfad"},"geometry":{"type":"LineString","coordinates":[[13.69145,52.6875],[13.69153,52.68744],[13.6916,52.68726],[13.69165,52.68706],[13.69177,52.68616],[13.69182,52.68596],[13.69179,52.68571],[13.69181,52.68548]]}},{"type":"Feature","properties":{"art":"weg"},"geometry":{"type":"LineString","coordinates":[[13.70902,52.68776],[13.7092,52.68779],[13.70924,52.6878],[13.70961,52.68776],[13.70973,52.68775]]}},{"type":"Feature","properties":{"art":"weg"},"geometry":{"type":"LineString","coordinates":[[13.69145,52.6875],[13.69076,52.68748],[13.68815,52.68729],[13.68778,52.68726]]}},{"type":"Feature","properties":{"art":"weg"},"geometry":{"type":"LineString","coordinates":[[13.7092,52.68779],[13.70914,52.68787],[13.70906,52.68793],[13.70889,52.688],[13.70843,52.68806]]}},{"type":"Feature","properties":{"art":"weg"},"geometry":{"type":"LineString","coordinates":[[13.69145,52.6875],[13.6915,52.6875],[13.69726,52.68784],[13.69772,52.68788],[13.70142,52.6882],[13.70288,52.68834],[13.70397,52.68842],[13.7045,52.68838],[13.70825,52.68793],[13.70862,52.68781],[13.70902,52.68776]]}},{"type":"Feature","properties":{"art":"weg"},"geometry":{"type":"LineString","coordinates":[[13.70142,52.6882],[13.70149,52.68892]]}},{"type":"Feature","properties":{"art":"pfad"},"geometry":{"type":"LineString","coordinates":[[13.68499,52.69022],[13.68617,52.68942],[13.68672,52.6889],[13.68795,52.68843],[13.68945,52.68808],[13.69145,52.6875]]}},{"type":"Feature","properties":{"art":"pfad"},"geometry":{"type":"LineString","coordinates":[[13.70288,52.68834],[13.70274,52.68854],[13.70275,52.6887],[13.70269,52.68885],[13.70263,52.68897],[13.70241,52.68911],[13.70214,52.6892],[13.70149,52.68892],[13.70149,52.68943],[13.70149,52.68958],[13.70144,52.68975],[13.70136,52.69018],[13.70121,52.69058],[13.70112,52.69067]]}},{"type":"Feature","properties":{"art":"pfad"},"geometry":{"type":"LineString","coordinates":[[13.69772,52.68788],[13.69704,52.69147]]}},{"type":"Feature","properties":{"art":"pfad"},"geometry":{"type":"LineString","coordinates":[[13.66021,52.67204],[13.66056,52.67224],[13.66153,52.67274],[13.66221,52.67328],[13.66452,52.67435],[13.66556,52.67479],[13.66694,52.67538],[13.66721,52.67562],[13.66863,52.67565],[13.66891,52.67566],[13.66962,52.6757]]}},{"type":"Feature","properties":{"art":"weg"},"geometry":{"type":"LineString","coordinates":[[13.66962,52.6757],[13.6701,52.67574],[13.67021,52.67575],[13.67044,52.67574],[13.67086,52.67574]]}},{"type":"Feature","properties":{"art":"weg"},"geometry":{"type":"LineString","coordinates":[[13.67167,52.67572],[13.67178,52.67572],[13.67224,52.67573]]}},{"type":"Feature","properties":{"art":"strasse"},"geometry":{"type":"LineString","coordinates":[[13.66855,52.69587],[13.66872,52.69536]]}},{"type":"Feature","properties":{"art":"pfad"},"geometry":{"type":"LineString","coordinates":[[13.66855,52.69587],[13.66873,52.69583],[13.66945,52.6954],[13.66987,52.69512],[13.67011,52.69502],[13.67027,52.69497],[13.67041,52.69495],[13.67064,52.69497],[13.67239,52.69519],[13.67276,52.69519],[13.67313,52.69511],[13.67341,52.69503],[13.67358,52.69495],[13.67379,52.69482],[13.67445,52.69438],[13.67462,52.69421],[13.67471,52.69416],[13.67485,52.69409],[13.67514,52.69396],[13.67541,52.69385],[13.67565,52.69375],[13.6784,52.69227],[13.67875,52.69212],[13.67965,52.6917],[13.6818,52.69124],[13.68411,52.69066],[13.68458,52.69046],[13.68499,52.69022]]}},{"type":"Feature","properties":{"art":"pfad"},"geometry":{"type":"LineString","coordinates":[[13.67471,52.69416],[13.67485,52.69418],[13.67508,52.69436],[13.67612,52.69504],[13.67662,52.69535],[13.67729,52.6958],[13.67755,52.69598],[13.67795,52.69639]]}},{"type":"Feature","properties":{"art":"pfad"},"geometry":{"type":"LineString","coordinates":[[13.67444,52.70368],[13.67464,52.70381]]}},{"type":"Feature","properties":{"art":"pfad"},"geometry":{"type":"LineString","coordinates":[[13.67479,52.70391],[13.6753,52.70418],[13.67611,52.70464],[13.67682,52.70496],[13.67824,52.7057],[13.67838,52.70594],[13.67888,52.7061],[13.67918,52.70605],[13.68046,52.70617]]}},{"type":"Feature","properties":{"art":"strasse"},"geometry":{"type":"LineString","coordinates":[[13.66833,52.69631],[13.66773,52.69622],[13.66712,52.69614],[13.66663,52.69605],[13.66588,52.6959],[13.665,52.69568],[13.66485,52.69566],[13.66472,52.69567]]}},{"type":"Feature","properties":{"art":"strasse"},"geometry":{"type":"LineString","coordinates":[[13.66833,52.69631],[13.66835,52.69625],[13.66855,52.69587]]}},{"type":"Feature","properties":{"art":"strasse"},"geometry":{"type":"LineString","coordinates":[[13.6669,52.69759],[13.66704,52.6976],[13.6674,52.69774],[13.66749,52.69776]]}},{"type":"Feature","properties":{"art":"weg"},"geometry":{"type":"LineString","coordinates":[[13.66663,52.69883],[13.66714,52.6991],[13.66767,52.69926],[13.66798,52.69931],[13.6684,52.69937],[13.66853,52.69942],[13.66868,52.69947],[13.66907,52.69976],[13.66941,52.70004],[13.6697,52.70021],[13.67012,52.70043],[13.67027,52.70053],[13.67022,52.70092],[13.67036,52.70105],[13.67083,52.7013],[13.67134,52.70161],[13.67137,52.70163]]}},{"type":"Feature","properties":{"art":"weg"},"geometry":{"type":"LineString","coordinates":[[13.67257,52.70243],[13.67444,52.70368]]}},{"type":"Feature","properties":{"art":"strasse"},"geometry":{"type":"LineString","coordinates":[[13.64929,52.7131],[13.64982,52.71299],[13.6502,52.71289],[13.65036,52.71282],[13.65049,52.71274],[13.65076,52.71247],[13.65088,52.71238],[13.65102,52.7123],[13.65137,52.71214],[13.65142,52.71212]]}},{"type":"Feature","properties":{"art":"strasse"},"geometry":{"type":"LineString","coordinates":[[13.65792,52.71041],[13.65852,52.7103],[13.6596,52.71003],[13.65985,52.70993],[13.65995,52.70988],[13.6602,52.70972],[13.66034,52.70959],[13.66062,52.70919],[13.66097,52.7087],[13.66122,52.70809],[13.66144,52.70729],[13.66165,52.70659]]}},{"type":"Feature","properties":{"art":"strasse"},"geometry":{"type":"LineString","coordinates":[[13.66625,52.69931],[13.66663,52.69883],[13.66687,52.69854],[13.66749,52.69776],[13.66799,52.69713],[13.66826,52.69662],[13.66832,52.69639],[13.66833,52.69631]]}},{"type":"Feature","properties":{"art":"weg"},"geometry":{"type":"LineString","coordinates":[[13.69053,52.69424],[13.69034,52.69415],[13.68959,52.69379]]}},{"type":"Feature","properties":{"art":"pfad"},"geometry":{"type":"LineString","coordinates":[[13.67875,52.69212],[13.67943,52.69244],[13.67962,52.69256],[13.68076,52.69292],[13.68218,52.69342],[13.68277,52.69371],[13.68362,52.6941],[13.6841,52.69438]]}},{"type":"Feature","properties":{"art":"pfad"},"geometry":{"type":"LineString","coordinates":[[13.68076,52.69292],[13.68038,52.69535]]}},{"type":"Feature","properties":{"art":"strasse"},"geometry":{"type":"LineString","coordinates":[[13.70069,52.70416],[13.70039,52.70412],[13.6987,52.70365]]}},{"type":"Feature","properties":{"art":"strasse"},"geometry":{"type":"LineString","coordinates":[[13.69842,52.70357],[13.69776,52.70338],[13.69378,52.70226]]}},{"type":"Feature","properties":{"art":"strasse"},"geometry":{"type":"LineString","coordinates":[[13.67935,52.69819],[13.67887,52.69806],[13.67802,52.69782],[13.67678,52.69752]]}},{"type":"Feature","properties":{"art":"weg"},"geometry":{"type":"LineString","coordinates":[[13.69466,52.70575],[13.69462,52.70572],[13.69453,52.70489],[13.69771,52.70345],[13.69776,52.70338]]}},{"type":"Feature","properties":{"art":"pfad"},"geometry":{"type":"LineString","coordinates":[[13.76368,52.65575],[13.76453,52.65633],[13.76785,52.65888]]}},{"type":"Feature","properties":{"art":"pfad"},"geometry":{"type":"LineString","coordinates":[[13.76643,52.66238],[13.76501,52.66149],[13.76472,52.66133],[13.76427,52.66101],[13.76413,52.66096],[13.76399,52.6609],[13.76393,52.66087],[13.76379,52.66066],[13.76314,52.65973],[13.76271,52.65907],[13.76254,52.65885],[13.76245,52.6587],[13.76242,52.65859],[13.76244,52.6585],[13.76256,52.65835],[13.76269,52.65824]]}},{"type":"Feature","properties":{"art":"pfad"},"geometry":{"type":"LineString","coordinates":[[13.77746,52.66151],[13.77956,52.6595]]}},{"type":"Feature","properties":{"art":"weg"},"geometry":{"type":"LineString","coordinates":[[13.76413,52.66386],[13.76444,52.66373],[13.76473,52.66358],[13.76513,52.66333],[13.76526,52.6632],[13.76643,52.66238],[13.76739,52.66174],[13.76831,52.66122],[13.7692,52.66063],[13.76979,52.66023],[13.77021,52.66],[13.7705,52.6598],[13.77076,52.65964],[13.77102,52.65945],[13.7712,52.65937],[13.77149,52.65917],[13.77177,52.659]]}},{"type":"Feature","properties":{"art":"pfad"},"geometry":{"type":"LineString","coordinates":[[13.77938,52.66214],[13.78166,52.66014]]}},{"type":"Feature","properties":{"art":"pfad"},"geometry":{"type":"LineString","coordinates":[[13.76393,52.66087],[13.76376,52.66097],[13.76356,52.66109],[13.76328,52.66123],[13.76294,52.66137],[13.76277,52.66144],[13.76264,52.66148]]}},{"type":"Feature","properties":{"art":"weg"},"geometry":{"type":"LineString","coordinates":[[13.76413,52.66386],[13.76414,52.66378],[13.76408,52.66364],[13.76347,52.66293],[13.76323,52.66258],[13.76303,52.66216],[13.76298,52.66197],[13.76264,52.66148],[13.76082,52.65892]]}},{"type":"Feature","properties":{"art":"pfad"},"geometry":{"type":"LineString","coordinates":[[13.77385,52.66455],[13.77384,52.66447],[13.77387,52.66439],[13.77399,52.66426],[13.77404,52.66418],[13.7742,52.66401],[13.77431,52.66384],[13.77434,52.66373],[13.77426,52.66367],[13.77405,52.66354],[13.77381,52.6634],[13.77362,52.66325],[13.7734,52.66309],[13.77323,52.66298],[13.77307,52.66288],[13.77281,52.66275],[13.77267,52.66269],[13.77254,52.66258],[13.77205,52.6623],[13.77196,52.66221],[13.77163,52.66201],[13.77129,52.66183],[13.77101,52.66166],[13.77073,52.66149],[13.77047,52.66132],[13.77016,52.66114],[13.76965,52.66083],[13.76935,52.66069],[13.7692,52.66063]]}},{"type":"Feature","properties":{"art":"pfad"},"geometry":{"type":"LineString","coordinates":[[13.75906,52.65528],[13.75874,52.65535],[13.75759,52.65592]]}},{"type":"Feature","properties":{"art":"pfad"},"geometry":{"type":"LineString","coordinates":[[13.75759,52.65592],[13.75735,52.65592],[13.75704,52.6559],[13.75684,52.65585],[13.75665,52.6558]]}},{"type":"Feature","properties":{"art":"pfad"},"geometry":{"type":"LineString","coordinates":[[13.75759,52.65592],[13.75738,52.65614],[13.75735,52.65635]]}},{"type":"Feature","properties":{"art":"pfad"},"geometry":{"type":"LineString","coordinates":[[13.75999,52.65733],[13.75987,52.65736],[13.75965,52.65746],[13.75945,52.65749],[13.75917,52.65751],[13.75905,52.65751]]}},{"type":"Feature","properties":{"art":"weg"},"geometry":{"type":"LineString","coordinates":[[13.76082,52.65892],[13.76071,52.65883],[13.7605,52.65879],[13.76018,52.65882]]}},{"type":"Feature","properties":{"art":"pfad"},"geometry":{"type":"LineString","coordinates":[[13.76526,52.6632],[13.76576,52.66333],[13.76638,52.66348],[13.76652,52.6635],[13.76676,52.66351],[13.76698,52.66354],[13.76716,52.66358],[13.76741,52.66364],[13.76756,52.66369],[13.76768,52.66373],[13.76783,52.6638],[13.76794,52.66386],[13.76805,52.66393],[13.76816,52.66396],[13.76835,52.66397],[13.76857,52.66398],[13.76879,52.66399],[13.76897,52.66399],[13.76916,52.66396],[13.76929,52.66394],[13.7694,52.66396],[13.76964,52.66401],[13.76988,52.6641],[13.7708,52.66438],[13.77145,52.66459],[13.77156,52.6646],[13.77165,52.66456],[13.77186,52.66437],[13.77192,52.66431],[13.77201,52.66428],[13.77209,52.66427],[13.77224,52.66426],[13.7725,52.66428],[13.77276,52.66428],[13.77295,52.66431],[13.77323,52.66438],[13.77351,52.66447],[13.77385,52.66455],[13.77642,52.66549],[13.77761,52.66593],[13.77783,52.66601],[13.77811,52.66609]]}},{"type":"Feature","properties":{"art":"weg"},"geometry":{"type":"LineString","coordinates":[[13.76354,52.6642],[13.76413,52.66386]]}},{"type":"Feature","properties":{"art":"pfad"},"geometry":{"type":"LineString","coordinates":[[13.7655,52.67156],[13.7646,52.67236],[13.7643,52.67248],[13.7651,52.67288],[13.76594,52.67303],[13.76628,52.67271],[13.76667,52.67204]]}},{"type":"Feature","properties":{"art":"pfad"},"geometry":{"type":"LineString","coordinates":[[13.77345,52.67931],[13.77334,52.67911],[13.77321,52.67892],[13.77288,52.6786],[13.77265,52.67836],[13.77208,52.67763],[13.77141,52.67694],[13.77105,52.67654],[13.77052,52.67612],[13.77008,52.67564],[13.76988,52.67542],[13.76966,52.67515],[13.76946,52.67495],[13.769,52.67451],[13.7687,52.67421],[13.76843,52.67398],[13.76814,52.67367],[13.76774,52.67333],[13.76757,52.67316],[13.76735,52.67279],[13.76709,52.67247],[13.7669,52.67225],[13.76667,52.67204],[13.7665,52.67188],[13.76617,52.67167],[13.7655,52.67156],[13.76464,52.67132],[13.76398,52.6711],[13.76299,52.67067],[13.76271,52.67055],[13.76211,52.67042],[13.76106,52.67016],[13.76082,52.6702],[13.7607,52.67023],[13.76038,52.67045],[13.76014,52.67069],[13.75998,52.67086]]}},{"type":"Feature","properties":{"art":"pfad"},"geometry":{"type":"LineString","coordinates":[[13.77421,52.67657],[13.77455,52.67681]]}},{"type":"Feature","properties":{"art":"pfad"},"geometry":{"type":"LineString","coordinates":[[13.75764,52.66841],[13.75411,52.66688],[13.75401,52.66686],[13.7538,52.66689],[13.75351,52.66696],[13.75324,52.66696],[13.75205,52.66684],[13.75165,52.66681],[13.75095,52.66681],[13.74726,52.66658],[13.7469,52.66658]]}},{"type":"Feature","properties":{"art":"weg"},"geometry":{"type":"LineString","coordinates":[[13.75628,52.66962],[13.75764,52.66841],[13.75956,52.66676]]}},{"type":"Feature","properties":{"art":"weg"},"geometry":{"type":"LineString","coordinates":[[13.75998,52.67086],[13.75969,52.67078],[13.7595,52.6707],[13.75939,52.67068],[13.75926,52.67067],[13.75911,52.67064],[13.75894,52.67056],[13.75877,52.67047],[13.75628,52.66962]]}},{"type":"Feature","properties":{"art":"weg"},"geometry":{"type":"LineString","coordinates":[[13.7554,52.67037],[13.75628,52.66962]]}},{"type":"Feature","properties":{"art":"pfad"},"geometry":{"type":"LineString","coordinates":[[13.81917,52.66279],[13.81873,52.66305],[13.81838,52.66345],[13.81786,52.66409],[13.81711,52.6648],[13.81631,52.66549],[13.81588,52.6659],[13.81452,52.66676],[13.81317,52.66706],[13.81242,52.66718],[13.81115,52.66757]]}},{"type":"Feature","properties":{"art":"weg"},"geometry":{"type":"LineString","coordinates":[[13.81204,52.66304],[13.81247,52.66316],[13.813,52.66332],[13.81412,52.66346],[13.81491,52.66394],[13.8151,52.6643],[13.81512,52.66466],[13.81631,52.66549],[13.81724,52.66583],[13.81833,52.66617],[13.81964,52.6665],[13.8214,52.66692],[13.82207,52.66711],[13.82222,52.66715],[13.82338,52.66763],[13.82467,52.66836],[13.82543,52.66847],[13.82609,52.66833],[13.82741,52.66832],[13.82815,52.66838],[13.82865,52.66835]]}},{"type":"Feature","properties":{"art":"pfad"},"geometry":{"type":"LineString","coordinates":[[13.80959,52.66524],[13.8103,52.6655],[13.81194,52.66587],[13.81363,52.66619],[13.81452,52.66676]]}},{"type":"Feature","properties":{"art":"pfad"},"geometry":{"type":"LineString","coordinates":[[13.82614,52.66266],[13.8259,52.66299],[13.82458,52.6644],[13.82315,52.66584],[13.82207,52.66711],[13.81962,52.66832],[13.81693,52.66965],[13.81658,52.66982]]}},{"type":"Feature","properties":{"art":"weg"},"geometry":{"type":"LineString","coordinates":[[13.79807,52.66245],[13.80651,52.66631],[13.81047,52.6681],[13.81571,52.67042]]}},{"type":"Feature","properties":{"art":"pfad"},"geometry":{"type":"LineString","coordinates":[[13.81588,52.6659],[13.81591,52.66604],[13.81618,52.66617],[13.81728,52.6666],[13.81748,52.66703],[13.81665,52.66781]]}},{"type":"Feature","properties":{"art":"pfad"},"geometry":{"type":"LineString","coordinates":[[13.81924,52.6711],[13.81875,52.67094],[13.81817,52.67067],[13.81801,52.67049],[13.81794,52.67041],[13.81749,52.67028],[13.817,52.66994],[13.81658,52.66982],[13.81597,52.66953],[13.81536,52.66929],[13.81396,52.66871],[13.813,52.66835],[13.81217,52.66804],[13.81142,52.66775],[13.81115,52.66757],[13.80965,52.66688],[13.80745,52.66579],[13.8049,52.66455],[13.80179,52.66314]]}},{"type":"Feature","properties":{"art":"weg"},"geometry":{"type":"LineString","coordinates":[[13.81306,52.67378],[13.81285,52.67381],[13.81166,52.67351],[13.80922,52.67236],[13.80694,52.67131],[13.80313,52.66958],[13.79647,52.66509],[13.79581,52.66463],[13.79533,52.6645],[13.79302,52.6639],[13.79279,52.66384],[13.79035,52.66312]]}},{"type":"Feature","properties":{"art":"strasse"},"geometry":{"type":"LineString","coordinates":[[13.80163,52.66378],[13.80672,52.66611],[13.81069,52.66791],[13.81587,52.67027],[13.81849,52.67146],[13.82121,52.6727],[13.82534,52.67457]]}},{"type":"Feature","properties":{"art":"weg"},"geometry":{"type":"LineString","coordinates":[[13.80672,52.66611],[13.80651,52.66631],[13.80313,52.66958],[13.79988,52.67269]]}},{"type":"Feature","properties":{"art":"pfad"},"geometry":{"type":"LineString","coordinates":[[13.81693,52.66965],[13.8181,52.67004],[13.81826,52.67019],[13.81801,52.67049]]}},{"type":"Feature","properties":{"art":"weg"},"geometry":{"type":"LineString","coordinates":[[13.81587,52.67027],[13.81571,52.67042],[13.81368,52.67232]]}},{"type":"Feature","properties":{"art":"weg"},"geometry":{"type":"LineString","coordinates":[[13.81069,52.66791],[13.81047,52.6681],[13.80694,52.67131],[13.80536,52.67276],[13.80414,52.67387],[13.80284,52.67506]]}},{"type":"Feature","properties":{"art":"weg"},"geometry":{"type":"LineString","coordinates":[[13.81065,52.67614],[13.81099,52.67603],[13.81297,52.67387],[13.81306,52.67378],[13.81369,52.67314],[13.81384,52.67306],[13.81397,52.67303],[13.81449,52.67314],[13.81597,52.67386],[13.81638,52.67384],[13.81665,52.67373],[13.81849,52.67146],[13.81867,52.67134],[13.819,52.6712],[13.81924,52.6711],[13.82035,52.67139],[13.82158,52.67175],[13.82261,52.67205],[13.82293,52.67204],[13.82317,52.67203],[13.82385,52.67167],[13.82489,52.6713],[13.8254,52.67116],[13.82653,52.67036],[13.82705,52.67002],[13.8281,52.66938],[13.8285,52.66908],[13.8288,52.66885]]}},{"type":"Feature","properties":{"art":"weg"},"geometry":{"type":"LineString","coordinates":[[13.81069,52.67447],[13.81048,52.67443],[13.80913,52.67414],[13.80783,52.67377],[13.80536,52.67276],[13.8029,52.67149]]}},{"type":"Feature","properties":{"art":"weg"},"geometry":{"type":"LineString","coordinates":[[13.80922,52.67236],[13.80783,52.67377]]}},{"type":"Feature","properties":{"art":"weg"},"geometry":{"type":"LineString","coordinates":[[13.81665,52.67373],[13.81686,52.67371],[13.8193,52.67393]]}},{"type":"Feature","properties":{"art":"pfad"},"geometry":{"type":"LineString","coordinates":[[13.79951,52.67261],[13.80011,52.67303],[13.80272,52.67495],[13.80284,52.67506],[13.80304,52.67511],[13.80308,52.67518],[13.80401,52.67574],[13.80548,52.67578],[13.80628,52.6758],[13.80795,52.67588],[13.809,52.67592],[13.81026,52.67601],[13.81048,52.67607],[13.81065,52.67614]]}},{"type":"Feature","properties":{"art":"weg"},"geometry":{"type":"LineString","coordinates":[[13.81057,52.67645],[13.81057,52.67645],[13.81065,52.67614]]}},{"type":"Feature","properties":{"art":"pfad"},"geometry":{"type":"LineString","coordinates":[[13.79216,52.67042],[13.79224,52.6705],[13.79235,52.67056],[13.79318,52.67094],[13.79335,52.67103],[13.7935,52.67118],[13.79357,52.67124]]}},{"type":"Feature","properties":{"art":"strasse"},"geometry":{"type":"LineString","coordinates":[[13.79199,52.67091],[13.79211,52.67059],[13.79215,52.67045]]}},{"type":"Feature","properties":{"art":"strasse"},"geometry":{"type":"LineString","coordinates":[[13.74636,52.70535],[13.74643,52.7054],[13.74659,52.70556],[13.74668,52.70567],[13.74713,52.70609],[13.74774,52.70644],[13.74784,52.70649]]}}]}