{"type":"FeatureCollection","features":[{"type":"Feature","properties":{"art":"pfad"},"geometry":{"type":"LineString","coordinates":[[13.90647,52.79191],[13.90525,52.79102]]}},{"type":"Feature","properties":{"art":"weg"},"geometry":{"type":"LineString","coordinates":[[13.88912,52.79148],[13.88968,52.79162],[13.89018,52.7917],[13.8911,52.79159],[13.8933,52.79135],[13.89619,52.79103],[13.89696,52.79099],[13.89752,52.79103],[13.89861,52.79118],[13.90209,52.79211],[13.90218,52.7921]]}},{"type":"Feature","properties":{"art":"pfad"},"geometry":{"type":"LineString","coordinates":[[13.89195,52.79308],[13.89113,52.79335]]}},{"type":"Feature","properties":{"art":"pfad"},"geometry":{"type":"LineString","coordinates":[[13.89295,52.79411],[13.89394,52.79471],[13.89503,52.79528],[13.89981,52.79563],[13.9023,52.79585]]}},{"type":"Feature","properties":{"art":"strasse"},"geometry":{"type":"LineString","coordinates":[[13.89959,52.788],[13.90088,52.78985],[13.90094,52.78995],[13.90139,52.79063],[13.90179,52.79125],[13.90194,52.79151],[13.90205,52.79177],[13.90218,52.7921],[13.90307,52.79478],[13.90337,52.79572],[13.90367,52.79665],[13.90395,52.79752],[13.90405,52.79774],[13.90415,52.79788],[13.90463,52.79847],[13.90558,52.79965],[13.9063,52.80053],[13.90645,52.80068],[13.90668,52.80089],[13.90693,52.80109]]}},{"type":"Feature","properties":{"art":"pfad"},"geometry":{"type":"LineString","coordinates":[[13.89139,52.79845],[13.8921,52.79516],[13.89227,52.79484],[13.89243,52.79459],[13.89279,52.79436],[13.89295,52.79411],[13.8925,52.79378],[13.89195,52.79308],[13.89169,52.79289],[13.89113,52.79262],[13.89018,52.7917]]}},{"type":"Feature","properties":{"art":"weg"},"geometry":{"type":"LineString","coordinates":[[13.90845,52.79065],[13.9082,52.79079],[13.90647,52.79191],[13.90537,52.79253],[13.90497,52.79284],[13.90423,52.79359]]}},{"type":"Feature","properties":{"art":"weg"},"geometry":{"type":"LineString","coordinates":[[13.90412,52.79371],[13.90315,52.7947],[13.90307,52.79478],[13.9029,52.79499],[13.9023,52.79585],[13.90148,52.79721],[13.90048,52.79871],[13.90014,52.79916],[13.8989,52.80113],[13.8983,52.80203],[13.89782,52.80275],[13.89673,52.8044],[13.89538,52.80657],[13.89532,52.80667]]}},{"type":"Feature","properties":{"art":"weg"},"geometry":{"type":"LineString","coordinates":[[13.85663,52.78351],[13.85663,52.78354],[13.85665,52.78398]]}},{"type":"Feature","properties":{"art":"weg"},"geometry":{"type":"LineString","coordinates":[[13.85665,52.78398],[13.85505,52.78393],[13.85462,52.78391]]}},{"type":"Feature","properties":{"art":"weg"},"geometry":{"type":"LineString","coordinates":[[13.86427,52.78414],[13.86372,52.78418]]}},{"type":"Feature","properties":{"art":"weg"},"geometry":{"type":"LineString","coordinates":[[13.86372,52.78418],[13.86356,52.78419],[13.86099,52.7842],[13.85764,52.78404],[13.85665,52.78398]]}},{"type":"Feature","properties":{"art":"pfad"},"geometry":{"type":"LineString","coordinates":[[13.86356,52.78419],[13.8635,52.78638]]}},{"type":"Feature","properties":{"art":"pfad"},"geometry":{"type":"LineString","coordinates":[[13.85764,52.78404],[13.85743,52.78559],[13.85658,52.7858],[13.85606,52.78637],[13.85591,52.78719]]}},{"type":"Feature","properties":{"art":"pfad"},"geometry":{"type":"LineString","coordinates":[[13.84688,52.78761],[13.84736,52.7876],[13.84969,52.78768],[13.85093,52.78763],[13.85159,52.78753],[13.85329,52.78736],[13.85591,52.78719],[13.85611,52.78719]]}},{"type":"Feature","properties":{"art":"pfad"},"geometry":{"type":"LineString","coordinates":[[13.86099,52.7842],[13.8608,52.78577],[13.86074,52.78636],[13.8606,52.78744],[13.86054,52.78877],[13.86021,52.79164],[13.85989,52.79367],[13.85984,52.79434],[13.85981,52.79452]]}},{"type":"Feature","properties":{"art":"pfad"},"geometry":{"type":"LineString","coordinates":[[13.88309,52.78722],[13.88297,52.78776],[13.88294,52.78853]]}},{"type":"Feature","properties":{"art":"weg"},"geometry":{"type":"LineString","coordinates":[[13.86372,52.78418],[13.86423,52.78432]]}},{"type":"Feature","properties":{"art":"weg"},"geometry":{"type":"LineString","coordinates":[[13.87726,52.78807],[13.87748,52.78813],[13.8783,52.78835],[13.88406,52.79002],[13.88912,52.79148]]}},{"type":"Feature","properties":{"art":"pfad"},"geometry":{"type":"LineString","coordinates":[[13.86935,52.78792],[13.86957,52.78793]]}},{"type":"Feature","properties":{"art":"pfad"},"geometry":{"type":"LineString","coordinates":[[13.87087,52.78798],[13.87164,52.78801],[13.87176,52.78802]]}},{"type":"Feature","properties":{"art":"pfad"},"geometry":{"type":"LineString","coordinates":[[13.87605,52.78821],[13.87731,52.78827],[13.87742,52.78821],[13.87748,52.78813]]}},{"type":"Feature","properties":{"art":"pfad"},"geometry":{"type":"LineString","coordinates":[[13.88294,52.78853],[13.8783,52.78835]]}},{"type":"Feature","properties":{"art":"pfad"},"geometry":{"type":"LineString","coordinates":[[13.88294,52.78853],[13.88459,52.78864],[13.88465,52.7887],[13.88406,52.79002]]}},{"type":"Feature","properties":{"art":"pfad"},"geometry":{"type":"LineString","coordinates":[[13.88374,52.79251],[13.88334,52.79227],[13.88289,52.79216],[13.88237,52.792],[13.88181,52.79194],[13.88094,52.79209],[13.87968,52.792],[13.87829,52.79208],[13.87681,52.79199],[13.87495,52.79198],[13.87268,52.79194],[13.86904,52.7919],[13.86914,52.79125],[13.86915,52.7909],[13.86916,52.79082]]}},{"type":"Feature","properties":{"art":"pfad"},"geometry":{"type":"LineString","coordinates":[[13.86925,52.78982],[13.86932,52.78904],[13.86935,52.78792],[13.86632,52.78778]]}},{"type":"Feature","properties":{"art":"pfad"},"geometry":{"type":"LineString","coordinates":[[13.87268,52.79194],[13.87245,52.79242],[13.87205,52.79291],[13.87164,52.79339],[13.87111,52.79371],[13.8704,52.79394],[13.86923,52.79427],[13.86912,52.79453]]}},{"type":"Feature","properties":{"art":"weg"},"geometry":{"type":"LineString","coordinates":[[13.88912,52.79148],[13.88814,52.79178],[13.88754,52.79187],[13.88668,52.79214],[13.88586,52.79231],[13.88463,52.79247],[13.88374,52.79251],[13.88307,52.7927],[13.88219,52.79312],[13.88138,52.79311],[13.88,52.7932],[13.87728,52.79362],[13.87286,52.79529],[13.87096,52.79627],[13.86847,52.79755],[13.86745,52.79808],[13.86613,52.79875]]}},{"type":"Feature","properties":{"art":"pfad"},"geometry":{"type":"LineString","coordinates":[[13.81154,52.7491],[13.81269,52.74897],[13.81292,52.74811],[13.81352,52.74823]]}},{"type":"Feature","properties":{"art":"pfad"},"geometry":{"type":"LineString","coordinates":[[13.81258,52.7685],[13.81229,52.76863],[13.81158,52.76907],[13.81138,52.76929],[13.81093,52.77008],[13.81077,52.77047],[13.81078,52.77066]]}},{"type":"Feature","properties":{"art":"weg"},"geometry":{"type":"LineString","coordinates":[[13.80596,52.76974],[13.80763,52.76998],[13.80811,52.77001],[13.8083,52.77002],[13.80876,52.77013],[13.8096,52.77018],[13.81078,52.77066],[13.81092,52.77075],[13.81087,52.77128],[13.81089,52.77132]]}},{"type":"Feature","properties":{"art":"weg"},"geometry":{"type":"LineString","coordinates":[[13.81842,52.78652],[13.81842,52.78668],[13.81866,52.78679]]}},{"type":"Feature","properties":{"art":"weg"},"geometry":{"type":"LineString","coordinates":[[13.82239,52.78676],[13.82222,52.78678],[13.81866,52.78679],[13.8182,52.78679]]}},{"type":"Feature","properties":{"art":"pfad"},"geometry":{"type":"LineString","coordinates":[[13.8053,52.7869],[13.80547,52.78693],[13.80662,52.7868],[13.80697,52.78681],[13.80723,52.78678],[13.80757,52.78664],[13.80851,52.78644],[13.80884,52.7864],[13.80914,52.78634],[13.80986,52.78628],[13.81016,52.78629],[13.81049,52.78637],[13.81084,52.78639],[13.8111,52.78637],[13.8114,52.78625],[13.81157,52.78623],[13.81167,52.78624],[13.81301,52.78687]]}},{"type":"Feature","properties":{"art":"weg"},"geometry":{"type":"LineString","coordinates":[[13.81728,52.78729],[13.81704,52.78768]]}},{"type":"Feature","properties":{"art":"weg"},"geometry":{"type":"LineString","coordinates":[[13.8169,52.7879],[13.81689,52.78792]]}},{"type":"Feature","properties":{"art":"pfad"},"geometry":{"type":"LineString","coordinates":[[13.81985,52.7882],[13.82105,52.7876],[13.82239,52.78676]]}},{"type":"Feature","properties":{"art":"pfad"},"geometry":{"type":"LineString","coordinates":[[13.81689,52.78792],[13.81687,52.78792]]}},{"type":"Feature","properties":{"art":"weg"},"geometry":{"type":"LineString","coordinates":[[13.81689,52.78792],[13.81649,52.78863],[13.81622,52.78882],[13.81514,52.78934],[13.81505,52.78938]]}},{"type":"Feature","properties":{"art":"weg"},"geometry":{"type":"LineString","coordinates":[[13.82239,52.78676],[13.82268,52.78667],[13.82287,52.78659]]}},{"type":"Feature","properties":{"art":"weg"},"geometry":{"type":"LineString","coordinates":[[13.82375,52.7862],[13.82498,52.78567]]}},{"type":"Feature","properties":{"art":"pfad"},"geometry":{"type":"LineString","coordinates":[[13.82314,52.78966],[13.82325,52.78967],[13.82369,52.78988],[13.82427,52.78989],[13.82587,52.78967],[13.82758,52.78939],[13.82944,52.78915],[13.82992,52.78911],[13.83174,52.78857],[13.83233,52.78855],[13.83354,52.78836],[13.83594,52.78812],[13.83687,52.78805],[13.83752,52.78801],[13.83783,52.78798],[13.83804,52.78795],[13.83864,52.78782]]}},{"type":"Feature","properties":{"art":"pfad"},"geometry":{"type":"LineString","coordinates":[[13.83666,52.79243],[13.83578,52.7919],[13.83501,52.79179],[13.83395,52.79116],[13.83239,52.79071],[13.8308,52.79077],[13.82915,52.79131],[13.82755,52.79172]]}},{"type":"Feature","properties":{"art":"pfad"},"geometry":{"type":"LineString","coordinates":[[13.82291,52.79145],[13.82444,52.79153],[13.82515,52.79165],[13.82708,52.79168],[13.82755,52.79172],[13.83343,52.79221],[13.83619,52.79238],[13.83666,52.79243],[13.83763,52.79256]]}},{"type":"Feature","properties":{"art":"pfad"},"geometry":{"type":"LineString","coordinates":[[13.82736,52.79527],[13.82874,52.79537],[13.8299,52.79545],[13.83445,52.79578],[13.83698,52.79592]]}},{"type":"Feature","properties":{"art":"pfad"},"geometry":{"type":"LineString","coordinates":[[13.8299,52.79545],[13.83,52.79584],[13.83001,52.7966],[13.83001,52.79754]]}},{"type":"Feature","properties":{"art":"pfad"},"geometry":{"type":"LineString","coordinates":[[13.81294,52.78947],[13.81267,52.78938],[13.81251,52.78921],[13.81218,52.78856],[13.8119,52.78831],[13.81124,52.78813],[13.8106,52.78815],[13.81006,52.78835],[13.80966,52.78899],[13.80935,52.78919]]}},{"type":"Feature","properties":{"art":"pfad"},"geometry":{"type":"LineString","coordinates":[[13.81684,52.79015],[13.81683,52.79014],[13.81725,52.78992],[13.81801,52.7895],[13.81839,52.78918],[13.81944,52.7884],[13.81985,52.7882]]}},{"type":"Feature","properties":{"art":"pfad"},"geometry":{"type":"LineString","coordinates":[[13.81985,52.7882],[13.82034,52.78846],[13.82082,52.78856],[13.82155,52.78881],[13.82233,52.78924],[13.82281,52.78941],[13.82303,52.78952],[13.82314,52.78966],[13.82316,52.78983],[13.82322,52.7902],[13.82317,52.79081],[13.82291,52.79145]]}},{"type":"Feature","properties":{"art":"weg"},"geometry":{"type":"LineString","coordinates":[[13.80985,52.79021],[13.81197,52.7897],[13.81294,52.78947],[13.81413,52.78952],[13.81466,52.78954],[13.81505,52.78938]]}},{"type":"Feature","properties":{"art":"pfad"},"geometry":{"type":"LineString","coordinates":[[13.81466,52.78954],[13.81525,52.78968],[13.81588,52.78981],[13.81637,52.78997],[13.81683,52.79014]]}},{"type":"Feature","properties":{"art":"pfad"},"geometry":{"type":"LineString","coordinates":[[13.80034,52.79337],[13.80091,52.79333],[13.80282,52.79302],[13.80365,52.79297],[13.80453,52.79281],[13.80738,52.79227],[13.81062,52.79165],[13.81636,52.79027],[13.81684,52.79015]]}},{"type":"Feature","properties":{"art":"pfad"},"geometry":{"type":"LineString","coordinates":[[13.81684,52.79015],[13.81619,52.79063],[13.81591,52.7909],[13.81472,52.79166],[13.81411,52.79208],[13.81165,52.79297],[13.80965,52.79361]]}},{"type":"Feature","properties":{"art":"pfad"},"geometry":{"type":"LineString","coordinates":[[13.82257,52.79234],[13.82281,52.79257],[13.82321,52.79276],[13.8242,52.79297],[13.82472,52.79315],[13.82467,52.79382],[13.82419,52.79458],[13.82435,52.79485],[13.82531,52.79508],[13.82575,52.79522],[13.82638,52.79517],[13.82736,52.79527]]}},{"type":"Feature","properties":{"art":"pfad"},"geometry":{"type":"LineString","coordinates":[[13.82126,52.79476],[13.82153,52.79482],[13.82243,52.79487],[13.82357,52.79487],[13.82404,52.79479],[13.82419,52.79458]]}},{"type":"Feature","properties":{"art":"pfad"},"geometry":{"type":"LineString","coordinates":[[13.82291,52.79145],[13.82257,52.79234],[13.82126,52.79476],[13.82013,52.79715],[13.81986,52.7981]]}},{"type":"Feature","properties":{"art":"pfad"},"geometry":{"type":"LineString","coordinates":[[13.82874,52.79537],[13.82813,52.79593],[13.82546,52.7972],[13.82392,52.79715],[13.82336,52.79705],[13.82216,52.79709],[13.82117,52.79711],[13.82013,52.79715]]}},{"type":"Feature","properties":{"art":"strasse"},"geometry":{"type":"LineString","coordinates":[[13.83251,52.81805],[13.83298,52.81573],[13.833,52.81566],[13.833,52.81563],[13.83347,52.81331],[13.83372,52.81211],[13.83398,52.81079],[13.83495,52.80591],[13.83511,52.80512],[13.83575,52.80196],[13.83617,52.7999],[13.83698,52.79592],[13.83763,52.79256],[13.83839,52.78912],[13.83861,52.78794],[13.83864,52.78782],[13.83867,52.78769],[13.83882,52.78698]]}},{"type":"Feature","properties":{"art":"pfad"},"geometry":{"type":"LineString","coordinates":[[13.84346,52.78599],[13.84392,52.78628],[13.84503,52.78675],[13.84613,52.78721],[13.84688,52.78761],[13.84727,52.78791],[13.8479,52.78825],[13.84942,52.78911],[13.85023,52.78955],[13.85515,52.79199],[13.85827,52.79369]]}},{"type":"Feature","properties":{"art":"pfad"},"geometry":{"type":"LineString","coordinates":[[13.84736,52.7876],[13.84727,52.78791],[13.8472,52.78848],[13.84702,52.79039],[13.84698,52.7908],[13.84663,52.7924],[13.84647,52.79288]]}},{"type":"Feature","properties":{"art":"pfad"},"geometry":{"type":"LineString","coordinates":[[13.86904,52.7919],[13.86771,52.79191],[13.86741,52.79188],[13.86715,52.79191],[13.86538,52.79191],[13.86418,52.79187],[13.86377,52.79188],[13.86368,52.79185],[13.86365,52.79178],[13.8637,52.79169],[13.86368,52.79162],[13.8636,52.79156],[13.86352,52.79154]]}},{"type":"Feature","properties":{"art":"weg"},"geometry":{"type":"LineString","coordinates":[[13.8463,52.7929],[13.84647,52.79288],[13.84696,52.79283],[13.84737,52.79282],[13.84818,52.79295],[13.84851,52.79297],[13.84921,52.79294],[13.84961,52.79294],[13.84976,52.79297],[13.85021,52.79312],[13.8505,52.79324],[13.85055,52.79353],[13.85276,52.79355],[13.85581,52.79376],[13.85734,52.79374],[13.85827,52.79369]]}},{"type":"Feature","properties":{"art":"pfad"},"geometry":{"type":"LineString","coordinates":[[13.86335,52.79243],[13.86381,52.79252],[13.8641,52.79264],[13.86416,52.7927],[13.86431,52.79282],[13.86452,52.79294],[13.86462,52.79328],[13.86463,52.79332],[13.86477,52.79348],[13.86484,52.79358],[13.86487,52.79363],[13.86485,52.79409],[13.86482,52.79425],[13.86484,52.79436],[13.86484,52.79444],[13.86486,52.79448],[13.86487,52.79464],[13.86484,52.79479],[13.86495,52.79496],[13.865,52.79513],[13.86495,52.79545],[13.86495,52.7956],[13.86499,52.79566],[13.86509,52.79577],[13.86512,52.79581]]}},{"type":"Feature","properties":{"art":"pfad"},"geometry":{"type":"LineString","coordinates":[[13.85956,52.79438],[13.85969,52.79437],[13.85984,52.79434]]}},{"type":"Feature","properties":{"art":"weg"},"geometry":{"type":"LineString","coordinates":[[13.85827,52.79369],[13.85909,52.79411],[13.85956,52.79438],[13.85981,52.79452],[13.86005,52.79466],[13.86044,52.79484],[13.86096,52.79519],[13.86138,52.79553],[13.86168,52.79569]]}},{"type":"Feature","properties":{"art":"pfad"},"geometry":{"type":"LineString","coordinates":[[13.86509,52.79577],[13.86536,52.79577],[13.86551,52.79576],[13.86578,52.79571],[13.86621,52.79559],[13.86657,52.79552],[13.86695,52.79538],[13.86721,52.79512],[13.86728,52.79499],[13.86737,52.79496],[13.86764,52.79491],[13.86803,52.79488],[13.86821,52.79481],[13.86829,52.79475],[13.86839,52.79461],[13.8684,52.79454],[13.86843,52.7945],[13.86866,52.79442],[13.8688,52.79444],[13.86912,52.79453]]}},{"type":"Feature","properties":{"art":"pfad"},"geometry":{"type":"LineString","coordinates":[[13.8692,52.79442],[13.86912,52.79453],[13.86923,52.79471],[13.86947,52.79489],[13.86963,52.79509],[13.87014,52.7955],[13.87096,52.79627]]}},{"type":"Feature","properties":{"art":"weg"},"geometry":{"type":"LineString","coordinates":[[13.86168,52.79569],[13.86369,52.79676],[13.86397,52.79686],[13.86455,52.79727],[13.86613,52.79875]]}},{"type":"Feature","properties":{"art":"pfad"},"geometry":{"type":"LineString","coordinates":[[13.84311,52.78574],[13.84346,52.78599]]}},{"type":"Feature","properties":{"art":"pfad"},"geometry":{"type":"LineString","coordinates":[[13.83861,52.78794],[13.83876,52.78799],[13.83883,52.78805],[13.8389,52.78817],[13.83898,52.78829],[13.83921,52.78855],[13.83942,52.78879],[13.83964,52.78914],[13.83975,52.78939],[13.83989,52.78979],[13.84038,52.79059],[13.84067,52.79113],[13.84087,52.79143],[13.84099,52.79166],[13.84105,52.79181],[13.84107,52.79198],[13.84107,52.79212],[13.84105,52.79238],[13.84108,52.79271],[13.84108,52.79275],[13.84111,52.79309]]}},{"type":"Feature","properties":{"art":"pfad"},"geometry":{"type":"LineString","coordinates":[[13.84353,52.79291],[13.84349,52.79284]]}},{"type":"Feature","properties":{"art":"pfad"},"geometry":{"type":"LineString","coordinates":[[13.84108,52.79275],[13.84149,52.79278],[13.84187,52.79282],[13.84218,52.79284],[13.8424,52.79285],[13.84281,52.79294],[13.8433,52.79291],[13.84353,52.79291],[13.84371,52.79291],[13.84398,52.79292],[13.84433,52.79299],[13.8444,52.7932],[13.84438,52.79327],[13.84438,52.79329]]}},{"type":"Feature","properties":{"art":"weg"},"geometry":{"type":"LineString","coordinates":[[13.84738,52.79337],[13.84634,52.79333],[13.84601,52.79335],[13.84551,52.7934],[13.84438,52.79329],[13.84367,52.79322],[13.8431,52.79316],[13.84111,52.79309]]}},{"type":"Feature","properties":{"art":"pfad"},"geometry":{"type":"LineString","coordinates":[[13.8501,52.79853],[13.84939,52.79834],[13.84848,52.7981],[13.84755,52.79733],[13.8465,52.79705],[13.84526,52.79688],[13.84415,52.79647],[13.84265,52.79591],[13.84164,52.79525],[13.84143,52.79471],[13.84123,52.79417],[13.84111,52.79309],[13.83763,52.79256]]}},{"type":"Feature","properties":{"art":"weg"},"geometry":{"type":"LineString","coordinates":[[13.85734,52.79374],[13.85731,52.79392],[13.85715,52.79433],[13.85703,52.79452],[13.8569,52.79487],[13.85663,52.79529],[13.85637,52.7955],[13.85611,52.79563],[13.85565,52.79572],[13.85532,52.79585],[13.85505,52.79612],[13.85491,52.79627],[13.8548,52.79669],[13.85459,52.79701],[13.8544,52.79722],[13.85403,52.79734],[13.85314,52.79754],[13.85278,52.79769],[13.85143,52.79866],[13.85108,52.79877],[13.85081,52.79892],[13.85066,52.79901],[13.85024,52.79939],[13.85005,52.79952],[13.84923,52.79983],[13.84857,52.79996],[13.84642,52.8011],[13.84528,52.80135],[13.84466,52.80144],[13.84371,52.80148],[13.84315,52.80145],[13.84274,52.80148],[13.84093,52.80185],[13.83991,52.80202],[13.83877,52.80236],[13.83827,52.80243],[13.83765,52.80248],[13.83693,52.80242],[13.83661,52.80236],[13.83635,52.80224],[13.83601,52.80202],[13.83575,52.80196]]}},{"type":"Feature","properties":{"art":"weg"},"geometry":{"type":"LineString","coordinates":[[13.86645,52.78728],[13.86632,52.78778],[13.86605,52.78838],[13.86442,52.79003],[13.86382,52.79079],[13.86352,52.79154],[13.86344,52.79187],[13.86339,52.79227],[13.86335,52.79243],[13.86311,52.79293],[13.86275,52.7936],[13.86236,52.79432],[13.86209,52.79478],[13.86176,52.79546],[13.86168,52.79569],[13.86122,52.79598],[13.86082,52.79622],[13.8607,52.79635],[13.86027,52.7969],[13.86003,52.79717],[13.85988,52.79732],[13.85976,52.79757],[13.8597,52.79778],[13.85962,52.79816],[13.85946,52.79962],[13.85941,52.79984],[13.85921,52.80063],[13.85915,52.80086],[13.85885,52.80137],[13.8584,52.80187],[13.85766,52.80257],[13.85727,52.80285],[13.85643,52.80347],[13.8554,52.80402],[13.85506,52.80431],[13.85473,52.80462],[13.85388,52.80579],[13.85355,52.80611],[13.85317,52.80648],[13.8525,52.80715],[13.85158,52.80786],[13.85129,52.80809],[13.85008,52.80887],[13.84872,52.80961],[13.84799,52.81014],[13.84596,52.81273],[13.84518,52.81412],[13.84441,52.81525],[13.84396,52.81552],[13.84361,52.81574],[13.84255,52.81601],[13.84207,52.81641]]}},{"type":"Feature","properties":{"art":"pfad"},"geometry":{"type":"LineString","coordinates":[[13.84883,52.80611],[13.8485,52.80558],[13.84812,52.80523],[13.8479,52.80453],[13.84752,52.80392],[13.84679,52.80344],[13.84631,52.80324],[13.84572,52.80286],[13.84524,52.80255],[13.84371,52.80148],[13.84284,52.80032],[13.84198,52.79923],[13.8414,52.79866],[13.84121,52.79817],[13.84097,52.79751],[13.84067,52.79694],[13.84073,52.79617],[13.84091,52.79543],[13.84143,52.79471]]}},{"type":"Feature","properties":{"art":"pfad"},"geometry":{"type":"LineString","coordinates":[[13.88196,52.80976],[13.88208,52.80924],[13.88235,52.8081],[13.88293,52.80564],[13.88373,52.80162],[13.88411,52.8002],[13.88524,52.80022],[13.88585,52.8],[13.88672,52.79918],[13.88754,52.79822],[13.88732,52.79818],[13.88605,52.79802],[13.8838,52.79793],[13.88365,52.79791],[13.88287,52.79769],[13.88197,52.79734],[13.88061,52.79615],[13.88138,52.79311]]}}]}