{"type":"FeatureCollection","features":[{"type":"Feature","properties":{"art":"strasse"},"geometry":{"type":"LineString","coordinates":[[14.13162,52.88979],[14.13153,52.89044],[14.13104,52.89254],[14.13101,52.89264]]}},{"type":"Feature","properties":{"art":"strasse"},"geometry":{"type":"LineString","coordinates":[[14.13421,52.89332],[14.13574,52.89327]]}},{"type":"Feature","properties":{"art":"strasse"},"geometry":{"type":"LineString","coordinates":[[14.1455,52.90072],[14.14642,52.89991]]}},{"type":"Feature","properties":{"art":"strasse"},"geometry":{"type":"LineString","coordinates":[[14.14719,52.89903],[14.1474,52.89846],[14.14739,52.8984],[14.14709,52.89706],[14.14238,52.89531],[14.1361,52.89381],[14.13421,52.89332],[14.13202,52.89275],[14.13181,52.89271],[14.13122,52.89257],[14.13104,52.89254]]}},{"type":"Feature","properties":{"art":"strasse"},"geometry":{"type":"LineString","coordinates":[[14.13101,52.89264],[14.12946,52.89783],[14.12807,52.90073],[14.12766,52.90161],[14.12754,52.90186],[14.12737,52.90233]]}},{"type":"Feature","properties":{"art":"strasse"},"geometry":{"type":"LineString","coordinates":[[14.1467,52.89936],[14.14665,52.89927],[14.1466,52.89915],[14.14659,52.89906],[14.14663,52.89899],[14.14675,52.89889],[14.14706,52.89867],[14.14728,52.89849],[14.14739,52.8984]]}},{"type":"Feature","properties":{"art":"weg"},"geometry":{"type":"LineString","coordinates":[[14.14087,52.89656],[14.136,52.90032],[14.1354,52.90049],[14.13299,52.90101],[14.13154,52.90153],[14.13023,52.90192],[14.12891,52.90231],[14.12749,52.9028],[14.12717,52.90283]]}},{"type":"Feature","properties":{"art":"weg"},"geometry":{"type":"LineString","coordinates":[[14.12252,52.90301],[14.12277,52.90265]]}},{"type":"Feature","properties":{"art":"weg"},"geometry":{"type":"LineString","coordinates":[[14.12474,52.90546],[14.12563,52.90556],[14.12647,52.90566],[14.1272,52.90568],[14.12804,52.90564],[14.12898,52.9057],[14.12982,52.90564],[14.1304,52.90556],[14.13093,52.90543],[14.13136,52.90538]]}},{"type":"Feature","properties":{"art":"weg"},"geometry":{"type":"LineString","coordinates":[[14.13136,52.90538],[14.13183,52.9054],[14.13227,52.90552]]}},{"type":"Feature","properties":{"art":"weg"},"geometry":{"type":"LineString","coordinates":[[14.1494,52.90035],[14.1489,52.90119],[14.14824,52.90328],[14.14758,52.90495]]}},{"type":"Feature","properties":{"art":"weg"},"geometry":{"type":"LineString","coordinates":[[14.1251,52.91513],[14.12529,52.91513],[14.12562,52.9151],[14.12577,52.91504]]}},{"type":"Feature","properties":{"art":"weg"},"geometry":{"type":"LineString","coordinates":[[14.11725,52.90254],[14.11751,52.90217]]}},{"type":"Feature","properties":{"art":"weg"},"geometry":{"type":"LineString","coordinates":[[14.12636,52.90358],[14.1241,52.90319],[14.12252,52.90301],[14.11985,52.90294],[14.118,52.90289],[14.11725,52.90254],[14.11637,52.90217],[14.11531,52.90216],[14.11204,52.90241],[14.11074,52.90257],[14.10941,52.90245],[14.10899,52.90239]]}},{"type":"Feature","properties":{"art":"strasse"},"geometry":{"type":"LineString","coordinates":[[14.12737,52.90233],[14.12735,52.90237],[14.12717,52.90283],[14.12715,52.90291],[14.12712,52.903],[14.12698,52.90313],[14.12648,52.90345],[14.12636,52.90358],[14.12474,52.90546],[14.12348,52.90686],[14.12188,52.90866],[14.11945,52.91144]]}},{"type":"Feature","properties":{"art":"strasse"},"geometry":{"type":"LineString","coordinates":[[14.11608,52.91655],[14.11626,52.91651]]}},{"type":"Feature","properties":{"art":"strasse"},"geometry":{"type":"LineString","coordinates":[[14.06589,52.89061],[14.06621,52.89052],[14.06638,52.89047],[14.06645,52.89045],[14.06663,52.8904]]}},{"type":"Feature","properties":{"art":"weg"},"geometry":{"type":"LineString","coordinates":[[14.1278,52.89737],[14.12796,52.89737],[14.12946,52.89783]]}},{"type":"Feature","properties":{"art":"weg"},"geometry":{"type":"LineString","coordinates":[[14.12735,52.90237],[14.12557,52.90194]]}},{"type":"Feature","properties":{"art":"weg"},"geometry":{"type":"LineString","coordinates":[[14.08866,52.89334],[14.08844,52.89332],[14.0883,52.89324]]}},{"type":"Feature","properties":{"art":"weg"},"geometry":{"type":"LineString","coordinates":[[14.08593,52.89225],[14.08552,52.89239],[14.08365,52.89165]]}},{"type":"Feature","properties":{"art":"weg"},"geometry":{"type":"LineString","coordinates":[[14.09247,52.90122],[14.09393,52.90109],[14.09468,52.90108],[14.09524,52.90119]]}},{"type":"Feature","properties":{"art":"weg"},"geometry":{"type":"LineString","coordinates":[[14.09646,52.90221],[14.09676,52.90255],[14.09728,52.90251],[14.09968,52.90382],[14.10099,52.90564],[14.103,52.90806],[14.10422,52.90912],[14.10511,52.90961],[14.10716,52.91074],[14.10834,52.91152]]}},{"type":"Feature","properties":{"art":"weg"},"geometry":{"type":"LineString","coordinates":[[14.10883,52.91184],[14.11145,52.91358]]}},{"type":"Feature","properties":{"art":"weg"},"geometry":{"type":"LineString","coordinates":[[14.09575,52.90722],[14.09603,52.90766],[14.09633,52.90804],[14.09726,52.90911],[14.09832,52.91049],[14.09869,52.911],[14.09884,52.91107]]}},{"type":"Feature","properties":{"art":"weg"},"geometry":{"type":"LineString","coordinates":[[14.09886,52.91107],[14.0989,52.91109]]}},{"type":"Feature","properties":{"art":"weg"},"geometry":{"type":"LineString","coordinates":[[14.10456,52.91373],[14.10527,52.91401],[14.10776,52.91479]]}},{"type":"Feature","properties":{"art":"pfad"},"geometry":{"type":"LineString","coordinates":[[14.10911,52.91539],[14.10465,52.91601],[14.10424,52.91567],[14.10414,52.9153],[14.10339,52.91445],[14.10334,52.91389]]}},{"type":"Feature","properties":{"art":"strasse"},"geometry":{"type":"LineString","coordinates":[[14.10776,52.91479],[14.10468,52.91522],[14.10414,52.9153],[14.10356,52.91537]]}},{"type":"Feature","properties":{"art":"strasse"},"geometry":{"type":"LineString","coordinates":[[14.10986,52.91573],[14.10981,52.91574]]}},{"type":"Feature","properties":{"art":"strasse"},"geometry":{"type":"LineString","coordinates":[[14.10961,52.91575],[14.10886,52.91583],[14.10879,52.91584]]}},{"type":"Feature","properties":{"art":"weg"},"geometry":{"type":"LineString","coordinates":[[14.11514,52.91404],[14.1149,52.91366],[14.11485,52.91358],[14.11243,52.90975],[14.11201,52.90883],[14.11128,52.90722],[14.11064,52.90548],[14.11036,52.90414],[14.11023,52.90374],[14.10956,52.90313],[14.10902,52.90247],[14.10899,52.90239],[14.10929,52.90196]]}},{"type":"Feature","properties":{"art":"weg"},"geometry":{"type":"LineString","coordinates":[[14.12188,52.90866],[14.11845,52.90872],[14.11709,52.9087],[14.11692,52.90878],[14.11201,52.90883],[14.10459,52.90898],[14.10422,52.90912]]}},{"type":"Feature","properties":{"art":"strasse"},"geometry":{"type":"LineString","coordinates":[[14.11252,52.91354],[14.11299,52.91356],[14.11353,52.91358],[14.11394,52.9136],[14.11428,52.91361],[14.11458,52.91363],[14.11476,52.91363],[14.1149,52.91366]]}},{"type":"Feature","properties":{"art":"strasse"},"geometry":{"type":"LineString","coordinates":[[14.11165,52.9137],[14.11198,52.91354],[14.11252,52.91354]]}},{"type":"Feature","properties":{"art":"strasse"},"geometry":{"type":"LineString","coordinates":[[14.11145,52.91358],[14.11165,52.9137],[14.11175,52.91376]]}},{"type":"Feature","properties":{"art":"strasse"},"geometry":{"type":"LineString","coordinates":[[14.11382,52.91503],[14.11442,52.91562],[14.11462,52.91578],[14.11502,52.9161],[14.11557,52.91641]]}},{"type":"Feature","properties":{"art":"strasse"},"geometry":{"type":"LineString","coordinates":[[14.11286,52.91497],[14.11386,52.91539],[14.11442,52.91562]]}},{"type":"Feature","properties":{"art":"strasse"},"geometry":{"type":"LineString","coordinates":[[14.11569,52.91592],[14.11557,52.91618],[14.11557,52.91627],[14.11557,52.91641],[14.11558,52.91663],[14.11558,52.91672]]}},{"type":"Feature","properties":{"art":"strasse"},"geometry":{"type":"LineString","coordinates":[[14.11462,52.91578],[14.11472,52.91574]]}},{"type":"Feature","properties":{"art":"strasse"},"geometry":{"type":"LineString","coordinates":[[14.11627,52.91655],[14.11608,52.91655],[14.11572,52.91662],[14.11558,52.91663]]}},{"type":"Feature","properties":{"art":"strasse"},"geometry":{"type":"LineString","coordinates":[[14.11557,52.91627],[14.11575,52.9162],[14.11598,52.91616],[14.11601,52.91617]]}},{"type":"Feature","properties":{"art":"pfad"},"geometry":{"type":"LineString","coordinates":[[14.11571,52.91678],[14.11573,52.9167],[14.11572,52.91662]]}},{"type":"Feature","properties":{"art":"strasse"},"geometry":{"type":"LineString","coordinates":[[14.11558,52.91672],[14.11558,52.91684]]}},{"type":"Feature","properties":{"art":"pfad"},"geometry":{"type":"LineString","coordinates":[[14.1157,52.91685],[14.11571,52.91678]]}},{"type":"Feature","properties":{"art":"strasse"},"geometry":{"type":"LineString","coordinates":[[14.11558,52.91684],[14.1156,52.91719]]}},{"type":"Feature","properties":{"art":"strasse"},"geometry":{"type":"LineString","coordinates":[[14.11304,52.9173],[14.11316,52.91725],[14.1134,52.9172],[14.11367,52.91714],[14.11414,52.91718],[14.11456,52.91726],[14.11492,52.91725],[14.11551,52.91724],[14.11551,52.91724]]}},{"type":"Feature","properties":{"art":"strasse"},"geometry":{"type":"LineString","coordinates":[[14.10776,52.91479],[14.10911,52.91539],[14.10986,52.91573],[14.11047,52.91599],[14.11114,52.9163],[14.11153,52.91651]]}},{"type":"Feature","properties":{"art":"strasse"},"geometry":{"type":"LineString","coordinates":[[14.11515,52.91761],[14.11534,52.9174],[14.11551,52.91724]]}},{"type":"Feature","properties":{"art":"pfad"},"geometry":{"type":"LineString","coordinates":[[14.11573,52.9172],[14.11571,52.91714],[14.11565,52.91694],[14.11569,52.91689],[14.1157,52.91685]]}},{"type":"Feature","properties":{"art":"weg"},"geometry":{"type":"LineString","coordinates":[[14.11187,52.91965],[14.11205,52.91949],[14.1121,52.91942],[14.11205,52.91927],[14.11193,52.91915],[14.11181,52.91903],[14.11166,52.91895]]}},{"type":"Feature","properties":{"art":"strasse"},"geometry":{"type":"LineString","coordinates":[[14.11047,52.91599],[14.11042,52.91601]]}},{"type":"Feature","properties":{"art":"strasse"},"geometry":{"type":"LineString","coordinates":[[14.10977,52.91668],[14.10967,52.9166],[14.10942,52.91635],[14.10886,52.91583]]}},{"type":"Feature","properties":{"art":"strasse"},"geometry":{"type":"LineString","coordinates":[[14.11114,52.9163],[14.11108,52.91633]]}},{"type":"Feature","properties":{"art":"strasse"},"geometry":{"type":"LineString","coordinates":[[14.10902,52.91718],[14.10848,52.9174]]}},{"type":"Feature","properties":{"art":"weg"},"geometry":{"type":"LineString","coordinates":[[14.10543,52.91763],[14.10557,52.91752],[14.10574,52.91742],[14.10592,52.91733],[14.10615,52.91728],[14.10649,52.91725],[14.10674,52.91723],[14.10696,52.91719],[14.10714,52.91716],[14.1074,52.91716],[14.10763,52.91711],[14.10776,52.91707],[14.10787,52.91705],[14.108,52.91704],[14.10817,52.91706],[14.10831,52.91717]]}},{"type":"Feature","properties":{"art":"strasse"},"geometry":{"type":"LineString","coordinates":[[14.10831,52.91717],[14.10848,52.9174],[14.10852,52.91748],[14.10859,52.91755]]}},{"type":"Feature","properties":{"art":"weg"},"geometry":{"type":"LineString","coordinates":[[14.10574,52.91742],[14.10562,52.91742],[14.10549,52.91739],[14.10537,52.91736]]}},{"type":"Feature","properties":{"art":"weg"},"geometry":{"type":"LineString","coordinates":[[14.1088,52.91765],[14.1078,52.91814],[14.10673,52.91868],[14.10622,52.91884]]}},{"type":"Feature","properties":{"art":"weg"},"geometry":{"type":"LineString","coordinates":[[14.10859,52.91755],[14.1087,52.91758],[14.1088,52.91765],[14.10947,52.91822],[14.11041,52.91885],[14.11069,52.91908],[14.11075,52.91912],[14.11102,52.91935],[14.11137,52.91953]]}},{"type":"Feature","properties":{"art":"weg"},"geometry":{"type":"LineString","coordinates":[[14.11201,52.91867],[14.11196,52.9188],[14.11185,52.9189],[14.11166,52.91895],[14.11154,52.91898],[14.11103,52.91905],[14.11069,52.91908],[14.1105,52.91921],[14.11029,52.91936],[14.11001,52.91956],[14.10984,52.91969],[14.10964,52.91981],[14.10886,52.92021],[14.10833,52.92045],[14.10801,52.92056],[14.10795,52.92058]]}},{"type":"Feature","properties":{"art":"weg"},"geometry":{"type":"LineString","coordinates":[[14.10465,52.91601],[14.10497,52.91669],[14.10514,52.91708],[14.10537,52.91736],[14.10543,52.91763],[14.10546,52.91789],[14.10568,52.91816],[14.10622,52.91884],[14.10632,52.91896],[14.10695,52.9197],[14.10746,52.92015],[14.10795,52.92057],[14.10795,52.92058],[14.10843,52.92098]]}},{"type":"Feature","properties":{"art":"strasse"},"geometry":{"type":"LineString","coordinates":[[14.11137,52.91953],[14.11187,52.91965],[14.1121,52.91969]]}},{"type":"Feature","properties":{"art":"weg"},"geometry":{"type":"LineString","coordinates":[[14.14015,52.92642],[14.13997,52.92694]]}},{"type":"Feature","properties":{"art":"weg"},"geometry":{"type":"LineString","coordinates":[[14.13802,52.94247],[14.13799,52.94292],[14.13785,52.9438],[14.13769,52.94465],[14.13742,52.94523],[14.13741,52.94524]]}},{"type":"Feature","properties":{"art":"weg"},"geometry":{"type":"LineString","coordinates":[[14.13976,52.96062],[14.14045,52.9619],[14.14112,52.96266],[14.14118,52.96273],[14.14144,52.96293]]}},{"type":"Feature","properties":{"art":"pfad"},"geometry":{"type":"LineString","coordinates":[[14.13818,52.9623],[14.13891,52.96245],[14.13944,52.96253],[14.13976,52.96257],[14.14027,52.9625]]}},{"type":"Feature","properties":{"art":"weg"},"geometry":{"type":"LineString","coordinates":[[14.14112,52.96266],[14.14027,52.9625]]}},{"type":"Feature","properties":{"art":"strasse"},"geometry":{"type":"LineString","coordinates":[[14.11079,52.92094],[14.11075,52.92092],[14.11067,52.92089],[14.11062,52.92087],[14.11055,52.92084],[14.11046,52.92083],[14.11038,52.92084],[14.11031,52.92087],[14.11005,52.92107],[14.10999,52.92109],[14.10992,52.92108],[14.10971,52.92099]]}},{"type":"Feature","properties":{"art":"pfad"},"geometry":{"type":"LineString","coordinates":[[14.10723,52.94563],[14.10752,52.94518],[14.10826,52.94403]]}},{"type":"Feature","properties":{"art":"strasse"},"geometry":{"type":"LineString","coordinates":[[14.10603,52.94569],[14.10608,52.94563]]}},{"type":"Feature","properties":{"art":"weg"},"geometry":{"type":"LineString","coordinates":[[14.10748,52.94596],[14.10775,52.94604],[14.108,52.94608],[14.10855,52.94613]]}},{"type":"Feature","properties":{"art":"pfad"},"geometry":{"type":"LineString","coordinates":[[14.1076,52.94622],[14.10775,52.94604]]}},{"type":"Feature","properties":{"art":"strasse"},"geometry":{"type":"LineString","coordinates":[[14.10562,52.94573],[14.10565,52.94572],[14.10603,52.94569],[14.10605,52.94569]]}},{"type":"Feature","properties":{"art":"strasse"},"geometry":{"type":"LineString","coordinates":[[14.1072,52.94589],[14.10748,52.94596]]}},{"type":"Feature","properties":{"art":"pfad"},"geometry":{"type":"LineString","coordinates":[[14.108,52.94608],[14.10822,52.94604],[14.10874,52.94603],[14.10911,52.94606],[14.10921,52.94609],[14.10933,52.94615],[14.1093,52.9463],[14.10925,52.94645],[14.1091,52.94674],[14.10901,52.9471],[14.10861,52.94767],[14.10843,52.94802],[14.10829,52.94809]]}},{"type":"Feature","properties":{"art":"strasse"},"geometry":{"type":"LineString","coordinates":[[14.12249,52.93374],[14.12249,52.93376],[14.1224,52.93398],[14.12232,52.93413],[14.12093,52.93586]]}},{"type":"Feature","properties":{"art":"strasse"},"geometry":{"type":"LineString","coordinates":[[14.12039,52.93628],[14.12027,52.93636],[14.12018,52.93645]]}},{"type":"Feature","properties":{"art":"pfad"},"geometry":{"type":"LineString","coordinates":[[14.11896,52.93795],[14.11816,52.93763],[14.11762,52.93748],[14.11574,52.93734]]}},{"type":"Feature","properties":{"art":"strasse"},"geometry":{"type":"LineString","coordinates":[[14.1067,52.95108],[14.10672,52.95092],[14.10676,52.95081],[14.10676,52.9508]]}},{"type":"Feature","properties":{"art":"pfad"},"geometry":{"type":"LineString","coordinates":[[14.10601,52.95086],[14.10605,52.95096],[14.10609,52.95104],[14.10626,52.95121],[14.10632,52.95126],[14.10638,52.95131],[14.10645,52.95132],[14.10651,52.95139],[14.10655,52.95147],[14.10651,52.9516],[14.10639,52.95208],[14.10612,52.95263],[14.10589,52.95325],[14.1058,52.95432],[14.10562,52.95474],[14.10533,52.95518],[14.10519,52.95611],[14.105,52.95659],[14.10481,52.95711],[14.10491,52.9573],[14.10476,52.95818],[14.10447,52.95916],[14.10425,52.95945]]}},{"type":"Feature","properties":{"art":"pfad"},"geometry":{"type":"LineString","coordinates":[[14.10752,52.94518],[14.10806,52.94527],[14.10861,52.94534],[14.10909,52.94535],[14.10945,52.94529],[14.10967,52.94515],[14.11,52.94492],[14.11032,52.94444],[14.11037,52.94412],[14.11045,52.94381],[14.11022,52.94354],[14.11,52.9432],[14.10991,52.94298],[14.11027,52.94307],[14.11084,52.94316],[14.11159,52.94308],[14.11236,52.94278],[14.11356,52.9417],[14.11413,52.9411],[14.11423,52.9408],[14.11511,52.94006],[14.11564,52.93964],[14.11582,52.93892],[14.11602,52.93823],[14.11613,52.93778],[14.11578,52.93744],[14.11574,52.93734]]}}]}