{"type":"FeatureCollection","features":[{"type":"Feature","properties":{"art":"weg"},"geometry":{"type":"LineString","coordinates":[[13.83024,52.6334],[13.83021,52.63329],[13.83022,52.63317],[13.83029,52.63307],[13.83039,52.63297],[13.83066,52.63273],[13.83084,52.63255],[13.83117,52.63223],[13.83125,52.63186],[13.83133,52.63173],[13.83146,52.63146],[13.83159,52.63116],[13.83174,52.63058],[13.83178,52.63045],[13.83179,52.63036],[13.83176,52.63026],[13.83168,52.63018],[13.83157,52.6301],[13.83144,52.63004],[13.83121,52.62994],[13.83094,52.62979],[13.83059,52.62959],[13.83004,52.62934],[13.82945,52.62905],[13.82909,52.62892],[13.82869,52.62876],[13.82846,52.62864],[13.82832,52.62849],[13.82816,52.62829],[13.828,52.628],[13.82789,52.62781],[13.82767,52.62753],[13.82741,52.62722],[13.82722,52.627],[13.82711,52.62683],[13.82695,52.62655],[13.82691,52.62649],[13.82673,52.62617],[13.82658,52.62589],[13.82648,52.6257],[13.8264,52.62559],[13.82634,52.62543],[13.82628,52.62524],[13.82626,52.62498],[13.82625,52.62489]]}},{"type":"Feature","properties":{"art":"pfad"},"geometry":{"type":"LineString","coordinates":[[13.83004,52.62934],[13.83008,52.62975],[13.83006,52.62994],[13.82994,52.63013],[13.8297,52.63031],[13.82948,52.63043],[13.82921,52.63055],[13.82902,52.63058],[13.82881,52.63061],[13.8286,52.63062]]}},{"type":"Feature","properties":{"art":"pfad"},"geometry":{"type":"LineString","coordinates":[[13.82385,52.626],[13.82367,52.62596],[13.82349,52.62597],[13.82335,52.62598],[13.82328,52.62595],[13.82314,52.6258]]}},{"type":"Feature","properties":{"art":"pfad"},"geometry":{"type":"LineString","coordinates":[[13.81781,52.6341],[13.81805,52.63398],[13.81858,52.63353],[13.81908,52.63295],[13.81952,52.63261],[13.82054,52.63171],[13.82075,52.63155],[13.82092,52.63139],[13.8213,52.63103],[13.82152,52.63082],[13.82196,52.63048],[13.82211,52.63037],[13.82248,52.63014]]}},{"type":"Feature","properties":{"art":"pfad"},"geometry":{"type":"LineString","coordinates":[[13.82497,52.62875],[13.82502,52.62873],[13.82521,52.62868],[13.82548,52.62864],[13.82574,52.62862],[13.82579,52.62861],[13.82585,52.62854],[13.82591,52.62848],[13.82607,52.62843],[13.82623,52.62839],[13.82636,52.62834],[13.82647,52.62825],[13.82657,52.62817],[13.82672,52.62802],[13.82701,52.62764],[13.82727,52.62731],[13.82741,52.62722]]}},{"type":"Feature","properties":{"art":"weg"},"geometry":{"type":"LineString","coordinates":[[13.81694,52.63411],[13.81711,52.6341],[13.81745,52.63411],[13.81781,52.6341]]}},{"type":"Feature","properties":{"art":"pfad"},"geometry":{"type":"LineString","coordinates":[[13.83084,52.63255],[13.83036,52.63247],[13.8295,52.63204],[13.82917,52.63162],[13.82926,52.63115],[13.82954,52.63066],[13.82965,52.63047],[13.8297,52.63031]]}},{"type":"Feature","properties":{"art":"pfad"},"geometry":{"type":"LineString","coordinates":[[13.83049,52.63382],[13.83096,52.63378]]}},{"type":"Feature","properties":{"art":"pfad"},"geometry":{"type":"LineString","coordinates":[[13.82693,52.63457],[13.82695,52.63448],[13.82721,52.63444],[13.82738,52.63433],[13.82774,52.63417],[13.82831,52.63401],[13.82853,52.63393],[13.82901,52.63368],[13.82929,52.63358],[13.82995,52.63349],[13.83017,52.63344],[13.83024,52.6334]]}},{"type":"Feature","properties":{"art":"weg"},"geometry":{"type":"LineString","coordinates":[[13.83011,52.63479],[13.83007,52.63463],[13.83008,52.63449],[13.83016,52.63435],[13.83033,52.63414],[13.83046,52.63397],[13.8305,52.63387],[13.83049,52.63382],[13.83046,52.63374],[13.83035,52.63357],[13.83024,52.6334]]}},{"type":"Feature","properties":{"art":"pfad"},"geometry":{"type":"LineString","coordinates":[[13.83011,52.63479],[13.82971,52.63482],[13.82938,52.63484],[13.82915,52.63492],[13.82889,52.63496],[13.82838,52.63502],[13.82786,52.6351],[13.82727,52.63517]]}},{"type":"Feature","properties":{"art":"pfad"},"geometry":{"type":"LineString","coordinates":[[13.83189,52.63645],[13.83197,52.63629],[13.83202,52.63608]]}},{"type":"Feature","properties":{"art":"pfad"},"geometry":{"type":"LineString","coordinates":[[13.8357,52.6385],[13.8354,52.63846],[13.83487,52.63842],[13.83436,52.63836],[13.83413,52.63835],[13.83374,52.63841],[13.83326,52.63852]]}},{"type":"Feature","properties":{"art":"weg"},"geometry":{"type":"LineString","coordinates":[[13.83728,52.64056],[13.83708,52.64039],[13.83658,52.63996],[13.83633,52.63974],[13.83545,52.63892],[13.83534,52.63878],[13.83534,52.63869],[13.83541,52.63861],[13.83553,52.63859],[13.83563,52.63856],[13.8357,52.6385],[13.83563,52.63844],[13.83544,52.6384],[13.83507,52.63837],[13.83479,52.63828],[13.83456,52.63813],[13.83422,52.63786],[13.83415,52.63773],[13.83424,52.63768],[13.83452,52.63767],[13.83485,52.63764]]}},{"type":"Feature","properties":{"art":"weg"},"geometry":{"type":"LineString","coordinates":[[13.82674,52.64057],[13.82719,52.64046],[13.82776,52.64029],[13.82876,52.64017],[13.8298,52.64007],[13.83046,52.63994],[13.83106,52.63978],[13.83123,52.63968],[13.83133,52.6396],[13.8314,52.63948],[13.83157,52.63919],[13.83175,52.63885],[13.83209,52.63859],[13.83295,52.63819]]}},{"type":"Feature","properties":{"art":"pfad"},"geometry":{"type":"LineString","coordinates":[[13.81781,52.6341],[13.81796,52.63428],[13.81815,52.63443],[13.81865,52.63476],[13.81886,52.63486],[13.81926,52.63494],[13.82061,52.63488]]}},{"type":"Feature","properties":{"art":"pfad"},"geometry":{"type":"LineString","coordinates":[[13.82603,52.63464],[13.82635,52.63464],[13.82676,52.63459],[13.82693,52.63457]]}},{"type":"Feature","properties":{"art":"pfad"},"geometry":{"type":"LineString","coordinates":[[13.82061,52.63488],[13.82145,52.63486],[13.82325,52.63474],[13.8239,52.63472],[13.82419,52.63472],[13.82496,52.63468],[13.82552,52.63462],[13.82603,52.63464]]}},{"type":"Feature","properties":{"art":"pfad"},"geometry":{"type":"LineString","coordinates":[[13.82693,52.63457],[13.82707,52.63458],[13.82716,52.63462],[13.82723,52.63467],[13.82728,52.63472],[13.82732,52.63482],[13.82734,52.63499],[13.82729,52.63513],[13.82727,52.63517],[13.82723,52.63526],[13.82682,52.63624],[13.82634,52.63716],[13.82623,52.63726],[13.82598,52.63741],[13.82366,52.63833],[13.82359,52.63836],[13.82343,52.6384],[13.82327,52.6384],[13.82289,52.63833],[13.82258,52.63825],[13.82229,52.63816],[13.82219,52.63815],[13.82212,52.63817],[13.82204,52.63823],[13.82194,52.63843],[13.82164,52.63889],[13.82151,52.63904],[13.82134,52.63913],[13.82091,52.63929],[13.82063,52.63936],[13.82039,52.63938],[13.8202,52.63936],[13.81974,52.63923],[13.81874,52.63894],[13.8186,52.63893],[13.81848,52.63893],[13.81837,52.63895],[13.81825,52.63901],[13.81811,52.63914],[13.81772,52.63969],[13.81727,52.64034],[13.81636,52.64154],[13.81552,52.64273],[13.81516,52.64325]]}},{"type":"Feature","properties":{"art":"pfad"},"geometry":{"type":"LineString","coordinates":[[13.81499,52.64343],[13.81516,52.64325],[13.8153,52.64322],[13.8155,52.6432],[13.81764,52.64345],[13.81779,52.64343],[13.81791,52.64339],[13.81803,52.64333],[13.81836,52.64308],[13.81883,52.64268],[13.81894,52.64263],[13.81932,52.6425],[13.82302,52.64126],[13.82498,52.6406],[13.82521,52.64058],[13.82674,52.64057]]}},{"type":"Feature","properties":{"art":"pfad"},"geometry":{"type":"LineString","coordinates":[[13.82636,52.64365],[13.82302,52.64126]]}},{"type":"Feature","properties":{"art":"weg"},"geometry":{"type":"LineString","coordinates":[[13.80463,52.64043],[13.80539,52.64061]]}},{"type":"Feature","properties":{"art":"weg"},"geometry":{"type":"LineString","coordinates":[[13.81453,52.6431],[13.81499,52.64343],[13.81522,52.6436],[13.81675,52.64472],[13.81691,52.64482]]}},{"type":"Feature","properties":{"art":"pfad"},"geometry":{"type":"LineString","coordinates":[[13.82224,52.64466],[13.82175,52.64431],[13.81932,52.6425]]}},{"type":"Feature","properties":{"art":"pfad"},"geometry":{"type":"LineString","coordinates":[[13.82677,52.64401],[13.82636,52.64365]]}},{"type":"Feature","properties":{"art":"weg"},"geometry":{"type":"LineString","coordinates":[[13.81691,52.64482],[13.81728,52.64506],[13.81763,52.64532]]}},{"type":"Feature","properties":{"art":"pfad"},"geometry":{"type":"LineString","coordinates":[[13.83123,52.63968],[13.8309,52.63918]]}},{"type":"Feature","properties":{"art":"weg"},"geometry":{"type":"LineString","coordinates":[[13.83271,52.64012],[13.83244,52.6401],[13.83202,52.64015],[13.83169,52.64013],[13.83144,52.63997],[13.83123,52.63968]]}},{"type":"Feature","properties":{"art":"pfad"},"geometry":{"type":"LineString","coordinates":[[13.83271,52.64012],[13.83439,52.63977]]}},{"type":"Feature","properties":{"art":"weg"},"geometry":{"type":"LineString","coordinates":[[13.82366,52.63833],[13.82517,52.63942],[13.82624,52.64021],[13.82674,52.64057],[13.82724,52.64095],[13.82834,52.64181],[13.82878,52.64223],[13.82939,52.6428]]}},{"type":"Feature","properties":{"art":"weg"},"geometry":{"type":"LineString","coordinates":[[13.83504,52.641],[13.83461,52.64112],[13.83412,52.64125],[13.83397,52.64127],[13.83379,52.64121],[13.83357,52.64106],[13.83349,52.64099],[13.83317,52.64074],[13.83297,52.64051],[13.83271,52.64012]]}},{"type":"Feature","properties":{"art":"weg"},"geometry":{"type":"LineString","coordinates":[[13.83504,52.641],[13.83536,52.64099],[13.83584,52.64098],[13.83609,52.64097],[13.83629,52.64095],[13.83642,52.64087],[13.83656,52.64083],[13.8367,52.6408],[13.83682,52.64077],[13.83728,52.64056]]}},{"type":"Feature","properties":{"art":"weg"},"geometry":{"type":"LineString","coordinates":[[13.83739,52.64707],[13.8374,52.64694],[13.83737,52.64675],[13.83733,52.64655],[13.83716,52.64622],[13.83711,52.64611],[13.83698,52.64588],[13.83656,52.64514],[13.83607,52.64379],[13.83571,52.64298],[13.83571,52.64296],[13.83525,52.64163],[13.83504,52.641],[13.83483,52.64051],[13.83483,52.6404],[13.83475,52.64025],[13.83443,52.6399],[13.83439,52.63977],[13.83421,52.63929],[13.83411,52.63914],[13.83396,52.63901],[13.83362,52.63878],[13.8333,52.63856],[13.83326,52.63852],[13.83295,52.63819],[13.83268,52.6379],[13.8326,52.63777],[13.83253,52.63738],[13.83242,52.63704],[13.83234,52.63684],[13.83224,52.63668],[13.83199,52.63651],[13.83189,52.63645],[13.83134,52.63613],[13.83078,52.63578],[13.8304,52.63554],[13.83029,52.63542],[13.83022,52.63529],[13.8302,52.63508],[13.83018,52.63493],[13.83011,52.63479]]}},{"type":"Feature","properties":{"art":"pfad"},"geometry":{"type":"LineString","coordinates":[[13.83349,52.64099],[13.83341,52.641]]}},{"type":"Feature","properties":{"art":"pfad"},"geometry":{"type":"LineString","coordinates":[[13.82724,52.64095],[13.82646,52.64189]]}},{"type":"Feature","properties":{"art":"pfad"},"geometry":{"type":"LineString","coordinates":[[13.83397,52.64127],[13.83383,52.64133],[13.83319,52.64146],[13.83284,52.64158],[13.83277,52.64165],[13.83281,52.64181],[13.833,52.64225]]}},{"type":"Feature","properties":{"art":"pfad"},"geometry":{"type":"LineString","coordinates":[[13.8357,52.6385],[13.83603,52.63858]]}},{"type":"Feature","properties":{"art":"weg"},"geometry":{"type":"LineString","coordinates":[[13.83923,52.64265],[13.83925,52.64258],[13.83919,52.64246],[13.83911,52.64228],[13.83919,52.64218],[13.8393,52.64203],[13.83881,52.64174],[13.83839,52.64147],[13.83791,52.64105],[13.83728,52.64056]]}},{"type":"Feature","properties":{"art":"pfad"},"geometry":{"type":"LineString","coordinates":[[13.83911,52.64228],[13.83824,52.64218],[13.83791,52.64218]]}},{"type":"Feature","properties":{"art":"pfad"},"geometry":{"type":"LineString","coordinates":[[13.83994,52.64179],[13.83979,52.64182],[13.8393,52.64203]]}},{"type":"Feature","properties":{"art":"weg"},"geometry":{"type":"LineString","coordinates":[[13.83923,52.64265],[13.83912,52.64271],[13.83899,52.64276],[13.83864,52.64284],[13.83849,52.64288],[13.83832,52.64299],[13.83825,52.64313],[13.83819,52.64328],[13.8381,52.64336],[13.83802,52.64348],[13.83798,52.64372],[13.83799,52.64378],[13.83802,52.64384],[13.83816,52.64395],[13.8384,52.64404],[13.83874,52.64414],[13.83907,52.64416],[13.83934,52.64417],[13.83973,52.64428],[13.83996,52.64433]]}},{"type":"Feature","properties":{"art":"weg"},"geometry":{"type":"LineString","coordinates":[[13.84058,52.64596],[13.84045,52.64585],[13.84033,52.64578],[13.83998,52.64577],[13.83948,52.64578],[13.83938,52.64575],[13.83926,52.64568],[13.83917,52.64555],[13.83911,52.64531],[13.83912,52.6451],[13.83924,52.64491],[13.83944,52.64474],[13.83989,52.64459],[13.84009,52.64451],[13.84013,52.64444],[13.84009,52.64438],[13.83996,52.64433]]}},{"type":"Feature","properties":{"art":"pfad"},"geometry":{"type":"LineString","coordinates":[[13.83661,52.64639],[13.83666,52.64637],[13.83692,52.64621],[13.83711,52.64611]]}},{"type":"Feature","properties":{"art":"pfad"},"geometry":{"type":"LineString","coordinates":[[13.83747,52.64718],[13.83763,52.64722],[13.83783,52.64733],[13.83804,52.64749],[13.83831,52.64771],[13.8384,52.64799],[13.83907,52.64885],[13.83912,52.64911],[13.8391,52.64917]]}},{"type":"Feature","properties":{"art":"pfad"},"geometry":{"type":"LineString","coordinates":[[13.83571,52.64298],[13.8359,52.64296],[13.83604,52.64293],[13.83617,52.64291],[13.8363,52.64293],[13.83646,52.64299],[13.83654,52.64301],[13.8369,52.64301],[13.83707,52.643],[13.83742,52.64295],[13.83772,52.64288],[13.8381,52.64275],[13.83823,52.6427],[13.83843,52.64264],[13.83864,52.64262],[13.83888,52.64262],[13.83923,52.64265],[13.83985,52.64277],[13.84066,52.64276],[13.84122,52.64281]]}},{"type":"Feature","properties":{"art":"pfad"},"geometry":{"type":"LineString","coordinates":[[13.8463,52.64648],[13.84629,52.64648],[13.8459,52.64647],[13.84552,52.64641],[13.84393,52.64601],[13.84344,52.64581],[13.84292,52.64563],[13.84243,52.64561],[13.84188,52.64567],[13.84105,52.64585],[13.84058,52.64596],[13.83972,52.64627],[13.83924,52.64648],[13.83888,52.64643],[13.83856,52.64622],[13.83837,52.64599],[13.83783,52.6458],[13.83766,52.64579],[13.83756,52.64582],[13.83711,52.64611]]}},{"type":"Feature","properties":{"art":"weg"},"geometry":{"type":"LineString","coordinates":[[13.83924,52.64648],[13.83967,52.64662],[13.84035,52.64689],[13.84091,52.64709],[13.84144,52.64726],[13.84231,52.64721],[13.84285,52.64717],[13.84362,52.64725],[13.84412,52.64735],[13.84486,52.64738],[13.84512,52.64743],[13.84532,52.64753],[13.84554,52.64758],[13.8457,52.6476]]}},{"type":"Feature","properties":{"art":"weg"},"geometry":{"type":"LineString","coordinates":[[13.84204,52.65528],[13.84206,52.65529],[13.84343,52.65595],[13.84396,52.65619],[13.84451,52.6565],[13.84481,52.65676],[13.84511,52.65694],[13.84546,52.6572],[13.84582,52.65742]]}},{"type":"Feature","properties":{"art":"weg"},"geometry":{"type":"LineString","coordinates":[[13.84778,52.65885],[13.84809,52.65908],[13.84831,52.65924],[13.84831,52.65931]]}},{"type":"Feature","properties":{"art":"pfad"},"geometry":{"type":"LineString","coordinates":[[13.84831,52.65931],[13.84828,52.65937],[13.84812,52.65943],[13.84767,52.65951],[13.84736,52.65955],[13.84711,52.6596],[13.84692,52.65965],[13.84643,52.65979],[13.84623,52.65984],[13.84628,52.65998],[13.84628,52.66008]]}},{"type":"Feature","properties":{"art":"strasse"},"geometry":{"type":"LineString","coordinates":[[13.84657,52.66021],[13.84628,52.66008],[13.84617,52.66004],[13.84531,52.65968],[13.84501,52.65958],[13.84469,52.6595],[13.84433,52.65943],[13.84399,52.6594],[13.84357,52.65939],[13.84319,52.65939],[13.84282,52.65943],[13.84249,52.65948],[13.8419,52.65961],[13.84097,52.65986]]}},{"type":"Feature","properties":{"art":"strasse"},"geometry":{"type":"LineString","coordinates":[[13.85074,52.66111],[13.8499,52.66109],[13.84958,52.66108],[13.84924,52.66105],[13.84894,52.66101],[13.84857,52.66094],[13.84834,52.66088],[13.84807,52.6608],[13.8478,52.66071],[13.84731,52.66052],[13.84702,52.6604],[13.84657,52.66021]]}},{"type":"Feature","properties":{"art":"pfad"},"geometry":{"type":"LineString","coordinates":[[13.84702,52.6604],[13.84712,52.66002],[13.84704,52.65982],[13.84698,52.65973],[13.84692,52.65965]]}},{"type":"Feature","properties":{"art":"pfad"},"geometry":{"type":"LineString","coordinates":[[13.84847,52.66141],[13.84833,52.66128],[13.84828,52.66122],[13.84819,52.66113],[13.84803,52.66104],[13.84785,52.66096],[13.84758,52.66087],[13.84728,52.66077],[13.84699,52.66067],[13.84679,52.6606],[13.84657,52.66051],[13.84636,52.66041],[13.84627,52.66029],[13.84624,52.66015],[13.84628,52.66008]]}},{"type":"Feature","properties":{"art":"pfad"},"geometry":{"type":"LineString","coordinates":[[13.84891,52.6621],[13.84888,52.66205],[13.84883,52.66193]]}},{"type":"Feature","properties":{"art":"pfad"},"geometry":{"type":"LineString","coordinates":[[13.84852,52.66146],[13.84847,52.66141]]}},{"type":"Feature","properties":{"art":"pfad"},"geometry":{"type":"LineString","coordinates":[[13.84908,52.66226],[13.84909,52.66244],[13.8492,52.66265],[13.84923,52.6628]]}},{"type":"Feature","properties":{"art":"pfad"},"geometry":{"type":"LineString","coordinates":[[13.84953,52.66275],[13.84944,52.66271],[13.84935,52.66259],[13.84926,52.66242],[13.84908,52.66226],[13.84891,52.6621]]}},{"type":"Feature","properties":{"art":"pfad"},"geometry":{"type":"LineString","coordinates":[[13.84632,52.66246],[13.84212,52.66289],[13.83771,52.66317]]}},{"type":"Feature","properties":{"art":"pfad"},"geometry":{"type":"LineString","coordinates":[[13.84632,52.66246],[13.84653,52.66282],[13.84674,52.66294],[13.84706,52.66314],[13.84723,52.66332],[13.84722,52.66349],[13.84698,52.66443],[13.8465,52.66505],[13.84627,52.66555],[13.84623,52.66627],[13.84605,52.6667],[13.84595,52.66693],[13.8456,52.66743],[13.84495,52.66792],[13.84465,52.66807],[13.84428,52.66817],[13.84333,52.66828],[13.84283,52.66836],[13.84246,52.66848],[13.84135,52.66902]]}},{"type":"Feature","properties":{"art":"pfad"},"geometry":{"type":"LineString","coordinates":[[13.84605,52.6667],[13.84515,52.6667],[13.84475,52.66665]]}},{"type":"Feature","properties":{"art":"pfad"},"geometry":{"type":"LineString","coordinates":[[13.84617,52.66004],[13.84607,52.66013],[13.8461,52.66039],[13.8463,52.66071],[13.84689,52.66141],[13.84699,52.66173],[13.8469,52.66197],[13.84632,52.66246],[13.84376,52.66387],[13.84322,52.66419],[13.84209,52.66456],[13.84181,52.6647],[13.84139,52.66538],[13.84124,52.66583],[13.84123,52.66653],[13.84111,52.66703],[13.84103,52.66748],[13.84094,52.66765],[13.84108,52.66801],[13.84123,52.66826],[13.84129,52.66855],[13.84135,52.66902],[13.84104,52.66973],[13.84085,52.66998],[13.8408,52.67029],[13.84087,52.67091],[13.8409,52.67151],[13.8409,52.67178],[13.84083,52.67211],[13.84068,52.6726],[13.84041,52.67322],[13.84004,52.67387],[13.83965,52.67475]]}},{"type":"Feature","properties":{"art":"pfad"},"geometry":{"type":"LineString","coordinates":[[13.84891,52.6621],[13.84844,52.66242],[13.84832,52.66261],[13.84837,52.6634],[13.84848,52.66359],[13.8487,52.66391],[13.84867,52.66456],[13.84854,52.66515],[13.84834,52.6656],[13.84838,52.66589],[13.84835,52.66618],[13.84824,52.66651],[13.84799,52.66717],[13.84789,52.66756],[13.8478,52.66786],[13.84774,52.6681],[13.84775,52.66834],[13.84775,52.66866],[13.84777,52.66915],[13.84773,52.6694],[13.84774,52.66963],[13.8479,52.66996],[13.84822,52.6702],[13.84838,52.67042],[13.84844,52.67072],[13.84861,52.67105],[13.84857,52.67139],[13.84869,52.67159],[13.84893,52.67183],[13.84908,52.67202],[13.84913,52.67222],[13.84908,52.67242],[13.84894,52.67325],[13.8488,52.67391]]}},{"type":"Feature","properties":{"art":"pfad"},"geometry":{"type":"LineString","coordinates":[[13.84495,52.66792],[13.84568,52.66834],[13.84649,52.66865],[13.84668,52.66902],[13.84659,52.66928],[13.84648,52.66964]]}},{"type":"Feature","properties":{"art":"pfad"},"geometry":{"type":"LineString","coordinates":[[13.84125,52.67131],[13.8409,52.67151]]}},{"type":"Feature","properties":{"art":"pfad"},"geometry":{"type":"LineString","coordinates":[[13.83938,52.67532],[13.84055,52.67524],[13.84093,52.67513],[13.84173,52.67469],[13.84416,52.6731],[13.84629,52.67173],[13.84739,52.671],[13.84784,52.6707],[13.84838,52.67042]]}},{"type":"Feature","properties":{"art":"pfad"},"geometry":{"type":"LineString","coordinates":[[13.84087,52.67091],[13.84125,52.67131],[13.84203,52.67171],[13.84312,52.67224],[13.84416,52.6731],[13.84533,52.67418],[13.84571,52.67456],[13.84611,52.67507]]}},{"type":"Feature","properties":{"art":"pfad"},"geometry":{"type":"LineString","coordinates":[[13.84533,52.67418],[13.84714,52.67477],[13.84774,52.675]]}},{"type":"Feature","properties":{"art":"pfad"},"geometry":{"type":"LineString","coordinates":[[13.84797,52.67467],[13.84714,52.67477]]}},{"type":"Feature","properties":{"art":"pfad"},"geometry":{"type":"LineString","coordinates":[[13.8488,52.67391],[13.84873,52.67415],[13.84859,52.67462],[13.84861,52.67472],[13.84883,52.67507],[13.84894,52.67543],[13.84887,52.67575],[13.84894,52.67602],[13.84911,52.67618]]}},{"type":"Feature","properties":{"art":"pfad"},"geometry":{"type":"LineString","coordinates":[[13.84714,52.67477],[13.84611,52.67507],[13.84527,52.67537],[13.84427,52.67574],[13.84415,52.67592],[13.84354,52.67606],[13.84287,52.67617],[13.8423,52.67629]]}},{"type":"Feature","properties":{"art":"pfad"},"geometry":{"type":"LineString","coordinates":[[13.84774,52.675],[13.84797,52.67467],[13.84816,52.67475],[13.84848,52.67567],[13.84855,52.67589],[13.84874,52.67621],[13.84911,52.67655],[13.84929,52.67673],[13.84941,52.67685],[13.8496,52.67699]]}},{"type":"Feature","properties":{"art":"pfad"},"geometry":{"type":"LineString","coordinates":[[13.84774,52.675],[13.84812,52.67683]]}},{"type":"Feature","properties":{"art":"pfad"},"geometry":{"type":"LineString","coordinates":[[13.82878,52.64223],[13.8297,52.64198]]}},{"type":"Feature","properties":{"art":"weg"},"geometry":{"type":"LineString","coordinates":[[13.81728,52.64506],[13.81733,52.64498],[13.81746,52.6449],[13.81941,52.64464],[13.82175,52.64431],[13.82588,52.64369],[13.82636,52.64365],[13.82711,52.64336],[13.82758,52.64319],[13.82819,52.64309],[13.82855,52.64297],[13.82939,52.6428],[13.83055,52.64268],[13.83089,52.64261],[13.83138,52.6426],[13.83208,52.64249],[13.83262,52.64251],[13.83325,52.64244],[13.83397,52.6425],[13.83481,52.64279],[13.83532,52.64293],[13.83571,52.64296]]}},{"type":"Feature","properties":{"art":"weg"},"geometry":{"type":"LineString","coordinates":[[13.82939,52.6428],[13.82961,52.64299],[13.82967,52.64306],[13.82971,52.64313],[13.82972,52.64323]]}},{"type":"Feature","properties":{"art":"weg"},"geometry":{"type":"LineString","coordinates":[[13.817,52.65092],[13.81673,52.65064],[13.81629,52.65026],[13.81598,52.64997],[13.81554,52.64961],[13.81479,52.64903],[13.81428,52.6486],[13.81361,52.64805],[13.8132,52.6477],[13.81287,52.64739],[13.81273,52.6472],[13.8126,52.64702]]}},{"type":"Feature","properties":{"art":"pfad"},"geometry":{"type":"LineString","coordinates":[[13.79225,52.6487],[13.79234,52.64871],[13.7924,52.64872],[13.79249,52.64875],[13.79257,52.6488],[13.79274,52.64892],[13.79321,52.64921],[13.79337,52.64932],[13.7936,52.64949],[13.79381,52.64962],[13.79404,52.64975],[13.79441,52.65008],[13.79465,52.65026],[13.79494,52.65049],[13.79518,52.65066],[13.79551,52.65085],[13.7957,52.65097],[13.79606,52.65125],[13.79632,52.65146],[13.7967,52.6518],[13.79685,52.6519],[13.79703,52.65198],[13.79728,52.65207],[13.79757,52.65212],[13.79796,52.65218],[13.79823,52.6522],[13.79988,52.65229],[13.80015,52.6523],[13.8003,52.65231],[13.80096,52.65231],[13.80161,52.6523],[13.802,52.6523],[13.80223,52.65227],[13.80245,52.65222],[13.80262,52.65215],[13.8029,52.65201],[13.80343,52.65171],[13.80407,52.65136],[13.80445,52.65116],[13.80509,52.65079],[13.80587,52.65036],[13.80649,52.65002],[13.80681,52.64983],[13.8074,52.64948],[13.80848,52.6489],[13.80885,52.64871],[13.80991,52.64811],[13.81049,52.64779],[13.81082,52.64762],[13.81148,52.64732],[13.81174,52.64721],[13.81217,52.64702],[13.81228,52.64698],[13.81246,52.64693],[13.81252,52.64688],[13.81258,52.64685],[13.81298,52.64668]]}},{"type":"Feature","properties":{"art":"weg"},"geometry":{"type":"LineString","coordinates":[[13.84112,52.65559],[13.84123,52.65548],[13.84128,52.65532],[13.8412,52.65514]]}},{"type":"Feature","properties":{"art":"weg"},"geometry":{"type":"LineString","coordinates":[[13.83864,52.65641],[13.8384,52.65615],[13.83833,52.65601]]}},{"type":"Feature","properties":{"art":"weg"},"geometry":{"type":"LineString","coordinates":[[13.81779,52.65066],[13.817,52.65092]]}},{"type":"Feature","properties":{"art":"pfad"},"geometry":{"type":"LineString","coordinates":[[13.82004,52.65436],[13.82039,52.65405],[13.82088,52.65376],[13.82103,52.65366]]}},{"type":"Feature","properties":{"art":"pfad"},"geometry":{"type":"LineString","coordinates":[[13.80885,52.64871],[13.80969,52.64954],[13.80993,52.64979],[13.81111,52.65095],[13.81246,52.65232],[13.81298,52.65283],[13.8142,52.65397],[13.8147,52.65456],[13.81527,52.65504],[13.81608,52.65584],[13.81651,52.65635],[13.81747,52.65733]]}},{"type":"Feature","properties":{"art":"weg"},"geometry":{"type":"LineString","coordinates":[[13.817,52.65092],[13.81387,52.6519],[13.81246,52.65232],[13.81139,52.65264],[13.81071,52.65286],[13.80939,52.65328],[13.80913,52.65336],[13.80734,52.6539],[13.8051,52.6546],[13.80297,52.65526],[13.80183,52.65562],[13.79847,52.65663],[13.79653,52.65719],[13.79629,52.65723],[13.79606,52.65723],[13.79566,52.65717]]}},{"type":"Feature","properties":{"art":"pfad"},"geometry":{"type":"LineString","coordinates":[[13.8051,52.6546],[13.80568,52.6551],[13.80626,52.65543],[13.80932,52.65562],[13.81187,52.65573],[13.81272,52.65556],[13.81275,52.65555],[13.81372,52.65547],[13.81527,52.65504],[13.81588,52.65487],[13.81697,52.65477],[13.81838,52.65473],[13.81897,52.65477],[13.81969,52.65462],[13.82004,52.65436]]}},{"type":"Feature","properties":{"art":"pfad"},"geometry":{"type":"LineString","coordinates":[[13.82295,52.65555],[13.82263,52.65572],[13.82219,52.65598]]}},{"type":"Feature","properties":{"art":"weg"},"geometry":{"type":"LineString","coordinates":[[13.83159,52.66252],[13.83153,52.66244],[13.83135,52.66215],[13.83117,52.66197],[13.83097,52.66175],[13.83073,52.66158],[13.83013,52.6613],[13.82934,52.66086],[13.82862,52.66043],[13.82822,52.66017],[13.82787,52.65988],[13.82754,52.65945],[13.82725,52.65922],[13.8261,52.65849],[13.82521,52.6579],[13.82444,52.6574],[13.82381,52.65701],[13.82219,52.65598],[13.82129,52.6549],[13.82039,52.65405],[13.8178,52.65164],[13.817,52.65092]]}},{"type":"Feature","properties":{"art":"pfad"},"geometry":{"type":"LineString","coordinates":[[13.81323,52.65749],[13.81335,52.65723],[13.81357,52.65708],[13.8137,52.65703],[13.81386,52.65698],[13.81464,52.65689],[13.81493,52.65681],[13.81542,52.65643],[13.81591,52.65604],[13.81608,52.65584]]}},{"type":"Feature","properties":{"art":"weg"},"geometry":{"type":"LineString","coordinates":[[13.82219,52.65598],[13.82176,52.65621],[13.81957,52.65729],[13.81931,52.65725],[13.81871,52.65731],[13.81747,52.65733],[13.81646,52.65757],[13.81572,52.65768],[13.81486,52.65759],[13.81395,52.6574],[13.81323,52.65749],[13.81284,52.65772],[13.81263,52.65783],[13.81239,52.65784],[13.81156,52.65774],[13.8105,52.65758],[13.81017,52.6575],[13.80968,52.65747],[13.80947,52.65748],[13.80924,52.65755],[13.80848,52.6579],[13.80712,52.65834],[13.80614,52.65851],[13.80531,52.65878],[13.80395,52.6593],[13.80374,52.65929],[13.80348,52.65923],[13.8029,52.65907],[13.80158,52.65864],[13.8006,52.65825],[13.80011,52.65813],[13.7996,52.65808],[13.79889,52.65805],[13.79871,52.65803],[13.79822,52.65792],[13.79566,52.65717]]}},{"type":"Feature","properties":{"art":"pfad"},"geometry":{"type":"LineString","coordinates":[[13.81957,52.65729],[13.82001,52.65767],[13.82092,52.65863],[13.82318,52.66078]]}},{"type":"Feature","properties":{"art":"pfad"},"geometry":{"type":"LineString","coordinates":[[13.81646,52.65757],[13.81673,52.65791],[13.81696,52.65816],[13.8173,52.65862],[13.81847,52.66004],[13.81955,52.66138],[13.82005,52.66189],[13.82034,52.6622],[13.82059,52.66256],[13.82071,52.66276]]}},{"type":"Feature","properties":{"art":"pfad"},"geometry":{"type":"LineString","coordinates":[[13.81393,52.66008],[13.81493,52.66034],[13.81556,52.6606],[13.81617,52.66084],[13.81669,52.66105]]}},{"type":"Feature","properties":{"art":"pfad"},"geometry":{"type":"LineString","coordinates":[[13.82161,52.66206],[13.82005,52.66189],[13.81864,52.6616],[13.81775,52.66135],[13.81669,52.66105],[13.81593,52.66101],[13.81528,52.66112],[13.81473,52.66129],[13.81435,52.66136]]}},{"type":"Feature","properties":{"art":"strasse"},"geometry":{"type":"LineString","coordinates":[[13.80035,52.66319],[13.80047,52.66316],[13.80063,52.66313],[13.80179,52.66314],[13.80493,52.66306],[13.80915,52.663],[13.81038,52.66297],[13.81206,52.66294],[13.81267,52.66292],[13.81327,52.66291],[13.81488,52.66289],[13.81751,52.66283],[13.81917,52.66279],[13.82071,52.66276],[13.82254,52.66273],[13.82614,52.66266],[13.82721,52.66264],[13.83051,52.66257],[13.83159,52.66252],[13.83184,52.66258]]}},{"type":"Feature","properties":{"art":"pfad"},"geometry":{"type":"LineString","coordinates":[[13.81917,52.66279],[13.81873,52.66305],[13.81838,52.66345],[13.81786,52.66409],[13.81711,52.6648],[13.81631,52.66549],[13.81588,52.6659],[13.81452,52.66676],[13.81317,52.66706],[13.81242,52.66718],[13.81115,52.66757]]}},{"type":"Feature","properties":{"art":"weg"},"geometry":{"type":"LineString","coordinates":[[13.81204,52.66304],[13.81247,52.66316],[13.813,52.66332],[13.81412,52.66346],[13.81491,52.66394],[13.8151,52.6643],[13.81512,52.66466],[13.81631,52.66549],[13.81724,52.66583],[13.81833,52.66617],[13.81964,52.6665],[13.8214,52.66692],[13.82207,52.66711],[13.82222,52.66715],[13.82338,52.66763],[13.82467,52.66836],[13.82543,52.66847],[13.82609,52.66833],[13.82741,52.66832],[13.82815,52.66838],[13.82865,52.66835]]}},{"type":"Feature","properties":{"art":"pfad"},"geometry":{"type":"LineString","coordinates":[[13.83785,52.66075],[13.83777,52.66069],[13.83427,52.65811],[13.83376,52.65773]]}},{"type":"Feature","properties":{"art":"weg"},"geometry":{"type":"LineString","coordinates":[[13.82661,52.65807],[13.82637,52.65827],[13.8261,52.65849],[13.82318,52.66078],[13.82161,52.66206],[13.82101,52.66252],[13.82071,52.66276]]}},{"type":"Feature","properties":{"art":"pfad"},"geometry":{"type":"LineString","coordinates":[[13.84206,52.65529],[13.84159,52.65545],[13.84112,52.65559],[13.84026,52.65582],[13.83918,52.65621],[13.83874,52.65635],[13.83864,52.65641],[13.83833,52.65661],[13.83778,52.65679],[13.83704,52.65696],[13.83672,52.65709],[13.83649,52.65718],[13.83622,52.65728],[13.83427,52.65811],[13.83264,52.65876],[13.82862,52.66043]]}},{"type":"Feature","properties":{"art":"pfad"},"geometry":{"type":"LineString","coordinates":[[13.83175,52.65854],[13.83216,52.65865],[13.83264,52.65876]]}},{"type":"Feature","properties":{"art":"strasse"},"geometry":{"type":"LineString","coordinates":[[13.83184,52.66258],[13.83201,52.66245],[13.83227,52.66234]]}},{"type":"Feature","properties":{"art":"strasse"},"geometry":{"type":"LineString","coordinates":[[13.83135,52.66309],[13.83151,52.66288],[13.83164,52.66274],[13.83184,52.66258]]}},{"type":"Feature","properties":{"art":"pfad"},"geometry":{"type":"LineString","coordinates":[[13.83279,52.66347],[13.83709,52.66323],[13.83771,52.66317]]}},{"type":"Feature","properties":{"art":"pfad"},"geometry":{"type":"LineString","coordinates":[[13.83541,52.66557],[13.83484,52.66593],[13.83424,52.66636],[13.83338,52.66679],[13.83285,52.66691],[13.83197,52.66756],[13.83102,52.66812],[13.83032,52.66841],[13.8297,52.66852],[13.8294,52.6686],[13.82878,52.66872]]}},{"type":"Feature","properties":{"art":"pfad"},"geometry":{"type":"LineString","coordinates":[[13.83672,52.65709],[13.83624,52.65677],[13.83622,52.65675]]}},{"type":"Feature","properties":{"art":"strasse"},"geometry":{"type":"LineString","coordinates":[[13.83227,52.66234],[13.83256,52.66225],[13.83391,52.66186],[13.83785,52.66075],[13.83852,52.66055],[13.84097,52.65986]]}},{"type":"Feature","properties":{"art":"weg"},"geometry":{"type":"LineString","coordinates":[[13.83852,52.66055],[13.83879,52.66089],[13.83909,52.66107],[13.84212,52.66289],[13.84376,52.66387]]}},{"type":"Feature","properties":{"art":"weg"},"geometry":{"type":"LineString","coordinates":[[13.83476,52.66528],[13.83504,52.66511],[13.83552,52.66488],[13.83622,52.6645],[13.83683,52.66411],[13.83745,52.66361],[13.83771,52.66317],[13.83772,52.66285],[13.83768,52.66244],[13.8378,52.6621],[13.83789,52.66177],[13.83811,52.66158],[13.83879,52.66089]]}},{"type":"Feature","properties":{"art":"pfad"},"geometry":{"type":"LineString","coordinates":[[13.84212,52.66289],[13.84155,52.66324],[13.84074,52.66373],[13.83966,52.66438],[13.83653,52.66628],[13.83097,52.66989],[13.8305,52.67016],[13.82983,52.67052]]}},{"type":"Feature","properties":{"art":"pfad"},"geometry":{"type":"LineString","coordinates":[[13.84629,52.67173],[13.84594,52.67153],[13.84135,52.66902],[13.83984,52.66815],[13.83841,52.66735],[13.83653,52.66628],[13.83602,52.66591],[13.83541,52.66557],[13.83476,52.66528],[13.83412,52.66492],[13.83313,52.66384],[13.83279,52.66347],[13.83238,52.66302],[13.83184,52.66258]]}},{"type":"Feature","properties":{"art":"pfad"},"geometry":{"type":"LineString","coordinates":[[13.83984,52.66815],[13.8342,52.67167]]}},{"type":"Feature","properties":{"art":"pfad"},"geometry":{"type":"LineString","coordinates":[[13.8409,52.67151],[13.84016,52.67209],[13.83871,52.67294],[13.83763,52.67345],[13.83746,52.6736],[13.83639,52.67403],[13.83368,52.67562],[13.8331,52.67575]]}},{"type":"Feature","properties":{"art":"pfad"},"geometry":{"type":"LineString","coordinates":[[13.83938,52.67532],[13.83904,52.67545],[13.83741,52.67634],[13.83632,52.67719],[13.83607,52.67747],[13.83588,52.67789],[13.83541,52.67826],[13.83483,52.67831]]}},{"type":"Feature","properties":{"art":"weg"},"geometry":{"type":"LineString","coordinates":[[13.84161,52.6785],[13.83999,52.6789]]}},{"type":"Feature","properties":{"art":"pfad"},"geometry":{"type":"LineString","coordinates":[[13.82614,52.66266],[13.8259,52.66299],[13.82458,52.6644],[13.82315,52.66584],[13.82207,52.66711],[13.81962,52.66832],[13.81693,52.66965],[13.81658,52.66982]]}},{"type":"Feature","properties":{"art":"weg"},"geometry":{"type":"LineString","coordinates":[[13.79807,52.66245],[13.80651,52.66631],[13.81047,52.6681],[13.81571,52.67042]]}},{"type":"Feature","properties":{"art":"pfad"},"geometry":{"type":"LineString","coordinates":[[13.81588,52.6659],[13.81591,52.66604],[13.81618,52.66617],[13.81728,52.6666],[13.81748,52.66703],[13.81665,52.66781]]}},{"type":"Feature","properties":{"art":"pfad"},"geometry":{"type":"LineString","coordinates":[[13.81924,52.6711],[13.81875,52.67094],[13.81817,52.67067],[13.81801,52.67049],[13.81794,52.67041],[13.81749,52.67028],[13.817,52.66994],[13.81658,52.66982],[13.81597,52.66953],[13.81536,52.66929],[13.81396,52.66871],[13.813,52.66835],[13.81217,52.66804],[13.81142,52.66775],[13.81115,52.66757],[13.80965,52.66688],[13.80745,52.66579],[13.8049,52.66455],[13.80179,52.66314]]}},{"type":"Feature","properties":{"art":"strasse"},"geometry":{"type":"LineString","coordinates":[[13.80163,52.66378],[13.80672,52.66611],[13.81069,52.66791],[13.81587,52.67027],[13.81849,52.67146],[13.82121,52.6727],[13.82534,52.67457]]}},{"type":"Feature","properties":{"art":"pfad"},"geometry":{"type":"LineString","coordinates":[[13.82338,52.66763],[13.8222,52.66876],[13.82035,52.67139]]}},{"type":"Feature","properties":{"art":"pfad"},"geometry":{"type":"LineString","coordinates":[[13.82383,52.66971],[13.82398,52.66981],[13.82432,52.66988]]}},{"type":"Feature","properties":{"art":"pfad"},"geometry":{"type":"LineString","coordinates":[[13.82467,52.66836],[13.82429,52.6686],[13.82383,52.66971],[13.82276,52.67055],[13.82197,52.67123],[13.82158,52.67175]]}},{"type":"Feature","properties":{"art":"pfad"},"geometry":{"type":"LineString","coordinates":[[13.81693,52.66965],[13.8181,52.67004],[13.81826,52.67019],[13.81801,52.67049]]}},{"type":"Feature","properties":{"art":"weg"},"geometry":{"type":"LineString","coordinates":[[13.81587,52.67027],[13.81571,52.67042],[13.81368,52.67232]]}},{"type":"Feature","properties":{"art":"pfad"},"geometry":{"type":"LineString","coordinates":[[13.82705,52.67002],[13.82923,52.67095]]}},{"type":"Feature","properties":{"art":"strasse"},"geometry":{"type":"LineString","coordinates":[[13.83561,52.67907],[13.83523,52.67879],[13.83497,52.67852],[13.83483,52.67831],[13.83432,52.67755],[13.8331,52.67575],[13.83135,52.67308],[13.82983,52.67052],[13.82921,52.66961],[13.8288,52.66885],[13.82878,52.66872],[13.82865,52.66835],[13.82862,52.66816],[13.82861,52.66781],[13.82865,52.66753],[13.82875,52.66724],[13.82892,52.66685],[13.82915,52.66639],[13.83074,52.66392],[13.83135,52.66309]]}},{"type":"Feature","properties":{"art":"pfad"},"geometry":{"type":"LineString","coordinates":[[13.82983,52.67052],[13.82923,52.67095],[13.82521,52.67346]]}},{"type":"Feature","properties":{"art":"pfad"},"geometry":{"type":"LineString","coordinates":[[13.8342,52.67167],[13.83376,52.67187],[13.83317,52.67216],[13.83251,52.67248],[13.83196,52.6728],[13.83135,52.67308]]}},{"type":"Feature","properties":{"art":"pfad"},"geometry":{"type":"LineString","coordinates":[[13.83097,52.66989],[13.8342,52.67167],[13.83746,52.6736],[13.83791,52.67381],[13.83879,52.67431],[13.83927,52.67455],[13.83965,52.67475],[13.83938,52.67532]]}},{"type":"Feature","properties":{"art":"pfad"},"geometry":{"type":"LineString","coordinates":[[13.81924,52.6711],[13.82215,52.67233],[13.82521,52.67346],[13.82662,52.674],[13.83085,52.67596],[13.83321,52.67703],[13.83432,52.67755]]}},{"type":"Feature","properties":{"art":"strasse"},"geometry":{"type":"LineString","coordinates":[[13.82534,52.67457],[13.82722,52.67543]]}},{"type":"Feature","properties":{"art":"weg"},"geometry":{"type":"LineString","coordinates":[[13.82677,52.67482],[13.8272,52.67499],[13.82743,52.67522],[13.82761,52.67533],[13.82784,52.67545],[13.82805,52.67559]]}},{"type":"Feature","properties":{"art":"weg"},"geometry":{"type":"LineString","coordinates":[[13.82952,52.67607],[13.82927,52.67596],[13.82878,52.67585],[13.82861,52.67579],[13.82815,52.67559],[13.82805,52.67559],[13.82797,52.67564]]}},{"type":"Feature","properties":{"art":"strasse"},"geometry":{"type":"LineString","coordinates":[[13.82822,52.67588],[13.82811,52.67596],[13.8279,52.67586]]}},{"type":"Feature","properties":{"art":"pfad"},"geometry":{"type":"LineString","coordinates":[[13.8496,52.67699],[13.8496,52.67714],[13.84956,52.67726],[13.8496,52.67753],[13.8497,52.67769],[13.84981,52.67784],[13.84993,52.67795],[13.8501,52.67807],[13.85051,52.67823],[13.85088,52.67836],[13.85102,52.67841]]}},{"type":"Feature","properties":{"art":"weg"},"geometry":{"type":"LineString","coordinates":[[13.85102,52.67841],[13.85125,52.67849],[13.85173,52.67855],[13.85209,52.67857],[13.85253,52.67864],[13.85267,52.67868],[13.85283,52.67874]]}},{"type":"Feature","properties":{"art":"pfad"},"geometry":{"type":"LineString","coordinates":[[13.8501,52.67879],[13.85034,52.67901],[13.85034,52.67913]]}},{"type":"Feature","properties":{"art":"weg"},"geometry":{"type":"LineString","coordinates":[[13.85243,52.67899],[13.85242,52.67898],[13.85216,52.6789],[13.85199,52.67887],[13.85174,52.67876],[13.85102,52.67866]]}},{"type":"Feature","properties":{"art":"weg"},"geometry":{"type":"LineString","coordinates":[[13.85034,52.67913],[13.85043,52.67913],[13.85052,52.67923]]}},{"type":"Feature","properties":{"art":"weg"},"geometry":{"type":"LineString","coordinates":[[13.85015,52.67924],[13.85015,52.67923],[13.85027,52.67916],[13.85034,52.67913]]}},{"type":"Feature","properties":{"art":"pfad"},"geometry":{"type":"LineString","coordinates":[[13.85085,52.67913],[13.85065,52.67919],[13.85052,52.67923],[13.85032,52.67929]]}},{"type":"Feature","properties":{"art":"pfad"},"geometry":{"type":"LineString","coordinates":[[13.84055,52.67524],[13.8423,52.67629],[13.84272,52.67652],[13.84435,52.67735],[13.84484,52.6777]]}},{"type":"Feature","properties":{"art":"pfad"},"geometry":{"type":"LineString","coordinates":[[13.8496,52.67699],[13.84967,52.67683],[13.84929,52.67632],[13.84911,52.67618]]}},{"type":"Feature","properties":{"art":"pfad"},"geometry":{"type":"LineString","coordinates":[[13.84926,52.67692],[13.84941,52.67685]]}},{"type":"Feature","properties":{"art":"pfad"},"geometry":{"type":"LineString","coordinates":[[13.84812,52.67683],[13.84843,52.67701]]}},{"type":"Feature","properties":{"art":"pfad"},"geometry":{"type":"LineString","coordinates":[[13.84843,52.67701],[13.84874,52.67694],[13.84926,52.67692]]}},{"type":"Feature","properties":{"art":"pfad"},"geometry":{"type":"LineString","coordinates":[[13.84812,52.67683],[13.84484,52.6777],[13.84161,52.6785]]}},{"type":"Feature","properties":{"art":"pfad"},"geometry":{"type":"LineString","coordinates":[[13.84843,52.67701],[13.84863,52.67722],[13.8488,52.67754],[13.84909,52.67795],[13.84924,52.67818],[13.84952,52.67847],[13.84965,52.67856],[13.85003,52.67876],[13.8501,52.67879]]}},{"type":"Feature","properties":{"art":"weg"},"geometry":{"type":"LineString","coordinates":[[13.8494,52.6791],[13.84969,52.67911],[13.84993,52.67917],[13.84999,52.67923]]}},{"type":"Feature","properties":{"art":"weg"},"geometry":{"type":"LineString","coordinates":[[13.85015,52.67926],[13.85015,52.67924]]}},{"type":"Feature","properties":{"art":"strasse"},"geometry":{"type":"LineString","coordinates":[[13.82755,52.6757],[13.82576,52.67682]]}},{"type":"Feature","properties":{"art":"weg"},"geometry":{"type":"LineString","coordinates":[[13.83108,52.67676],[13.82952,52.67607]]}},{"type":"Feature","properties":{"art":"strasse"},"geometry":{"type":"LineString","coordinates":[[13.82802,52.67579],[13.82805,52.6758],[13.82822,52.67588],[13.82926,52.67634],[13.83088,52.67711],[13.83179,52.67751]]}},{"type":"Feature","properties":{"art":"weg"},"geometry":{"type":"LineString","coordinates":[[13.83227,52.67777],[13.83221,52.67746],[13.83215,52.67735],[13.83213,52.67731],[13.83191,52.67714],[13.83108,52.67676]]}},{"type":"Feature","properties":{"art":"weg"},"geometry":{"type":"LineString","coordinates":[[13.82546,52.67701],[13.8263,52.67752]]}},{"type":"Feature","properties":{"art":"weg"},"geometry":{"type":"LineString","coordinates":[[13.8263,52.67752],[13.82689,52.67716]]}},{"type":"Feature","properties":{"art":"strasse"},"geometry":{"type":"LineString","coordinates":[[13.83179,52.67751],[13.83227,52.67777],[13.83374,52.67855],[13.83387,52.67863],[13.83398,52.67872],[13.83432,52.67897]]}},{"type":"Feature","properties":{"art":"pfad"},"geometry":{"type":"LineString","coordinates":[[13.83541,52.67826],[13.83558,52.67844]]}},{"type":"Feature","properties":{"art":"strasse"},"geometry":{"type":"LineString","coordinates":[[13.83432,52.67897],[13.83463,52.67923]]}},{"type":"Feature","properties":{"art":"pfad"},"geometry":{"type":"LineString","coordinates":[[13.83535,52.67983],[13.83462,52.67929],[13.83463,52.67923]]}},{"type":"Feature","properties":{"art":"strasse"},"geometry":{"type":"LineString","coordinates":[[13.83838,52.67927],[13.83833,52.67915]]}},{"type":"Feature","properties":{"art":"strasse"},"geometry":{"type":"LineString","coordinates":[[13.83833,52.67915],[13.83814,52.67885],[13.83808,52.67873],[13.83808,52.67866],[13.83815,52.6786],[13.83837,52.6785],[13.83896,52.67829],[13.83943,52.67887],[13.83941,52.67895],[13.83915,52.679],[13.83871,52.67909],[13.83847,52.67914],[13.83833,52.67915]]}},{"type":"Feature","properties":{"art":"strasse"},"geometry":{"type":"LineString","coordinates":[[13.83838,52.67927],[13.83946,52.67903],[13.83999,52.6789]]}},{"type":"Feature","properties":{"art":"pfad"},"geometry":{"type":"LineString","coordinates":[[13.83816,52.67953],[13.83857,52.67934],[13.83876,52.67929],[13.83899,52.67923],[13.8392,52.67917],[13.83963,52.67906],[13.84003,52.67895]]}},{"type":"Feature","properties":{"art":"pfad"},"geometry":{"type":"LineString","coordinates":[[13.83984,52.67939],[13.83963,52.67906]]}},{"type":"Feature","properties":{"art":"strasse"},"geometry":{"type":"LineString","coordinates":[[13.83999,52.6789],[13.84002,52.67894],[13.84003,52.67895],[13.84026,52.67924],[13.84032,52.67933]]}},{"type":"Feature","properties":{"art":"strasse"},"geometry":{"type":"LineString","coordinates":[[13.83789,52.6794],[13.83838,52.67927]]}},{"type":"Feature","properties":{"art":"pfad"},"geometry":{"type":"LineString","coordinates":[[13.83943,52.6795],[13.8392,52.67917]]}},{"type":"Feature","properties":{"art":"pfad"},"geometry":{"type":"LineString","coordinates":[[13.8392,52.67956],[13.83905,52.67933],[13.83899,52.67923]]}},{"type":"Feature","properties":{"art":"pfad"},"geometry":{"type":"LineString","coordinates":[[13.83873,52.67968],[13.83857,52.67934]]}},{"type":"Feature","properties":{"art":"strasse"},"geometry":{"type":"LineString","coordinates":[[13.83756,52.67948],[13.83789,52.6794]]}},{"type":"Feature","properties":{"art":"pfad"},"geometry":{"type":"LineString","coordinates":[[13.83897,52.67962],[13.83876,52.67929]]}},{"type":"Feature","properties":{"art":"strasse"},"geometry":{"type":"LineString","coordinates":[[13.83789,52.6794],[13.83816,52.67953],[13.83836,52.67963],[13.83864,52.67971]]}},{"type":"Feature","properties":{"art":"pfad"},"geometry":{"type":"LineString","coordinates":[[13.83566,52.68117],[13.83566,52.68112]]}},{"type":"Feature","properties":{"art":"strasse"},"geometry":{"type":"LineString","coordinates":[[13.83576,52.68115],[13.83576,52.68115]]}},{"type":"Feature","properties":{"art":"strasse"},"geometry":{"type":"LineString","coordinates":[[13.83584,52.68345],[13.83577,52.68141],[13.83576,52.68115]]}},{"type":"Feature","properties":{"art":"strasse"},"geometry":{"type":"LineString","coordinates":[[13.8363,52.68322],[13.83615,52.6833],[13.83584,52.68345]]}},{"type":"Feature","properties":{"art":"pfad"},"geometry":{"type":"LineString","coordinates":[[13.82215,52.67233],[13.82293,52.67204]]}},{"type":"Feature","properties":{"art":"weg"},"geometry":{"type":"LineString","coordinates":[[13.81065,52.67614],[13.81099,52.67603],[13.81297,52.67387],[13.81306,52.67378],[13.81369,52.67314],[13.81384,52.67306],[13.81397,52.67303],[13.81449,52.67314],[13.81597,52.67386],[13.81638,52.67384],[13.81665,52.67373],[13.81849,52.67146],[13.81867,52.67134],[13.819,52.6712],[13.81924,52.6711],[13.82035,52.67139],[13.82158,52.67175],[13.82261,52.67205],[13.82293,52.67204],[13.82317,52.67203],[13.82385,52.67167],[13.82489,52.6713],[13.8254,52.67116],[13.82653,52.67036],[13.82705,52.67002],[13.8281,52.66938],[13.8285,52.66908],[13.8288,52.66885]]}},{"type":"Feature","properties":{"art":"weg"},"geometry":{"type":"LineString","coordinates":[[13.81665,52.67373],[13.81686,52.67371],[13.8193,52.67393]]}},{"type":"Feature","properties":{"art":"weg"},"geometry":{"type":"LineString","coordinates":[[13.82121,52.6727],[13.8193,52.67393],[13.82023,52.67435],[13.82264,52.6765],[13.82355,52.67822],[13.82546,52.67701],[13.82576,52.67682]]}},{"type":"Feature","properties":{"art":"strasse"},"geometry":{"type":"LineString","coordinates":[[13.83463,52.67923],[13.83474,52.67931],[13.8353,52.6797]]}},{"type":"Feature","properties":{"art":"pfad"},"geometry":{"type":"LineString","coordinates":[[13.82725,52.68208],[13.82908,52.68022],[13.82976,52.67915],[13.83088,52.67711]]}},{"type":"Feature","properties":{"art":"pfad"},"geometry":{"type":"LineString","coordinates":[[13.82355,52.67822],[13.82376,52.67854],[13.82521,52.68095],[13.82569,52.6814],[13.82608,52.68159],[13.82725,52.68208],[13.82763,52.68236],[13.82822,52.68254]]}},{"type":"Feature","properties":{"art":"strasse"},"geometry":{"type":"LineString","coordinates":[[13.83576,52.68115],[13.83566,52.68117],[13.83492,52.68124],[13.83311,52.68136]]}},{"type":"Feature","properties":{"art":"strasse"},"geometry":{"type":"LineString","coordinates":[[13.83044,52.68169],[13.83097,52.68149],[13.8313,52.68135],[13.83149,52.68133],[13.83163,52.68133],[13.83193,52.68137],[13.83216,52.68142],[13.83257,52.68142],[13.83288,52.68138],[13.83311,52.68136]]}},{"type":"Feature","properties":{"art":"pfad"},"geometry":{"type":"LineString","coordinates":[[13.82822,52.68254],[13.82957,52.68201],[13.83002,52.68188],[13.83044,52.68169]]}},{"type":"Feature","properties":{"art":"pfad"},"geometry":{"type":"LineString","coordinates":[[13.82651,52.68323],[13.82718,52.68289],[13.82822,52.68254]]}},{"type":"Feature","properties":{"art":"strasse"},"geometry":{"type":"LineString","coordinates":[[13.83584,52.68345],[13.83623,52.68364]]}},{"type":"Feature","properties":{"art":"strasse"},"geometry":{"type":"LineString","coordinates":[[13.83595,52.68558],[13.83592,52.6849]]}},{"type":"Feature","properties":{"art":"strasse"},"geometry":{"type":"LineString","coordinates":[[13.8359,52.68451],[13.83589,52.68428],[13.83584,52.68345]]}},{"type":"Feature","properties":{"art":"weg"},"geometry":{"type":"LineString","coordinates":[[13.83941,52.6844],[13.83948,52.68443],[13.83968,52.68451],[13.83979,52.6846],[13.83987,52.68478],[13.83993,52.68488],[13.83999,52.68503],[13.83992,52.68514],[13.83981,52.68522],[13.83969,52.68525],[13.83948,52.68519],[13.83929,52.68506],[13.83922,52.685],[13.83917,52.68491],[13.83898,52.68484],[13.83879,52.68479],[13.83865,52.68466],[13.83866,52.68451],[13.83875,52.68443],[13.83891,52.68435],[13.83905,52.68426]]}},{"type":"Feature","properties":{"art":"strasse"},"geometry":{"type":"LineString","coordinates":[[13.83589,52.68428],[13.83615,52.68441]]}},{"type":"Feature","properties":{"art":"strasse"},"geometry":{"type":"LineString","coordinates":[[13.83691,52.68479],[13.83697,52.68482]]}},{"type":"Feature","properties":{"art":"strasse"},"geometry":{"type":"LineString","coordinates":[[13.83598,52.68634],[13.83595,52.68558]]}}]}