{
"type": "FeatureCollection",
"name": "barnim_40_582_boden",
"crs": { "type": "name", "properties": { "name": "urn:ogc:def:crs:OGC:1.3:CRS84" } },
"xy_coordinate_resolution": 1e-05,
"features": [
{ "type": "Feature", "properties": { "boden": "100 % kräftig, mäßig frisch (K2)" }, "geometry": { "type": "Polygon", "coordinates": [ [ [ 13.57697, 52.58673 ], [ 13.57679, 52.58677 ], [ 13.57671, 52.58688 ], [ 13.57678, 52.58699 ], [ 13.57696, 52.58704 ], [ 13.57714, 52.58699 ], [ 13.57722, 52.58689 ], [ 13.57715, 52.58678 ], [ 13.57697, 52.58673 ] ] ] } },
{ "type": "Feature", "properties": { "boden": "100 % kräftig, mäßig frisch (K2)" }, "geometry": { "type": "Polygon", "coordinates": [ [ [ 13.57827, 52.58711 ], [ 13.57809, 52.58715 ], [ 13.57802, 52.58726 ], [ 13.57809, 52.58737 ], [ 13.57826, 52.58742 ], [ 13.57844, 52.58737 ], [ 13.57852, 52.58727 ], [ 13.57845, 52.58716 ], [ 13.57827, 52.58711 ] ] ] } },
{ "type": "Feature", "properties": { "boden": "100 % kräftig, mäßig frisch (K2)" }, "geometry": { "type": "Polygon", "coordinates": [ [ [ 13.57722, 52.58752 ], [ 13.57727, 52.5876 ], [ 13.57745, 52.58765 ], [ 13.57763, 52.58761 ], [ 13.5777, 52.5875 ], [ 13.57763, 52.58739 ], [ 13.57746, 52.58734 ], [ 13.57728, 52.58739 ], [ 13.57722, 52.58752 ] ] ] } },
{ "type": "Feature", "properties": { "boden": "100 % kräftig, mäßig frisch (K2)" }, "geometry": { "type": "Polygon", "coordinates": [ [ [ 13.57988, 52.58979 ], [ 13.57937, 52.5894 ], [ 13.57921, 52.58911 ], [ 13.57918, 52.58866 ], [ 13.5789, 52.5886 ], [ 13.57869, 52.58832 ], [ 13.57871, 52.58818 ], [ 13.57898, 52.58814 ], [ 13.57913, 52.58818 ], [ 13.57926, 52.58833 ], [ 13.57938, 52.58806 ], [ 13.57772, 52.58612 ], [ 13.57649, 52.58482 ], [ 13.57554, 52.58573 ], [ 13.57514, 52.58574 ], [ 13.57489, 52.58599 ], [ 13.57528, 52.58611 ], [ 13.57557, 52.58603 ], [ 13.57595, 52.58615 ], [ 13.57624, 52.58609 ], [ 13.5769, 52.58629 ], [ 13.57595, 52.58651 ], [ 13.57572, 52.58665 ], [ 13.57725, 52.58725 ], [ 13.57723, 52.58746 ], [ 13.57728, 52.58739 ], [ 13.57746, 52.58734 ], [ 13.57763, 52.58739 ], [ 13.5777, 52.5875 ], [ 13.57763, 52.58761 ], [ 13.57745, 52.58765 ], [ 13.57727, 52.5876 ], [ 13.57722, 52.58752 ], [ 13.57721, 52.58767 ], [ 13.57735, 52.58801 ], [ 13.5778, 52.58844 ], [ 13.57789, 52.58871 ], [ 13.57768, 52.58894 ], [ 13.57774, 52.58904 ], [ 13.57756, 52.58921 ], [ 13.57614, 52.58949 ], [ 13.57622, 52.58958 ], [ 13.5774, 52.58976 ], [ 13.57773, 52.58988 ], [ 13.57809, 52.59006 ], [ 13.57823, 52.59019 ], [ 13.57831, 52.59058 ], [ 13.57988, 52.58979 ] ], [ [ 13.57852, 52.58727 ], [ 13.57844, 52.58737 ], [ 13.57826, 52.58742 ], [ 13.57809, 52.58737 ], [ 13.57802, 52.58726 ], [ 13.57809, 52.58715 ], [ 13.57827, 52.58711 ], [ 13.57845, 52.58716 ], [ 13.57852, 52.58727 ] ], [ [ 13.57722, 52.58689 ], [ 13.57714, 52.58699 ], [ 13.57696, 52.58704 ], [ 13.57678, 52.58699 ], [ 13.57671, 52.58688 ], [ 13.57679, 52.58677 ], [ 13.57697, 52.58673 ], [ 13.57715, 52.58678 ], [ 13.57722, 52.58689 ] ] ] } },
{ "type": "Feature", "properties": { "boden": "50 % mittel, trocken (vermutet) (M3) · 50 % mittel, trocken (vermutet) (M+3)" }, "geometry": { "type": "Polygon", "coordinates": [ [ [ 13.5749, 52.58785 ], [ 13.57456, 52.58804 ], [ 13.57458, 52.5882 ], [ 13.57473, 52.58829 ], [ 13.57501, 52.58824 ], [ 13.57503, 52.58796 ], [ 13.57499, 52.58787 ], [ 13.5749, 52.58785 ] ] ] } },
{ "type": "Feature", "properties": { "boden": "100 % kräftig, trocken (vermutet) (K3)" }, "geometry": { "type": "Polygon", "coordinates": [ [ [ 13.57923, 52.58826 ], [ 13.57913, 52.58818 ], [ 13.57898, 52.58814 ], [ 13.57878, 52.58815 ], [ 13.57868, 52.58824 ], [ 13.5788, 52.5885 ], [ 13.5789, 52.5886 ], [ 13.57908, 52.58866 ], [ 13.57918, 52.58866 ], [ 13.57923, 52.58826 ] ] ] } },
{ "type": "Feature", "properties": { "boden": "100 % kräftig, mäßig frisch (K2)" }, "geometry": { "type": "Polygon", "coordinates": [ [ [ 13.57521, 52.58841 ], [ 13.57528, 52.58913 ], [ 13.57553, 52.5894 ], [ 13.57585, 52.58951 ], [ 13.57573, 52.58848 ], [ 13.57559, 52.58797 ], [ 13.5753, 52.58792 ], [ 13.57521, 52.58841 ] ] ] } },
{ "type": "Feature", "properties": { "boden": "100 % mittel, mäßig frisch (M2)" }, "geometry": { "type": "Polygon", "coordinates": [ [ [ 13.58878, 52.58898 ], [ 13.58731, 52.58839 ], [ 13.58667, 52.58862 ], [ 13.58644, 52.58899 ], [ 13.5874, 52.58933 ], [ 13.58734, 52.58906 ], [ 13.58757, 52.58896 ], [ 13.58824, 52.58901 ], [ 13.58842, 52.58919 ], [ 13.58878, 52.58898 ] ] ] } },
{ "type": "Feature", "properties": { "boden": "100 % reich, mäßig frisch (R2)" }, "geometry": { "type": "Polygon", "coordinates": [ [ [ 13.58068, 52.58951 ], [ 13.57938, 52.58806 ], [ 13.57921, 52.58846 ], [ 13.57916, 52.5888 ], [ 13.57921, 52.58911 ], [ 13.57937, 52.5894 ], [ 13.57988, 52.58979 ], [ 13.58068, 52.58951 ] ] ] } },
{ "type": "Feature", "properties": { "boden": "100 % mittel, mäßig frisch (M2)" }, "geometry": { "type": "Polygon", "coordinates": [ [ [ 13.58824, 52.58901 ], [ 13.58757, 52.58896 ], [ 13.58734, 52.58906 ], [ 13.5874, 52.58933 ], [ 13.58787, 52.58952 ], [ 13.58842, 52.58919 ], [ 13.58824, 52.58901 ] ] ] } },
{ "type": "Feature", "properties": { "boden": "100 % mittel, mäßig frisch (M2)" }, "geometry": { "type": "Polygon", "coordinates": [ [ [ 13.59344, 52.58845 ], [ 13.59326, 52.58849 ], [ 13.59319, 52.5886 ], [ 13.59326, 52.58871 ], [ 13.59343, 52.58875 ], [ 13.59361, 52.58871 ], [ 13.59369, 52.5886 ], [ 13.59362, 52.58849 ], [ 13.59344, 52.58845 ] ] ] } },
{ "type": "Feature", "properties": { "boden": "100 % mittel, mäßig frisch (M2)" }, "geometry": { "type": "Polygon", "coordinates": [ [ [ 13.59412, 52.58928 ], [ 13.59394, 52.58932 ], [ 13.59386, 52.58943 ], [ 13.59393, 52.58954 ], [ 13.59411, 52.58959 ], [ 13.59428, 52.58954 ], [ 13.59436, 52.58944 ], [ 13.59429, 52.58933 ], [ 13.59412, 52.58928 ] ] ] } },
{ "type": "Feature", "properties": { "boden": "100 % ziemlich arm, frisch (Z1)" }, "geometry": { "type": "Polygon", "coordinates": [ [ [ 13.59852, 52.58862 ], [ 13.59984, 52.58918 ], [ 13.60012, 52.58945 ], [ 13.60085, 52.5906 ], [ 13.60143, 52.5911 ], [ 13.60192, 52.59078 ], [ 13.602, 52.59066 ], [ 13.60183, 52.59048 ], [ 13.60201, 52.58975 ], [ 13.59777, 52.58798 ], [ 13.59852, 52.58862 ] ], [ [ 13.60124, 52.58954 ], [ 13.60131, 52.58964 ], [ 13.60123, 52.58974 ], [ 13.60105, 52.58978 ], [ 13.60088, 52.58974 ], [ 13.60081, 52.58963 ], [ 13.60088, 52.58952 ], [ 13.60106, 52.58948 ], [ 13.60124, 52.58954 ] ] ] } },
{ "type": "Feature", "properties": { "boden": "100 % mittel, frisch (M1)" }, "geometry": { "type": "Polygon", "coordinates": [ [ [ 13.60106, 52.58948 ], [ 13.60088, 52.58952 ], [ 13.60081, 52.58963 ], [ 13.60088, 52.58974 ], [ 13.60105, 52.58978 ], [ 13.60123, 52.58974 ], [ 13.60131, 52.58964 ], [ 13.60124, 52.58953 ], [ 13.60106, 52.58948 ] ] ] } },
{ "type": "Feature", "properties": { "boden": "100 % mittel, mäßig frisch (M2)" }, "geometry": { "type": "Polygon", "coordinates": [ [ [ 13.59757, 52.59151 ], [ 13.59835, 52.59129 ], [ 13.59877, 52.59124 ], [ 13.59972, 52.59127 ], [ 13.60071, 52.59147 ], [ 13.60143, 52.5911 ], [ 13.60085, 52.5906 ], [ 13.60012, 52.58945 ], [ 13.59984, 52.58918 ], [ 13.59852, 52.58862 ], [ 13.59777, 52.58798 ], [ 13.59734, 52.58794 ], [ 13.59581, 52.58924 ], [ 13.59572, 52.58918 ], [ 13.59451, 52.58754 ], [ 13.59398, 52.58763 ], [ 13.59444, 52.58817 ], [ 13.59333, 52.5881 ], [ 13.59329, 52.58778 ], [ 13.59245, 52.58794 ], [ 13.59428, 52.59043 ], [ 13.5953, 52.59167 ], [ 13.59543, 52.59153 ], [ 13.59575, 52.5914 ], [ 13.59609, 52.59133 ], [ 13.59651, 52.59135 ], [ 13.59713, 52.59156 ], [ 13.59757, 52.59151 ] ], [ [ 13.60036, 52.59095 ], [ 13.60029, 52.59106 ], [ 13.60011, 52.5911 ], [ 13.59993, 52.59105 ], [ 13.59986, 52.59094 ], [ 13.59994, 52.59084 ], [ 13.60012, 52.59079 ], [ 13.60029, 52.59084 ], [ 13.60036, 52.59095 ] ], [ [ 13.59436, 52.58944 ], [ 13.59428, 52.58954 ], [ 13.59411, 52.58959 ], [ 13.59393, 52.58954 ], [ 13.59386, 52.58943 ], [ 13.59394, 52.58932 ], [ 13.59412, 52.58928 ], [ 13.59429, 52.58933 ], [ 13.59436, 52.58944 ] ], [ [ 13.59369, 52.5886 ], [ 13.59361, 52.58871 ], [ 13.59343, 52.58875 ], [ 13.59326, 52.58871 ], [ 13.59319, 52.5886 ], [ 13.59326, 52.58849 ], [ 13.59344, 52.58845 ], [ 13.59362, 52.58849 ], [ 13.59369, 52.5886 ] ] ] } },
{ "type": "Feature", "properties": { "boden": "100 % mittel, mäßig frisch (M2)" }, "geometry": { "type": "Polygon", "coordinates": [ [ [ 13.60012, 52.59079 ], [ 13.59994, 52.59084 ], [ 13.59986, 52.59094 ], [ 13.59993, 52.59105 ], [ 13.60011, 52.5911 ], [ 13.60029, 52.59106 ], [ 13.60036, 52.59095 ], [ 13.60029, 52.59084 ], [ 13.60012, 52.59079 ] ] ] } },
{ "type": "Feature", "properties": { "boden": "100 % mittel, frisch (M1)" }, "geometry": { "type": "Polygon", "coordinates": [ [ [ 13.59713, 52.59156 ], [ 13.59651, 52.59135 ], [ 13.59609, 52.59133 ], [ 13.59575, 52.5914 ], [ 13.59543, 52.59153 ], [ 13.5953, 52.59167 ], [ 13.59575, 52.5923 ], [ 13.59692, 52.59256 ], [ 13.59808, 52.59268 ], [ 13.5982, 52.59214 ], [ 13.59839, 52.59199 ], [ 13.59926, 52.59196 ], [ 13.59982, 52.5917 ], [ 13.60071, 52.59147 ], [ 13.60015, 52.59134 ], [ 13.59925, 52.59123 ], [ 13.59835, 52.59129 ], [ 13.59757, 52.59151 ], [ 13.59713, 52.59156 ] ], [ [ 13.5976, 52.59165 ], [ 13.59792, 52.59185 ], [ 13.59794, 52.59197 ], [ 13.59782, 52.59206 ], [ 13.59719, 52.59215 ], [ 13.5969, 52.59209 ], [ 13.59666, 52.59196 ], [ 13.59665, 52.59165 ], [ 13.59679, 52.59157 ], [ 13.59713, 52.59156 ], [ 13.5976, 52.59165 ] ] ] } },
{ "type": "Feature", "properties": { "boden": "100 % mittel, mäßig frisch (M+2)" }, "geometry": { "type": "Polygon", "coordinates": [ [ [ 13.59808, 52.59268 ], [ 13.59627, 52.59243 ], [ 13.59575, 52.5923 ], [ 13.59589, 52.59255 ], [ 13.59624, 52.5929 ], [ 13.59768, 52.59397 ], [ 13.59782, 52.59389 ], [ 13.59808, 52.59268 ] ], [ [ 13.59745, 52.59328 ], [ 13.59737, 52.59339 ], [ 13.59719, 52.59343 ], [ 13.59702, 52.59338 ], [ 13.59695, 52.59327 ], [ 13.59702, 52.59317 ], [ 13.5972, 52.59312 ], [ 13.59738, 52.59317 ], [ 13.59745, 52.59328 ] ] ] } },
{ "type": "Feature", "properties": { "boden": "100 % mittel, mäßig frisch (M+2)" }, "geometry": { "type": "Polygon", "coordinates": [ [ [ 13.5972, 52.59312 ], [ 13.59702, 52.59317 ], [ 13.59695, 52.59327 ], [ 13.59702, 52.59338 ], [ 13.59719, 52.59343 ], [ 13.59737, 52.59339 ], [ 13.59745, 52.59328 ], [ 13.59738, 52.59317 ], [ 13.5972, 52.59312 ] ] ] } },
{ "type": "Feature", "properties": { "boden": "100 % mittel, mäßig frisch (M+2g)" }, "geometry": { "type": "Polygon", "coordinates": [ [ [ 13.59536, 52.60506 ], [ 13.59613, 52.60461 ], [ 13.59456, 52.60349 ], [ 13.59347, 52.60411 ], [ 13.59363, 52.60575 ], [ 13.59536, 52.60506 ] ] ] } },
{ "type": "Feature", "properties": { "boden": "100 % kräftig, mäßig frisch (K2)" }, "geometry": { "type": "Polygon", "coordinates": [ [ [ 13.61178, 52.59852 ], [ 13.61198, 52.59863 ], [ 13.61211, 52.59851 ], [ 13.61204, 52.5984 ], [ 13.61186, 52.59836 ], [ 13.61168, 52.5984 ], [ 13.61161, 52.59852 ], [ 13.61178, 52.59852 ] ] ] } },
{ "type": "Feature", "properties": { "boden": "100 % kräftig, mäßig frisch (K2)" }, "geometry": { "type": "Polygon", "coordinates": [ [ [ 13.61239, 52.59996 ], [ 13.61232, 52.60006 ], [ 13.61214, 52.60011 ], [ 13.61196, 52.60006 ], [ 13.61189, 52.59995 ], [ 13.61202, 52.59983 ], [ 13.61185, 52.59981 ], [ 13.61191, 52.5995 ], [ 13.61202, 52.59943 ], [ 13.61235, 52.59951 ], [ 13.61242, 52.59964 ], [ 13.61314, 52.59983 ], [ 13.61321, 52.60029 ], [ 13.61268, 52.60064 ], [ 13.61221, 52.60051 ], [ 13.61195, 52.60056 ], [ 13.61167, 52.60084 ], [ 13.61169, 52.60133 ], [ 13.61338, 52.60128 ], [ 13.61367, 52.60131 ], [ 13.61351, 52.60056 ], [ 13.61324, 52.59981 ], [ 13.61192, 52.59782 ], [ 13.61139, 52.59806 ], [ 13.60979, 52.59938 ], [ 13.60925, 52.59974 ], [ 13.6089, 52.60036 ], [ 13.60905, 52.60041 ], [ 13.60938, 52.60041 ], [ 13.60949, 52.60049 ], [ 13.60951, 52.60072 ], [ 13.60918, 52.60075 ], [ 13.60917, 52.60102 ], [ 13.60899, 52.60117 ], [ 13.60899, 52.60131 ], [ 13.60931, 52.6014 ], [ 13.61089, 52.60136 ], [ 13.6109, 52.60096 ], [ 13.6102, 52.60099 ], [ 13.6102, 52.60073 ], [ 13.61091, 52.60065 ], [ 13.61096, 52.6007 ], [ 13.61138, 52.60065 ], [ 13.61152, 52.60055 ], [ 13.6123, 52.60042 ], [ 13.61281, 52.60016 ], [ 13.61288, 52.59992 ], [ 13.61283, 52.59986 ], [ 13.61233, 52.59986 ], [ 13.61239, 52.59996 ] ], [ [ 13.60981, 52.60101 ], [ 13.60973, 52.60112 ], [ 13.60955, 52.60116 ], [ 13.60938, 52.60112 ], [ 13.60931, 52.60101 ], [ 13.60938, 52.6009 ], [ 13.60956, 52.60086 ], [ 13.60974, 52.60091 ], [ 13.60981, 52.60101 ] ], [ [ 13.61168, 52.5984 ], [ 13.61186, 52.59836 ], [ 13.61204, 52.5984 ], [ 13.61211, 52.59851 ], [ 13.61198, 52.59863 ], [ 13.61208, 52.59885 ], [ 13.61205, 52.59909 ], [ 13.61197, 52.59913 ], [ 13.61177, 52.59903 ], [ 13.61165, 52.59903 ], [ 13.61146, 52.59878 ], [ 13.61147, 52.5986 ], [ 13.61168, 52.5984 ] ] ] } },
{ "type": "Feature", "properties": { "boden": "100 % kräftig, mäßig frisch (K2)" }, "geometry": { "type": "Polygon", "coordinates": [ [ [ 13.60956, 52.60086 ], [ 13.60938, 52.6009 ], [ 13.60931, 52.60101 ], [ 13.60938, 52.60112 ], [ 13.60955, 52.60116 ], [ 13.60973, 52.60112 ], [ 13.60981, 52.60101 ], [ 13.60974, 52.60091 ], [ 13.60956, 52.60086 ] ] ] } },
{ "type": "Feature", "properties": { "boden": "100 % mittel, frisch (M1)" }, "geometry": { "type": "Polygon", "coordinates": [ [ [ 13.57358, 52.59219 ], [ 13.5734, 52.59223 ], [ 13.57332, 52.59234 ], [ 13.57339, 52.59245 ], [ 13.57357, 52.59249 ], [ 13.57374, 52.59245 ], [ 13.57382, 52.59234 ], [ 13.57375, 52.59223 ], [ 13.57358, 52.59219 ] ] ] } },
{ "type": "Feature", "properties": { "boden": "60 % mittel, mäßig frisch (M2g) · 40 % mittel, mäßig frisch (M2)" }, "geometry": { "type": "Polygon", "coordinates": [ [ [ 13.57407, 52.59906 ], [ 13.57346, 52.5988 ], [ 13.57223, 52.59799 ], [ 13.57185, 52.59762 ], [ 13.57107, 52.59733 ], [ 13.57072, 52.59713 ], [ 13.57028, 52.59669 ], [ 13.57012, 52.59638 ], [ 13.57009, 52.59611 ], [ 13.57018, 52.59589 ], [ 13.57093, 52.5953 ], [ 13.57148, 52.59505 ], [ 13.57349, 52.59451 ], [ 13.57474, 52.59408 ], [ 13.57684, 52.59358 ], [ 13.57726, 52.59351 ], [ 13.57776, 52.59351 ], [ 13.5782, 52.59357 ], [ 13.57909, 52.59384 ], [ 13.57955, 52.59408 ], [ 13.5798, 52.59431 ], [ 13.58002, 52.59459 ], [ 13.58013, 52.59483 ], [ 13.58133, 52.5939 ], [ 13.58286, 52.593 ], [ 13.58293, 52.59306 ], [ 13.58318, 52.59287 ], [ 13.58267, 52.5924 ], [ 13.58171, 52.59168 ], [ 13.5812, 52.59141 ], [ 13.57947, 52.59074 ], [ 13.57904, 52.59092 ], [ 13.57801, 52.59116 ], [ 13.57753, 52.59135 ], [ 13.57727, 52.59151 ], [ 13.57678, 52.59221 ], [ 13.57653, 52.59238 ], [ 13.57613, 52.5925 ], [ 13.57575, 52.59254 ], [ 13.57431, 52.59249 ], [ 13.57353, 52.59254 ], [ 13.57322, 52.59241 ], [ 13.5732, 52.5923 ], [ 13.57337, 52.59213 ], [ 13.57311, 52.5922 ], [ 13.5724, 52.59218 ], [ 13.57207, 52.59206 ], [ 13.57187, 52.59191 ], [ 13.57198, 52.59282 ], [ 13.57228, 52.59337 ], [ 13.57191, 52.59411 ], [ 13.56952, 52.59528 ], [ 13.56886, 52.5954 ], [ 13.5684, 52.59542 ], [ 13.56818, 52.59591 ], [ 13.56869, 52.59666 ], [ 13.56913, 52.59787 ], [ 13.56884, 52.59791 ], [ 13.5685, 52.59701 ], [ 13.56719, 52.59802 ], [ 13.56895, 52.59866 ], [ 13.5736, 52.60011 ], [ 13.57469, 52.59923 ], [ 13.57407, 52.59906 ] ] ] } },
{ "type": "Feature", "properties": { "boden": "60 % mittel, mäßig frisch (M2) · 40 % arm, mäßig frisch (A2)" }, "geometry": { "type": "Polygon", "coordinates": [ [ [ 13.57803, 52.59633 ], [ 13.58013, 52.59483 ], [ 13.58002, 52.59459 ], [ 13.57955, 52.59408 ], [ 13.57909, 52.59384 ], [ 13.57861, 52.59368 ], [ 13.57776, 52.59351 ], [ 13.57726, 52.59351 ], [ 13.57684, 52.59358 ], [ 13.57474, 52.59408 ], [ 13.57349, 52.59451 ], [ 13.57148, 52.59505 ], [ 13.57093, 52.5953 ], [ 13.57018, 52.59589 ], [ 13.57009, 52.59611 ], [ 13.57012, 52.59638 ], [ 13.57028, 52.59669 ], [ 13.57072, 52.59713 ], [ 13.57107, 52.59733 ], [ 13.57185, 52.59762 ], [ 13.57272, 52.59735 ], [ 13.57396, 52.59712 ], [ 13.57532, 52.59707 ], [ 13.57604, 52.59711 ], [ 13.57683, 52.59729 ], [ 13.57803, 52.59633 ] ], [ [ 13.57725, 52.59615 ], [ 13.57718, 52.59626 ], [ 13.577, 52.5963 ], [ 13.57682, 52.59625 ], [ 13.57675, 52.59615 ], [ 13.57683, 52.59604 ], [ 13.57701, 52.596 ], [ 13.57718, 52.59604 ], [ 13.57725, 52.59615 ] ] ] } },
{ "type": "Feature", "properties": { "boden": "60 % mittel, mäßig frisch (M2) · 40 % arm, mäßig frisch (A2)" }, "geometry": { "type": "Polygon", "coordinates": [ [ [ 13.57701, 52.596 ], [ 13.57683, 52.59604 ], [ 13.57675, 52.59615 ], [ 13.57682, 52.59625 ], [ 13.577, 52.5963 ], [ 13.57718, 52.59626 ], [ 13.57725, 52.59615 ], [ 13.57718, 52.59604 ], [ 13.57701, 52.596 ] ] ] } },
{ "type": "Feature", "properties": { "boden": "60 % mittel, mäßig frisch (M2) · 40 % ziemlich arm, mäßig frisch (Z2)" }, "geometry": { "type": "Polygon", "coordinates": [ [ [ 13.57604, 52.59711 ], [ 13.57532, 52.59707 ], [ 13.57396, 52.59712 ], [ 13.57272, 52.59735 ], [ 13.57185, 52.59762 ], [ 13.57223, 52.59799 ], [ 13.57346, 52.5988 ], [ 13.57407, 52.59906 ], [ 13.57469, 52.59923 ], [ 13.57683, 52.59729 ], [ 13.57604, 52.59711 ] ] ] } },
{ "type": "Feature", "properties": { "boden": "100 % kräftig, mäßig frisch (K2)" }, "geometry": { "type": "Polygon", "coordinates": [ [ [ 13.58636, 52.60952 ], [ 13.58612, 52.60928 ], [ 13.58574, 52.60908 ], [ 13.58509, 52.6093 ], [ 13.58488, 52.60916 ], [ 13.58349, 52.61001 ], [ 13.58284, 52.61049 ], [ 13.58423, 52.61019 ], [ 13.58475, 52.61011 ], [ 13.58539, 52.60993 ], [ 13.58649, 52.60977 ], [ 13.58636, 52.60952 ] ] ] } },
{ "type": "Feature", "properties": { "boden": "100 % mittel, mäßig frisch (M+2)" }, "geometry": { "type": "Polygon", "coordinates": [ [ [ 13.59356, 52.60816 ], [ 13.59247, 52.60849 ], [ 13.59229, 52.60849 ], [ 13.59238, 52.60834 ], [ 13.59282, 52.60822 ], [ 13.59295, 52.60804 ], [ 13.59313, 52.60804 ], [ 13.59326, 52.60793 ], [ 13.59353, 52.60785 ], [ 13.5934, 52.60776 ], [ 13.59264, 52.60808 ], [ 13.59224, 52.60833 ], [ 13.59181, 52.60852 ], [ 13.59126, 52.60864 ], [ 13.5897, 52.60923 ], [ 13.58816, 52.60972 ], [ 13.5859, 52.61034 ], [ 13.58453, 52.61064 ], [ 13.58267, 52.61099 ], [ 13.58384, 52.61153 ], [ 13.58876, 52.61159 ], [ 13.58745, 52.61116 ], [ 13.58983, 52.60979 ], [ 13.59031, 52.61018 ], [ 13.59385, 52.60806 ], [ 13.5938, 52.60803 ], [ 13.59356, 52.60816 ] ] ] } },
{ "type": "Feature", "properties": { "boden": "100 % mittel, mäßig frisch (M+2g)" }, "geometry": { "type": "Polygon", "coordinates": [ [ [ 13.59586, 52.60493 ], [ 13.59517, 52.6052 ], [ 13.59541, 52.60536 ], [ 13.59582, 52.60526 ], [ 13.59586, 52.60493 ] ] ] } },
{ "type": "Feature", "properties": { "boden": "100 % mittel, mäßig frisch (M+2g)" }, "geometry": { "type": "Polygon", "coordinates": [ [ [ 13.59394, 52.60595 ], [ 13.59387, 52.60584 ], [ 13.59394, 52.60574 ], [ 13.59412, 52.60569 ], [ 13.59426, 52.60573 ], [ 13.59435, 52.60561 ], [ 13.59487, 52.60547 ], [ 13.59479, 52.60535 ], [ 13.59368, 52.60579 ], [ 13.59394, 52.60612 ], [ 13.59405, 52.60598 ], [ 13.59394, 52.60595 ] ] ] } },
{ "type": "Feature", "properties": { "boden": "100 % mittel, mäßig frisch (M+2g)" }, "geometry": { "type": "Polygon", "coordinates": [ [ [ 13.59412, 52.60569 ], [ 13.59394, 52.60574 ], [ 13.59387, 52.60584 ], [ 13.59394, 52.60595 ], [ 13.59405, 52.60598 ], [ 13.59426, 52.60573 ], [ 13.59412, 52.60569 ] ] ] } },
{ "type": "Feature", "properties": { "boden": "100 % mittel, mäßig frisch (M+2)" }, "geometry": { "type": "Polygon", "coordinates": [ [ [ 13.59353, 52.60785 ], [ 13.59326, 52.60793 ], [ 13.59313, 52.60804 ], [ 13.59295, 52.60804 ], [ 13.59282, 52.60822 ], [ 13.59238, 52.60834 ], [ 13.59229, 52.60849 ], [ 13.59247, 52.60849 ], [ 13.59356, 52.60816 ], [ 13.5938, 52.60803 ], [ 13.59353, 52.60785 ] ] ] } },
{ "type": "Feature", "properties": { "boden": "100 % mittel, mäßig frisch (M+2)" }, "geometry": { "type": "Polygon", "coordinates": [ [ [ 13.58612, 52.60928 ], [ 13.58636, 52.60952 ], [ 13.58649, 52.60977 ], [ 13.58675, 52.60973 ], [ 13.5876, 52.60947 ], [ 13.58877, 52.60919 ], [ 13.59099, 52.60836 ], [ 13.59177, 52.60797 ], [ 13.59238, 52.60786 ], [ 13.59309, 52.60754 ], [ 13.59206, 52.60685 ], [ 13.58788, 52.60926 ], [ 13.58764, 52.6091 ], [ 13.58725, 52.609 ], [ 13.58682, 52.60871 ], [ 13.58574, 52.60908 ], [ 13.58612, 52.60928 ] ] ] } },
{ "type": "Feature", "properties": { "boden": "100 % kräftig, mäßig frisch (K2)" }, "geometry": { "type": "Polygon", "coordinates": [ [ [ 13.56975, 52.58608 ], [ 13.5689, 52.58627 ], [ 13.56849, 52.58641 ], [ 13.56849, 52.58645 ], [ 13.56857, 52.58647 ], [ 13.56869, 52.5864 ], [ 13.5693, 52.58631 ], [ 13.56971, 52.5862 ], [ 13.56981, 52.58614 ], [ 13.56975, 52.58608 ] ] ] } },
{ "type": "Feature", "properties": { "boden": "100 % kräftig, mäßig frisch (K2)" }, "geometry": { "type": "Polygon", "coordinates": [ [ [ 13.5678, 52.58663 ], [ 13.56826, 52.58654 ], [ 13.568, 52.58667 ], [ 13.56748, 52.58707 ], [ 13.56741, 52.58725 ], [ 13.56822, 52.58667 ], [ 13.56886, 52.58683 ], [ 13.5688, 52.58725 ], [ 13.56942, 52.58757 ], [ 13.5698, 52.58666 ], [ 13.57011, 52.58644 ], [ 13.56981, 52.58614 ], [ 13.5693, 52.58631 ], [ 13.56869, 52.5864 ], [ 13.56857, 52.58647 ], [ 13.56849, 52.58645 ], [ 13.56849, 52.58641 ], [ 13.5689, 52.58627 ], [ 13.56975, 52.58608 ], [ 13.56909, 52.58541 ], [ 13.56868, 52.58573 ], [ 13.56738, 52.5852 ], [ 13.56594, 52.58619 ], [ 13.56508, 52.58798 ], [ 13.56548, 52.58802 ], [ 13.56633, 52.58635 ], [ 13.56714, 52.58581 ], [ 13.56845, 52.58617 ], [ 13.5678, 52.58663 ] ] ] } },
{ "type": "Feature", "properties": { "boden": "100 % mittel, trocken (vermutet) (M3)" }, "geometry": { "type": "Polygon", "coordinates": [ [ [ 13.57083, 52.58648 ], [ 13.57076, 52.58664 ], [ 13.5709, 52.58702 ], [ 13.5712, 52.58726 ], [ 13.57153, 52.5874 ], [ 13.57159, 52.58723 ], [ 13.57136, 52.5867 ], [ 13.57115, 52.58652 ], [ 13.57083, 52.58648 ] ] ] } },
{ "type": "Feature", "properties": { "boden": "100 % kräftig, mäßig frisch (K2)" }, "geometry": { "type": "Polygon", "coordinates": [ [ [ 13.56705, 52.5875 ], [ 13.56746, 52.58718 ], [ 13.56748, 52.58707 ], [ 13.568, 52.58667 ], [ 13.56826, 52.58654 ], [ 13.5678, 52.58663 ], [ 13.56585, 52.58804 ], [ 13.56599, 52.58811 ], [ 13.56639, 52.58791 ], [ 13.56679, 52.58757 ], [ 13.56671, 52.58744 ], [ 13.56697, 52.58745 ], [ 13.56705, 52.5875 ] ] ] } },
{ "type": "Feature", "properties": { "boden": "100 % kräftig, mäßig frisch (K2)" }, "geometry": { "type": "Polygon", "coordinates": [ [ [ 13.57098, 52.58728 ], [ 13.57076, 52.58664 ], [ 13.57083, 52.58648 ], [ 13.57066, 52.58647 ], [ 13.57037, 52.58736 ], [ 13.56971, 52.58722 ], [ 13.56955, 52.58765 ], [ 13.57089, 52.58846 ], [ 13.57098, 52.58728 ] ] ] } },
{ "type": "Feature", "properties": { "boden": "100 % kräftig, mäßig frisch (K2)" }, "geometry": { "type": "Polygon", "coordinates": [ [ [ 13.56697, 52.58745 ], [ 13.56671, 52.58744 ], [ 13.56679, 52.58757 ], [ 13.56658, 52.58777 ], [ 13.56599, 52.58811 ], [ 13.56611, 52.58817 ], [ 13.56705, 52.5875 ], [ 13.56697, 52.58745 ] ] ] } },
{ "type": "Feature", "properties": { "boden": "100 % mittel, trocken (vermutet) (M3)" }, "geometry": { "type": "Polygon", "coordinates": [ [ [ 13.57153, 52.58781 ], [ 13.57135, 52.58784 ], [ 13.57115, 52.58797 ], [ 13.57112, 52.58827 ], [ 13.571, 52.58845 ], [ 13.57108, 52.5887 ], [ 13.5707, 52.58922 ], [ 13.57089, 52.58917 ], [ 13.57135, 52.58867 ], [ 13.57154, 52.58811 ], [ 13.57153, 52.58781 ] ] ] } },
{ "type": "Feature", "properties": { "boden": "100 % mittel, mäßig frisch (M2g)" }, "geometry": { "type": "Polygon", "coordinates": [ [ [ 13.56256, 52.58726 ], [ 13.56068, 52.58911 ], [ 13.5616, 52.5905 ], [ 13.56396, 52.58976 ], [ 13.56389, 52.58951 ], [ 13.56392, 52.58929 ], [ 13.56406, 52.58891 ], [ 13.56404, 52.5887 ], [ 13.56422, 52.58807 ], [ 13.56256, 52.58726 ] ] ] } },
{ "type": "Feature", "properties": { "boden": "100 % ziemlich arm, mäßig frisch (Z2g)" }, "geometry": { "type": "Polygon", "coordinates": [ [ [ 13.57182, 52.59205 ], [ 13.5735, 52.58801 ], [ 13.57411, 52.58657 ], [ 13.57342, 52.58658 ], [ 13.57278, 52.58668 ], [ 13.57232, 52.58663 ], [ 13.57235, 52.58739 ], [ 13.57228, 52.5877 ], [ 13.57184, 52.58869 ], [ 13.57111, 52.58957 ], [ 13.57115, 52.58979 ], [ 13.57078, 52.59035 ], [ 13.57045, 52.59058 ], [ 13.57055, 52.59066 ], [ 13.57024, 52.59078 ], [ 13.5702, 52.59109 ], [ 13.57142, 52.59198 ], [ 13.57182, 52.59205 ] ] ] } },
{ "type": "Feature", "properties": { "boden": "100 % mittel, trocken (vermutet) (M3)" }, "geometry": { "type": "Polygon", "coordinates": [ [ [ 13.57047, 52.58957 ], [ 13.57029, 52.58961 ], [ 13.57025, 52.58976 ], [ 13.57034, 52.59004 ], [ 13.57046, 52.58998 ], [ 13.57061, 52.58975 ], [ 13.57061, 52.58964 ], [ 13.57047, 52.58957 ] ] ] } },
{ "type": "Feature", "properties": { "boden": "100 % mittel, mäßig frisch (M2)" }, "geometry": { "type": "Polygon", "coordinates": [ [ [ 13.58746, 52.58979 ], [ 13.58667, 52.58951 ], [ 13.58646, 52.58966 ], [ 13.58577, 52.5894 ], [ 13.58598, 52.58922 ], [ 13.58458, 52.58866 ], [ 13.58301, 52.58916 ], [ 13.58309, 52.58936 ], [ 13.58229, 52.58985 ], [ 13.58553, 52.59114 ], [ 13.58635, 52.59062 ], [ 13.58628, 52.59057 ], [ 13.58696, 52.59008 ], [ 13.58746, 52.58979 ] ] ] } },
{ "type": "Feature", "properties": { "boden": "50 % mittel, mäßig frisch (M2) · 50 % mittel, mäßig frisch (M+2)" }, "geometry": { "type": "Polygon", "coordinates": [ [ [ 13.57381, 52.59212 ], [ 13.5754, 52.59182 ], [ 13.57703, 52.59111 ], [ 13.57774, 52.59086 ], [ 13.57831, 52.59058 ], [ 13.57823, 52.59019 ], [ 13.57809, 52.59006 ], [ 13.57773, 52.58988 ], [ 13.5774, 52.58976 ], [ 13.57622, 52.58958 ], [ 13.57658, 52.59039 ], [ 13.5764, 52.59047 ], [ 13.57532, 52.5907 ], [ 13.57453, 52.58965 ], [ 13.57585, 52.58951 ], [ 13.57553, 52.5894 ], [ 13.57528, 52.58913 ], [ 13.57521, 52.58841 ], [ 13.5753, 52.58792 ], [ 13.57499, 52.58787 ], [ 13.57501, 52.58824 ], [ 13.57483, 52.5883 ], [ 13.57464, 52.58826 ], [ 13.57456, 52.58804 ], [ 13.57438, 52.58835 ], [ 13.5735, 52.58801 ], [ 13.57187, 52.59191 ], [ 13.57207, 52.59206 ], [ 13.5724, 52.59218 ], [ 13.57311, 52.5922 ], [ 13.57337, 52.59213 ], [ 13.57381, 52.59212 ] ], [ [ 13.57454, 52.591 ], [ 13.57489, 52.59108 ], [ 13.57497, 52.59117 ], [ 13.57465, 52.59124 ], [ 13.57443, 52.59121 ], [ 13.57422, 52.59103 ], [ 13.5742, 52.59086 ], [ 13.5743, 52.59087 ], [ 13.57454, 52.591 ] ] ] } },
{ "type": "Feature", "properties": { "boden": "100 % mittel, frisch (M1)" }, "geometry": { "type": "Polygon", "coordinates": [ [ [ 13.57924, 52.59037 ], [ 13.57906, 52.59042 ], [ 13.57898, 52.59052 ], [ 13.57905, 52.59063 ], [ 13.57923, 52.59068 ], [ 13.5794, 52.59064 ], [ 13.57948, 52.59053 ], [ 13.57941, 52.59042 ], [ 13.57924, 52.59037 ] ] ] } },
{ "type": "Feature", "properties": { "boden": "100 % mittel, frisch (M1)" }, "geometry": { "type": "Polygon", "coordinates": [ [ [ 13.57815, 52.59104 ], [ 13.57808, 52.59094 ], [ 13.57815, 52.59083 ], [ 13.57833, 52.59079 ], [ 13.57851, 52.59083 ], [ 13.57858, 52.59094 ], [ 13.5785, 52.59105 ], [ 13.57935, 52.59081 ], [ 13.57978, 52.59057 ], [ 13.57981, 52.59029 ], [ 13.57966, 52.59013 ], [ 13.57946, 52.59003 ], [ 13.57774, 52.59086 ], [ 13.57703, 52.59111 ], [ 13.57753, 52.59135 ], [ 13.57832, 52.59109 ], [ 13.57815, 52.59104 ] ], [ [ 13.57948, 52.59053 ], [ 13.5794, 52.59064 ], [ 13.57923, 52.59068 ], [ 13.57905, 52.59063 ], [ 13.57898, 52.59052 ], [ 13.57906, 52.59042 ], [ 13.57924, 52.59037 ], [ 13.57941, 52.59042 ], [ 13.57948, 52.59053 ] ] ] } },
{ "type": "Feature", "properties": { "boden": "100 % mittel, frisch (M1)" }, "geometry": { "type": "Polygon", "coordinates": [ [ [ 13.57858, 52.59094 ], [ 13.57851, 52.59083 ], [ 13.57833, 52.59079 ], [ 13.57815, 52.59083 ], [ 13.57808, 52.59094 ], [ 13.57815, 52.59104 ], [ 13.57832, 52.59109 ], [ 13.5785, 52.59105 ], [ 13.57858, 52.59094 ] ] ] } },
{ "type": "Feature", "properties": { "boden": "50 % mittel, trocken (vermutet) (M3) · 50 % mittel, trocken (vermutet) (M+3)" }, "geometry": { "type": "Polygon", "coordinates": [ [ [ 13.57423, 52.59085 ], [ 13.57417, 52.5909 ], [ 13.57422, 52.59103 ], [ 13.57443, 52.59121 ], [ 13.57465, 52.59124 ], [ 13.57497, 52.59117 ], [ 13.57489, 52.59108 ], [ 13.57454, 52.591 ], [ 13.57423, 52.59085 ] ] ] } },
{ "type": "Feature", "properties": { "boden": "100 % mittel, mäßig frisch (M2)" }, "geometry": { "type": "Polygon", "coordinates": [ [ [ 13.57988, 52.58979 ], [ 13.57946, 52.59003 ], [ 13.57966, 52.59013 ], [ 13.57981, 52.59029 ], [ 13.57982, 52.59044 ], [ 13.57978, 52.59057 ], [ 13.57947, 52.59074 ], [ 13.5812, 52.59141 ], [ 13.58171, 52.59168 ], [ 13.58267, 52.5924 ], [ 13.58318, 52.59287 ], [ 13.58341, 52.5927 ], [ 13.58348, 52.59253 ], [ 13.58068, 52.58951 ], [ 13.57988, 52.58979 ] ] ] } },
{ "type": "Feature", "properties": { "boden": "100 % mittel, frisch (M1)" }, "geometry": { "type": "Polygon", "coordinates": [ [ [ 13.57727, 52.59151 ], [ 13.57753, 52.59135 ], [ 13.57703, 52.59111 ], [ 13.57665, 52.59127 ], [ 13.57659, 52.59136 ], [ 13.57659, 52.59164 ], [ 13.57673, 52.59176 ], [ 13.57708, 52.59174 ], [ 13.57727, 52.59151 ] ] ] } },
{ "type": "Feature", "properties": { "boden": "100 % mittel, frisch (M1)" }, "geometry": { "type": "Polygon", "coordinates": [ [ [ 13.57673, 52.59176 ], [ 13.57659, 52.59164 ], [ 13.57659, 52.59136 ], [ 13.57665, 52.59127 ], [ 13.5757, 52.5917 ], [ 13.57606, 52.59171 ], [ 13.57626, 52.59186 ], [ 13.57623, 52.59214 ], [ 13.57604, 52.59226 ], [ 13.57556, 52.59221 ], [ 13.57543, 52.59209 ], [ 13.5754, 52.59182 ], [ 13.57423, 52.59206 ], [ 13.57337, 52.59213 ], [ 13.5732, 52.5923 ], [ 13.57322, 52.59241 ], [ 13.57353, 52.59254 ], [ 13.57431, 52.59249 ], [ 13.57575, 52.59254 ], [ 13.57613, 52.5925 ], [ 13.57653, 52.59238 ], [ 13.57678, 52.59221 ], [ 13.57708, 52.59174 ], [ 13.57673, 52.59176 ] ], [ [ 13.57382, 52.59234 ], [ 13.57374, 52.59245 ], [ 13.57357, 52.59249 ], [ 13.57339, 52.59245 ], [ 13.57332, 52.59234 ], [ 13.5734, 52.59223 ], [ 13.57358, 52.59219 ], [ 13.57375, 52.59223 ], [ 13.57382, 52.59234 ] ] ] } },
{ "type": "Feature", "properties": { "boden": "100 % mittel, frisch (M1)" }, "geometry": { "type": "Polygon", "coordinates": [ [ [ 13.5754, 52.59182 ], [ 13.57543, 52.59209 ], [ 13.57556, 52.59221 ], [ 13.57604, 52.59226 ], [ 13.57623, 52.59214 ], [ 13.57626, 52.59186 ], [ 13.57606, 52.59171 ], [ 13.5757, 52.5917 ], [ 13.5754, 52.59182 ] ] ] } },
{ "type": "Feature", "properties": { "boden": "100 % mittel, mäßig frisch (M2)" }, "geometry": { "type": "Polygon", "coordinates": [ [ [ 13.57015, 52.5894 ], [ 13.56944, 52.59097 ], [ 13.57013, 52.59085 ], [ 13.5708, 52.59013 ], [ 13.57087, 52.58972 ], [ 13.57082, 52.58936 ], [ 13.57058, 52.58923 ], [ 13.57015, 52.5894 ] ], [ [ 13.57061, 52.58964 ], [ 13.57052, 52.58991 ], [ 13.57034, 52.59004 ], [ 13.57025, 52.58976 ], [ 13.57029, 52.58961 ], [ 13.57047, 52.58957 ], [ 13.57061, 52.58964 ] ] ] } },
{ "type": "Feature", "properties": { "boden": "100 % mittel, mäßig frisch (M2)" }, "geometry": { "type": "Polygon", "coordinates": [ [ [ 13.57024, 52.59078 ], [ 13.57055, 52.59066 ], [ 13.57045, 52.59058 ], [ 13.57078, 52.59035 ], [ 13.57115, 52.58979 ], [ 13.57111, 52.58957 ], [ 13.57184, 52.58869 ], [ 13.57228, 52.5877 ], [ 13.57235, 52.58739 ], [ 13.57232, 52.58663 ], [ 13.57115, 52.58652 ], [ 13.57136, 52.5867 ], [ 13.5715, 52.58693 ], [ 13.57159, 52.58723 ], [ 13.57153, 52.5874 ], [ 13.5712, 52.58726 ], [ 13.5709, 52.58702 ], [ 13.57098, 52.58728 ], [ 13.57089, 52.58846 ], [ 13.57015, 52.5894 ], [ 13.57058, 52.58923 ], [ 13.57082, 52.58936 ], [ 13.57087, 52.58972 ], [ 13.5708, 52.59013 ], [ 13.57013, 52.59085 ], [ 13.56944, 52.59097 ], [ 13.56906, 52.59179 ], [ 13.56993, 52.59196 ], [ 13.56896, 52.59417 ], [ 13.56942, 52.59385 ], [ 13.56985, 52.59327 ], [ 13.57013, 52.59272 ], [ 13.57026, 52.59216 ], [ 13.5702, 52.59109 ], [ 13.57024, 52.59078 ] ], [ [ 13.57156, 52.58796 ], [ 13.57135, 52.58867 ], [ 13.57089, 52.58917 ], [ 13.5707, 52.58922 ], [ 13.57108, 52.5887 ], [ 13.571, 52.58845 ], [ 13.57112, 52.58827 ], [ 13.57115, 52.58797 ], [ 13.57135, 52.58784 ], [ 13.57153, 52.58781 ], [ 13.57156, 52.58796 ] ] ] } },
{ "type": "Feature", "properties": { "boden": "100 % mittel, mäßig frisch (M2)" }, "geometry": { "type": "Polygon", "coordinates": [ [ [ 13.57182, 52.59205 ], [ 13.57142, 52.59198 ], [ 13.5702, 52.59109 ], [ 13.57026, 52.59216 ], [ 13.57013, 52.59272 ], [ 13.56985, 52.59327 ], [ 13.56942, 52.59385 ], [ 13.56896, 52.59417 ], [ 13.5684, 52.59542 ], [ 13.56886, 52.5954 ], [ 13.56952, 52.59528 ], [ 13.57191, 52.59411 ], [ 13.57228, 52.59337 ], [ 13.57198, 52.59282 ], [ 13.57187, 52.59191 ], [ 13.57182, 52.59205 ] ], [ [ 13.57154, 52.59332 ], [ 13.57144, 52.59343 ], [ 13.57092, 52.59454 ], [ 13.57144, 52.59313 ], [ 13.57154, 52.59332 ] ] ] } },
{ "type": "Feature", "properties": { "boden": "100 % mittel, mäßig frisch (M2)" }, "geometry": { "type": "Polygon", "coordinates": [ [ [ 13.57144, 52.59313 ], [ 13.57099, 52.59425 ], [ 13.57092, 52.59454 ], [ 13.57144, 52.59343 ], [ 13.57154, 52.59332 ], [ 13.57144, 52.59313 ] ] ] } },
{ "type": "Feature", "properties": { "boden": "100 % ziemlich arm, mäßig frisch (Z2)" }, "geometry": { "type": "Polygon", "coordinates": [ [ [ 13.648, 52.56935 ], [ 13.65106, 52.56933 ], [ 13.65074, 52.56842 ], [ 13.65051, 52.56799 ], [ 13.64957, 52.56764 ], [ 13.64915, 52.56801 ], [ 13.64907, 52.56832 ], [ 13.648, 52.56935 ] ] ] } },
{ "type": "Feature", "properties": { "boden": "100 % mittel, frisch (M1)" }, "geometry": { "type": "Polygon", "coordinates": [ [ [ 13.65002, 52.56991 ], [ 13.64984, 52.56995 ], [ 13.64977, 52.57006 ], [ 13.64984, 52.57017 ], [ 13.65001, 52.57022 ], [ 13.65019, 52.57017 ], [ 13.65027, 52.57007 ], [ 13.6502, 52.56996 ], [ 13.65002, 52.56991 ] ] ] } },
{ "type": "Feature", "properties": { "boden": "100 % mittel, frisch (M1)" }, "geometry": { "type": "Polygon", "coordinates": [ [ [ 13.64958, 52.57233 ], [ 13.6494, 52.57238 ], [ 13.64932, 52.57248 ], [ 13.64939, 52.57259 ], [ 13.64957, 52.57264 ], [ 13.64975, 52.57259 ], [ 13.64982, 52.57249 ], [ 13.64975, 52.57238 ], [ 13.64958, 52.57233 ] ] ] } },
{ "type": "Feature", "properties": { "boden": "100 % kräftig, nass (NK1)" }, "geometry": { "type": "Polygon", "coordinates": [ [ [ 13.64923, 52.57358 ], [ 13.64888, 52.57342 ], [ 13.64838, 52.57284 ], [ 13.64828, 52.57299 ], [ 13.64811, 52.57307 ], [ 13.64766, 52.57305 ], [ 13.64741, 52.57288 ], [ 13.64705, 52.57227 ], [ 13.64713, 52.57203 ], [ 13.64732, 52.57178 ], [ 13.64785, 52.5716 ], [ 13.64813, 52.57155 ], [ 13.6487, 52.57192 ], [ 13.64874, 52.57206 ], [ 13.649, 52.57192 ], [ 13.64917, 52.57175 ], [ 13.6492, 52.57154 ], [ 13.64873, 52.57098 ], [ 13.64734, 52.57055 ], [ 13.64668, 52.57249 ], [ 13.64699, 52.57278 ], [ 13.64724, 52.57329 ], [ 13.64729, 52.57359 ], [ 13.64724, 52.57413 ], [ 13.64709, 52.57431 ], [ 13.64737, 52.57435 ], [ 13.6478, 52.5742 ], [ 13.64798, 52.57421 ], [ 13.64841, 52.57451 ], [ 13.64835, 52.57455 ], [ 13.64795, 52.57447 ], [ 13.64741, 52.57453 ], [ 13.64676, 52.57478 ], [ 13.64609, 52.57479 ], [ 13.64593, 52.57468 ], [ 13.64594, 52.57456 ], [ 13.64609, 52.57447 ], [ 13.64513, 52.57425 ], [ 13.64353, 52.57555 ], [ 13.64285, 52.57602 ], [ 13.64331, 52.57674 ], [ 13.64387, 52.57695 ], [ 13.64413, 52.57693 ], [ 13.64438, 52.57684 ], [ 13.64453, 52.57674 ], [ 13.64519, 52.57564 ], [ 13.64551, 52.5753 ], [ 13.64585, 52.5751 ], [ 13.64625, 52.57495 ], [ 13.64662, 52.57497 ], [ 13.64775, 52.57488 ], [ 13.64842, 52.57463 ], [ 13.64968, 52.5737 ], [ 13.64923, 52.57358 ] ], [ [ 13.64439, 52.57553 ], [ 13.64431, 52.57564 ], [ 13.64413, 52.57568 ], [ 13.64396, 52.57564 ], [ 13.64389, 52.57553 ], [ 13.64396, 52.57542 ], [ 13.64414, 52.57538 ], [ 13.64432, 52.57542 ], [ 13.64439, 52.57553 ] ], [ [ 13.64439, 52.57595 ], [ 13.64431, 52.57606 ], [ 13.64413, 52.5761 ], [ 13.64396, 52.57605 ], [ 13.64389, 52.57594 ], [ 13.64396, 52.57584 ], [ 13.64414, 52.57579 ], [ 13.64432, 52.57584 ], [ 13.64439, 52.57595 ] ] ] } },
{ "type": "Feature", "properties": { "boden": "100 % mittel, frisch (M1)" }, "geometry": { "type": "Polygon", "coordinates": [ [ [ 13.65009, 52.57467 ], [ 13.64991, 52.57472 ], [ 13.64984, 52.57482 ], [ 13.64991, 52.57493 ], [ 13.65008, 52.57498 ], [ 13.65026, 52.57494 ], [ 13.65034, 52.57483 ], [ 13.65027, 52.57472 ], [ 13.65009, 52.57467 ] ] ] } },
{ "type": "Feature", "properties": { "boden": "100 % mittel, frisch (M1)" }, "geometry": { "type": "Polygon", "coordinates": [ [ [ 13.64924, 52.58065 ], [ 13.64827, 52.57968 ], [ 13.6478, 52.57959 ], [ 13.64741, 52.5794 ], [ 13.64675, 52.57883 ], [ 13.64657, 52.57847 ], [ 13.64667, 52.57829 ], [ 13.64692, 52.57815 ], [ 13.64722, 52.57809 ], [ 13.647, 52.57795 ], [ 13.64639, 52.57789 ], [ 13.64587, 52.57812 ], [ 13.64501, 52.57707 ], [ 13.64623, 52.57736 ], [ 13.64674, 52.57742 ], [ 13.64761, 52.57767 ], [ 13.64816, 52.57798 ], [ 13.64781, 52.57808 ], [ 13.64827, 52.57845 ], [ 13.64872, 52.57864 ], [ 13.64924, 52.57895 ], [ 13.64923, 52.57906 ], [ 13.64894, 52.5792 ], [ 13.64921, 52.57928 ], [ 13.64952, 52.57931 ], [ 13.64979, 52.57928 ], [ 13.65012, 52.57911 ], [ 13.65022, 52.57879 ], [ 13.65015, 52.57859 ], [ 13.64993, 52.5784 ], [ 13.64843, 52.5774 ], [ 13.64814, 52.57712 ], [ 13.648, 52.57683 ], [ 13.64674, 52.57677 ], [ 13.64664, 52.57694 ], [ 13.64529, 52.57687 ], [ 13.64524, 52.57662 ], [ 13.64505, 52.57654 ], [ 13.64551, 52.57546 ], [ 13.64565, 52.57534 ], [ 13.64593, 52.5754 ], [ 13.64607, 52.57513 ], [ 13.64685, 52.57512 ], [ 13.64857, 52.57496 ], [ 13.65022, 52.57503 ], [ 13.65134, 52.5749 ], [ 13.65119, 52.57369 ], [ 13.65107, 52.57369 ], [ 13.65101, 52.57355 ], [ 13.6513, 52.57349 ], [ 13.65156, 52.57318 ], [ 13.65118, 52.57309 ], [ 13.651, 52.57289 ], [ 13.65133, 52.57262 ], [ 13.65159, 52.57254 ], [ 13.65181, 52.57263 ], [ 13.65177, 52.57279 ], [ 13.65187, 52.57293 ], [ 13.65224, 52.5727 ], [ 13.65215, 52.57264 ], [ 13.65223, 52.57258 ], [ 13.6528, 52.57233 ], [ 13.65296, 52.57231 ], [ 13.65268, 52.57168 ], [ 13.65265, 52.57142 ], [ 13.65231, 52.57121 ], [ 13.65217, 52.57078 ], [ 13.65213, 52.57038 ], [ 13.65197, 52.57021 ], [ 13.65132, 52.56983 ], [ 13.65111, 52.56947 ], [ 13.64778, 52.56965 ], [ 13.64733, 52.57016 ], [ 13.6472, 52.57017 ], [ 13.64702, 52.57045 ], [ 13.64873, 52.57098 ], [ 13.64915, 52.57143 ], [ 13.64917, 52.57175 ], [ 13.649, 52.57192 ], [ 13.64874, 52.57206 ], [ 13.64876, 52.57217 ], [ 13.64838, 52.57284 ], [ 13.64888, 52.57342 ], [ 13.64923, 52.57358 ], [ 13.64968, 52.5737 ], [ 13.64842, 52.57463 ], [ 13.64775, 52.57488 ], [ 13.64662, 52.57497 ], [ 13.64625, 52.57495 ], [ 13.64585, 52.5751 ], [ 13.64551, 52.5753 ], [ 13.64519, 52.57564 ], [ 13.64453, 52.57674 ], [ 13.64438, 52.57684 ], [ 13.64413, 52.57693 ], [ 13.64387, 52.57695 ], [ 13.64331, 52.57674 ], [ 13.64285, 52.57602 ], [ 13.6427, 52.57623 ], [ 13.64245, 52.57635 ], [ 13.64218, 52.57655 ], [ 13.64233, 52.57668 ], [ 13.64225, 52.57679 ], [ 13.64207, 52.57683 ], [ 13.64189, 52.57677 ], [ 13.64163, 52.57702 ], [ 13.64198, 52.5772 ], [ 13.6423, 52.57756 ], [ 13.6425, 52.57838 ], [ 13.64292, 52.57831 ], [ 13.64302, 52.57817 ], [ 13.64303, 52.57798 ], [ 13.64269, 52.57773 ], [ 13.6426, 52.57758 ], [ 13.64268, 52.57745 ], [ 13.64293, 52.57738 ], [ 13.64325, 52.5774 ], [ 13.64357, 52.57758 ], [ 13.64364, 52.57808 ], [ 13.64382, 52.5783 ], [ 13.64376, 52.57835 ], [ 13.64342, 52.57837 ], [ 13.64311, 52.57846 ], [ 13.64357, 52.57851 ], [ 13.64358, 52.5792 ], [ 13.64331, 52.57949 ], [ 13.64363, 52.57933 ], [ 13.64392, 52.57926 ], [ 13.6442, 52.57926 ], [ 13.64443, 52.57939 ], [ 13.64505, 52.57947 ], [ 13.6457, 52.57962 ], [ 13.64645, 52.58026 ], [ 13.64684, 52.58036 ], [ 13.64728, 52.5804 ], [ 13.6493, 52.58092 ], [ 13.64931, 52.58085 ], [ 13.6491, 52.58076 ], [ 13.64913, 52.58069 ], [ 13.64924, 52.58065 ] ], [ [ 13.6498, 52.57362 ], [ 13.65061, 52.57334 ], [ 13.6508, 52.57332 ], [ 13.65088, 52.57337 ], [ 13.65077, 52.57351 ], [ 13.65029, 52.57361 ], [ 13.6499, 52.57375 ], [ 13.6498, 52.57376 ], [ 13.64968, 52.5737 ], [ 13.6498, 52.57362 ] ], [ [ 13.6502, 52.56996 ], [ 13.65027, 52.57007 ], [ 13.65019, 52.57017 ], [ 13.65001, 52.57022 ], [ 13.64984, 52.57017 ], [ 13.64977, 52.57006 ], [ 13.64984, 52.56995 ], [ 13.65002, 52.56991 ], [ 13.6502, 52.56996 ] ], [ [ 13.65027, 52.57472 ], [ 13.65034, 52.57483 ], [ 13.65026, 52.57494 ], [ 13.65008, 52.57498 ], [ 13.64991, 52.57493 ], [ 13.64984, 52.57482 ], [ 13.64991, 52.57472 ], [ 13.65009, 52.57467 ], [ 13.65027, 52.57472 ] ], [ [ 13.64644, 52.57865 ], [ 13.64651, 52.57876 ], [ 13.64643, 52.57887 ], [ 13.64626, 52.57891 ], [ 13.64608, 52.57886 ], [ 13.64601, 52.57876 ], [ 13.64609, 52.57865 ], [ 13.64627, 52.57861 ], [ 13.64644, 52.57865 ] ], [ [ 13.64232, 52.57692 ], [ 13.64239, 52.57703 ], [ 13.64231, 52.57713 ], [ 13.64213, 52.57718 ], [ 13.64195, 52.57713 ], [ 13.64188, 52.57702 ], [ 13.64196, 52.57691 ], [ 13.64214, 52.57687 ], [ 13.64232, 52.57692 ] ], [ [ 13.64975, 52.57238 ], [ 13.64982, 52.57249 ], [ 13.64975, 52.57259 ], [ 13.64957, 52.57264 ], [ 13.64939, 52.57259 ], [ 13.64932, 52.57248 ], [ 13.6494, 52.57238 ], [ 13.64958, 52.57233 ], [ 13.64975, 52.57238 ] ], [ [ 13.64428, 52.57888 ], [ 13.64435, 52.57899 ], [ 13.64427, 52.5791 ], [ 13.64409, 52.57914 ], [ 13.64392, 52.5791 ], [ 13.64385, 52.57899 ], [ 13.64392, 52.57888 ], [ 13.6441, 52.57884 ], [ 13.64428, 52.57888 ] ], [ [ 13.64671, 52.57966 ], [ 13.64713, 52.57962 ], [ 13.64756, 52.57976 ], [ 13.64827, 52.57984 ], [ 13.64827, 52.57992 ], [ 13.6482, 52.57997 ], [ 13.64781, 52.57996 ], [ 13.64698, 52.57978 ], [ 13.6469, 52.57981 ], [ 13.64691, 52.57994 ], [ 13.6471, 52.58009 ], [ 13.64705, 52.58014 ], [ 13.64667, 52.58009 ], [ 13.64656, 52.57999 ], [ 13.64667, 52.57992 ], [ 13.64671, 52.57966 ] ], [ [ 13.65042, 52.57015 ], [ 13.6505, 52.57014 ], [ 13.65078, 52.57043 ], [ 13.65092, 52.57044 ], [ 13.65107, 52.5704 ], [ 13.65103, 52.57015 ], [ 13.65139, 52.57007 ], [ 13.65164, 52.5702 ], [ 13.65194, 52.5705 ], [ 13.65201, 52.571 ], [ 13.65238, 52.57147 ], [ 13.65233, 52.57155 ], [ 13.65218, 52.57156 ], [ 13.65208, 52.57153 ], [ 13.65203, 52.57134 ], [ 13.65184, 52.57135 ], [ 13.65184, 52.57212 ], [ 13.65173, 52.57213 ], [ 13.65161, 52.57205 ], [ 13.65155, 52.57144 ], [ 13.65132, 52.57102 ], [ 13.65057, 52.57049 ], [ 13.65042, 52.57028 ], [ 13.65042, 52.57015 ] ] ] } },
{ "type": "Feature", "properties": { "boden": "100 % mittel, frisch (M1)" }, "geometry": { "type": "Polygon", "coordinates": [ [ [ 13.64912, 52.57698 ], [ 13.64894, 52.57702 ], [ 13.64886, 52.57713 ], [ 13.64893, 52.57724 ], [ 13.64911, 52.57729 ], [ 13.64928, 52.57724 ], [ 13.64936, 52.57714 ], [ 13.64929, 52.57703 ], [ 13.64912, 52.57698 ] ] ] } },
{ "type": "Feature", "properties": { "boden": "100 % reich, nass (ÜR1)" }, "geometry": { "type": "Polygon", "coordinates": [ [ [ 13.647, 52.57795 ], [ 13.64854, 52.57901 ], [ 13.64894, 52.5792 ], [ 13.64923, 52.57906 ], [ 13.64924, 52.57895 ], [ 13.64872, 52.57864 ], [ 13.64827, 52.57845 ], [ 13.64781, 52.57808 ], [ 13.64816, 52.57798 ], [ 13.64761, 52.57767 ], [ 13.64674, 52.57742 ], [ 13.64623, 52.57736 ], [ 13.64501, 52.57707 ], [ 13.64587, 52.57812 ], [ 13.64639, 52.57789 ], [ 13.647, 52.57795 ] ] ] } },
{ "type": "Feature", "properties": { "boden": "100 % mittel, frisch (M1)" }, "geometry": { "type": "Polygon", "coordinates": [ [ [ 13.64627, 52.57861 ], [ 13.64609, 52.57865 ], [ 13.64601, 52.57876 ], [ 13.64608, 52.57886 ], [ 13.64626, 52.57891 ], [ 13.64643, 52.57887 ], [ 13.64651, 52.57876 ], [ 13.64644, 52.57865 ], [ 13.64627, 52.57861 ] ] ] } },
{ "type": "Feature", "properties": { "boden": "100 % mittel, frisch (M1)" }, "geometry": { "type": "Polygon", "coordinates": [ [ [ 13.648, 52.57683 ], [ 13.64814, 52.57712 ], [ 13.64843, 52.5774 ], [ 13.64993, 52.5784 ], [ 13.65015, 52.57859 ], [ 13.65022, 52.57879 ], [ 13.65019, 52.57898 ], [ 13.65012, 52.57911 ], [ 13.64979, 52.57928 ], [ 13.64952, 52.57931 ], [ 13.64921, 52.57928 ], [ 13.64854, 52.57901 ], [ 13.64722, 52.57809 ], [ 13.64692, 52.57815 ], [ 13.64667, 52.57829 ], [ 13.64657, 52.57847 ], [ 13.64675, 52.57883 ], [ 13.64741, 52.5794 ], [ 13.6478, 52.57959 ], [ 13.64827, 52.57968 ], [ 13.64924, 52.58065 ], [ 13.64995, 52.58046 ], [ 13.64999, 52.58037 ], [ 13.64982, 52.58016 ], [ 13.64998, 52.58006 ], [ 13.65048, 52.58014 ], [ 13.65068, 52.58047 ], [ 13.65062, 52.58064 ], [ 13.65066, 52.58072 ], [ 13.65102, 52.5808 ], [ 13.65215, 52.5807 ], [ 13.65276, 52.58033 ], [ 13.65237, 52.58006 ], [ 13.65345, 52.57952 ], [ 13.65089, 52.57942 ], [ 13.65072, 52.5795 ], [ 13.65039, 52.5792 ], [ 13.65059, 52.57869 ], [ 13.65107, 52.5787 ], [ 13.65104, 52.57827 ], [ 13.6511, 52.57803 ], [ 13.65142, 52.57799 ], [ 13.65195, 52.57824 ], [ 13.65326, 52.57823 ], [ 13.65334, 52.57742 ], [ 13.65285, 52.57741 ], [ 13.65291, 52.57709 ], [ 13.65205, 52.57705 ], [ 13.65182, 52.57718 ], [ 13.65149, 52.57718 ], [ 13.65019, 52.5771 ], [ 13.65005, 52.57695 ], [ 13.648, 52.57683 ] ], [ [ 13.64936, 52.57714 ], [ 13.64928, 52.57724 ], [ 13.64911, 52.57729 ], [ 13.64893, 52.57724 ], [ 13.64886, 52.57713 ], [ 13.64894, 52.57702 ], [ 13.64912, 52.57698 ], [ 13.64929, 52.57703 ], [ 13.64936, 52.57714 ] ], [ [ 13.65167, 52.58029 ], [ 13.65159, 52.5804 ], [ 13.65142, 52.58044 ], [ 13.65124, 52.58039 ], [ 13.65117, 52.58029 ], [ 13.65127, 52.58017 ], [ 13.65119, 52.58017 ], [ 13.65128, 52.57997 ], [ 13.65154, 52.57991 ], [ 13.65201, 52.58005 ], [ 13.65217, 52.58017 ], [ 13.65197, 52.58034 ], [ 13.65174, 52.58021 ], [ 13.65161, 52.5802 ], [ 13.65167, 52.58029 ] ] ] } },
{ "type": "Feature", "properties": { "boden": "100 % kräftig, frisch (K1w)" }, "geometry": { "type": "Polygon", "coordinates": [ [ [ 13.61393, 52.5587 ], [ 13.61357, 52.5587 ], [ 13.6135, 52.5588 ], [ 13.61357, 52.55891 ], [ 13.61374, 52.55896 ], [ 13.61392, 52.55892 ], [ 13.614, 52.55881 ], [ 13.61393, 52.5587 ] ] ] } },
{ "type": "Feature", "properties": { "boden": "100 % kräftig, frisch (K1w)" }, "geometry": { "type": "Polygon", "coordinates": [ [ [ 13.61387, 52.55869 ], [ 13.614, 52.55881 ], [ 13.61392, 52.55892 ], [ 13.61374, 52.55896 ], [ 13.61357, 52.55891 ], [ 13.6135, 52.5588 ], [ 13.61357, 52.5587 ], [ 13.61369, 52.55867 ], [ 13.61209, 52.5587 ], [ 13.61206, 52.55878 ], [ 13.61339, 52.55879 ], [ 13.61381, 52.5591 ], [ 13.61325, 52.56118 ], [ 13.61468, 52.56207 ], [ 13.61497, 52.56192 ], [ 13.61502, 52.56215 ], [ 13.61673, 52.56311 ], [ 13.61683, 52.56302 ], [ 13.6171, 52.56318 ], [ 13.61881, 52.56217 ], [ 13.61626, 52.56129 ], [ 13.61546, 52.56177 ], [ 13.61424, 52.55893 ], [ 13.61407, 52.5587 ], [ 13.61387, 52.55869 ] ], [ [ 13.61667, 52.5617 ], [ 13.6166, 52.56182 ], [ 13.61642, 52.56186 ], [ 13.61625, 52.56182 ], [ 13.61618, 52.56171 ], [ 13.61625, 52.5616 ], [ 13.61643, 52.56156 ], [ 13.61661, 52.5616 ], [ 13.61667, 52.5617 ] ] ] } },
{ "type": "Feature", "properties": { "boden": "100 % kräftig, frisch (K1w)" }, "geometry": { "type": "Polygon", "coordinates": [ [ [ 13.61643, 52.56156 ], [ 13.61625, 52.5616 ], [ 13.61618, 52.56171 ], [ 13.61625, 52.56182 ], [ 13.61642, 52.56186 ], [ 13.6166, 52.56182 ], [ 13.61668, 52.56171 ], [ 13.61661, 52.5616 ], [ 13.61643, 52.56156 ] ] ] } },
{ "type": "Feature", "properties": { "boden": "100 % kräftig, mäßig frisch (K2)" }, "geometry": { "type": "Polygon", "coordinates": [ [ [ 13.61233, 52.59986 ], [ 13.61197, 52.59984 ], [ 13.61189, 52.59995 ], [ 13.61196, 52.60006 ], [ 13.61214, 52.60011 ], [ 13.61232, 52.60006 ], [ 13.61239, 52.59996 ], [ 13.61233, 52.59986 ] ] ] } },
{ "type": "Feature", "properties": { "boden": "100 % mittel, frisch (M1)" }, "geometry": { "type": "Polygon", "coordinates": [ [ [ 13.64693, 52.56955 ], [ 13.64437, 52.56964 ], [ 13.64505, 52.56989 ], [ 13.64631, 52.57025 ], [ 13.64693, 52.56955 ] ] ] } },
{ "type": "Feature", "properties": { "boden": "100 % ziemlich arm, mäßig frisch (Z+2)" }, "geometry": { "type": "Polygon", "coordinates": [ [ [ 13.64724, 52.57413 ], [ 13.64729, 52.57359 ], [ 13.64724, 52.57329 ], [ 13.64699, 52.57278 ], [ 13.64668, 52.57249 ], [ 13.6466, 52.5727 ], [ 13.64627, 52.5732 ], [ 13.64575, 52.57377 ], [ 13.64513, 52.57425 ], [ 13.64609, 52.57447 ], [ 13.64654, 52.57425 ], [ 13.64672, 52.57422 ], [ 13.64709, 52.57431 ], [ 13.64724, 52.57413 ] ] ] } },
{ "type": "Feature", "properties": { "boden": "100 % kräftig, nass (NK1)" }, "geometry": { "type": "Polygon", "coordinates": [ [ [ 13.64414, 52.57538 ], [ 13.64396, 52.57542 ], [ 13.64389, 52.57553 ], [ 13.64396, 52.57564 ], [ 13.64413, 52.57568 ], [ 13.64431, 52.57564 ], [ 13.64439, 52.57553 ], [ 13.64432, 52.57542 ], [ 13.64414, 52.57538 ] ] ] } },
{ "type": "Feature", "properties": { "boden": "100 % kräftig, nass (NK1)" }, "geometry": { "type": "Polygon", "coordinates": [ [ [ 13.64414, 52.57579 ], [ 13.64396, 52.57584 ], [ 13.64389, 52.57594 ], [ 13.64396, 52.57605 ], [ 13.64413, 52.5761 ], [ 13.64431, 52.57606 ], [ 13.64439, 52.57595 ], [ 13.64432, 52.57584 ], [ 13.64414, 52.57579 ] ] ] } },
{ "type": "Feature", "properties": { "boden": "100 % mittel, frisch (M1)" }, "geometry": { "type": "Polygon", "coordinates": [ [ [ 13.64189, 52.57677 ], [ 13.64207, 52.57683 ], [ 13.64225, 52.57679 ], [ 13.64233, 52.57668 ], [ 13.64226, 52.57657 ], [ 13.64218, 52.57655 ], [ 13.64189, 52.57677 ] ] ] } },
{ "type": "Feature", "properties": { "boden": "100 % mittel, frisch (M1)" }, "geometry": { "type": "Polygon", "coordinates": [ [ [ 13.64214, 52.57687 ], [ 13.64196, 52.57691 ], [ 13.64188, 52.57702 ], [ 13.64195, 52.57713 ], [ 13.64213, 52.57718 ], [ 13.64231, 52.57713 ], [ 13.64239, 52.57703 ], [ 13.64232, 52.57692 ], [ 13.64214, 52.57687 ] ] ] } },
{ "type": "Feature", "properties": { "boden": "100 % mittel, frisch (M1)" }, "geometry": { "type": "Polygon", "coordinates": [ [ [ 13.6441, 52.57884 ], [ 13.64392, 52.57888 ], [ 13.64385, 52.57899 ], [ 13.64392, 52.5791 ], [ 13.64409, 52.57914 ], [ 13.64427, 52.5791 ], [ 13.64435, 52.57899 ], [ 13.64428, 52.57888 ], [ 13.6441, 52.57884 ] ] ] } },
{ "type": "Feature", "properties": { "boden": "100 % mittel, mäßig frisch (M2g)" }, "geometry": { "type": "Polygon", "coordinates": [ [ [ 13.6364, 52.58127 ], [ 13.63683, 52.58172 ], [ 13.63692, 52.5816 ], [ 13.63717, 52.58164 ], [ 13.63756, 52.58079 ], [ 13.63718, 52.58077 ], [ 13.63682, 52.5805 ], [ 13.63593, 52.58106 ], [ 13.6364, 52.58127 ] ] ] } },
{ "type": "Feature", "properties": { "boden": "100 % ziemlich arm, mäßig frisch (Z2)" }, "geometry": { "type": "Polygon", "coordinates": [ [ [ 13.63683, 52.58172 ], [ 13.6364, 52.58127 ], [ 13.63593, 52.58106 ], [ 13.63384, 52.58245 ], [ 13.63583, 52.58285 ], [ 13.63578, 52.58301 ], [ 13.63424, 52.5828 ], [ 13.63342, 52.58273 ], [ 13.63311, 52.58291 ], [ 13.63297, 52.58309 ], [ 13.63234, 52.58346 ], [ 13.63115, 52.58431 ], [ 13.63278, 52.58451 ], [ 13.63463, 52.58496 ], [ 13.63466, 52.58466 ], [ 13.63706, 52.58405 ], [ 13.63734, 52.58391 ], [ 13.63748, 52.58367 ], [ 13.63749, 52.58319 ], [ 13.63718, 52.58315 ], [ 13.63737, 52.58251 ], [ 13.63704, 52.58253 ], [ 13.63666, 52.58193 ], [ 13.63683, 52.58172 ] ] ] } },
{ "type": "Feature", "properties": { "boden": "100 % mittel, mäßig frisch (M2g)" }, "geometry": { "type": "Polygon", "coordinates": [ [ [ 13.63081, 52.58189 ], [ 13.63097, 52.58172 ], [ 13.63121, 52.58181 ], [ 13.63171, 52.58158 ], [ 13.63232, 52.58142 ], [ 13.63526, 52.58106 ], [ 13.6361, 52.58047 ], [ 13.63636, 52.58019 ], [ 13.63614, 52.57998 ], [ 13.63496, 52.58031 ], [ 13.6347, 52.5805 ], [ 13.63315, 52.58088 ], [ 13.63168, 52.58116 ], [ 13.63108, 52.58103 ], [ 13.63115, 52.58113 ], [ 13.63107, 52.58124 ], [ 13.6309, 52.58128 ], [ 13.63072, 52.58123 ], [ 13.63065, 52.58113 ], [ 13.6308, 52.581 ], [ 13.63037, 52.581 ], [ 13.63005, 52.58118 ], [ 13.62982, 52.58108 ], [ 13.62963, 52.58121 ], [ 13.62916, 52.58178 ], [ 13.62894, 52.58219 ], [ 13.62962, 52.58224 ], [ 13.62994, 52.58233 ], [ 13.63086, 52.58191 ], [ 13.63081, 52.58189 ] ] ] } },
{ "type": "Feature", "properties": { "boden": "100 % mittel, mäßig frisch (M2g)" }, "geometry": { "type": "Polygon", "coordinates": [ [ [ 13.6308, 52.581 ], [ 13.63065, 52.58113 ], [ 13.63072, 52.58123 ], [ 13.6309, 52.58128 ], [ 13.63107, 52.58124 ], [ 13.63115, 52.58113 ], [ 13.63108, 52.58103 ], [ 13.6308, 52.581 ] ] ] } },
{ "type": "Feature", "properties": { "boden": "100 % ziemlich arm, mäßig frisch (Z2)" }, "geometry": { "type": "Polygon", "coordinates": [ [ [ 13.63526, 52.58106 ], [ 13.63232, 52.58142 ], [ 13.63171, 52.58158 ], [ 13.63121, 52.58181 ], [ 13.63181, 52.582 ], [ 13.63339, 52.58234 ], [ 13.63526, 52.58106 ] ] ] } },
{ "type": "Feature", "properties": { "boden": "100 % ziemlich arm, mäßig frisch (Z2)" }, "geometry": { "type": "Polygon", "coordinates": [ [ [ 13.63209, 52.58316 ], [ 13.63308, 52.58256 ], [ 13.63198, 52.58231 ], [ 13.63211, 52.5824 ], [ 13.63255, 52.58258 ], [ 13.63263, 52.58269 ], [ 13.63256, 52.58281 ], [ 13.63202, 52.5831 ], [ 13.63193, 52.58323 ], [ 13.63142, 52.58353 ], [ 13.63137, 52.58361 ], [ 13.63175, 52.58344 ], [ 13.63209, 52.58316 ] ] ] } },
{ "type": "Feature", "properties": { "boden": "100 % ziemlich arm, mäßig frisch (Z2)" }, "geometry": { "type": "Polygon", "coordinates": [ [ [ 13.63262, 52.58285 ], [ 13.63209, 52.58316 ], [ 13.63175, 52.58344 ], [ 13.63137, 52.58361 ], [ 13.63142, 52.58353 ], [ 13.63193, 52.58323 ], [ 13.63202, 52.5831 ], [ 13.63256, 52.58281 ], [ 13.63263, 52.58269 ], [ 13.63255, 52.58258 ], [ 13.63211, 52.5824 ], [ 13.63198, 52.58231 ], [ 13.63086, 52.58191 ], [ 13.62994, 52.58233 ], [ 13.62993, 52.58251 ], [ 13.62965, 52.58282 ], [ 13.62953, 52.58319 ], [ 13.62934, 52.58346 ], [ 13.62937, 52.58421 ], [ 13.63009, 52.58426 ], [ 13.63066, 52.58423 ], [ 13.63262, 52.58285 ] ] ] } },
{ "type": "Feature", "properties": { "boden": "100 % mittel, mäßig frisch (M2g)" }, "geometry": { "type": "Polygon", "coordinates": [ [ [ 13.63066, 52.58423 ], [ 13.63009, 52.58426 ], [ 13.62937, 52.58421 ], [ 13.62925, 52.5844 ], [ 13.62968, 52.58459 ], [ 13.62961, 52.58495 ], [ 13.63066, 52.58423 ] ] ] } },
{ "type": "Feature", "properties": { "boden": "100 % mittel, mäßig frisch (M2g)" }, "geometry": { "type": "Polygon", "coordinates": [ [ [ 13.63463, 52.58496 ], [ 13.63278, 52.58451 ], [ 13.63115, 52.58431 ], [ 13.6285, 52.58623 ], [ 13.63013, 52.58667 ], [ 13.63053, 52.58615 ], [ 13.63248, 52.5867 ], [ 13.63352, 52.58601 ], [ 13.63427, 52.58569 ], [ 13.63449, 52.58548 ], [ 13.6346, 52.58526 ], [ 13.63463, 52.58496 ] ], [ [ 13.63187, 52.58448 ], [ 13.63244, 52.58463 ], [ 13.63341, 52.58472 ], [ 13.63317, 52.58523 ], [ 13.63313, 52.58605 ], [ 13.63081, 52.58588 ], [ 13.63187, 52.58448 ] ] ] } },
{ "type": "Feature", "properties": { "boden": "100 % mittel, frisch (M1)" }, "geometry": { "type": "Polygon", "coordinates": [ [ [ 13.65127, 52.58017 ], [ 13.65117, 52.58029 ], [ 13.65124, 52.58039 ], [ 13.65142, 52.58044 ], [ 13.65159, 52.5804 ], [ 13.65167, 52.58029 ], [ 13.65161, 52.5802 ], [ 13.65127, 52.58017 ] ] ] } },
{ "type": "Feature", "properties": { "boden": "100 % kräftig, nass (NK0)" }, "geometry": { "type": "Polygon", "coordinates": [ [ [ 13.65689, 52.58649 ], [ 13.65697, 52.58677 ], [ 13.65695, 52.58715 ], [ 13.65704, 52.58722 ], [ 13.65726, 52.58719 ], [ 13.65746, 52.58702 ], [ 13.65728, 52.58665 ], [ 13.65733, 52.58653 ], [ 13.65689, 52.58649 ] ] ] } },
{ "type": "Feature", "properties": { "boden": "100 % kräftig, nass (NK0)" }, "geometry": { "type": "Polygon", "coordinates": [ [ [ 13.65646, 52.58665 ], [ 13.65617, 52.58679 ], [ 13.65602, 52.58693 ], [ 13.65601, 52.58738 ], [ 13.65625, 52.58751 ], [ 13.65643, 52.58749 ], [ 13.6566, 52.58728 ], [ 13.65639, 52.58699 ], [ 13.65653, 52.58676 ], [ 13.65646, 52.58665 ] ] ] } },
{ "type": "Feature", "properties": { "boden": "100 % kräftig, nass (NK0)" }, "geometry": { "type": "Polygon", "coordinates": [ [ [ 13.65486, 52.58682 ], [ 13.65409, 52.58727 ], [ 13.65359, 52.58784 ], [ 13.65392, 52.5881 ], [ 13.6546, 52.58733 ], [ 13.65502, 52.58695 ], [ 13.65514, 52.58692 ], [ 13.65486, 52.58682 ] ] ] } },
{ "type": "Feature", "properties": { "boden": "100 % kräftig, nass (NK0)" }, "geometry": { "type": "Polygon", "coordinates": [ [ [ 13.65867, 52.58752 ], [ 13.6584, 52.5875 ], [ 13.658, 52.58762 ], [ 13.65748, 52.58754 ], [ 13.6572, 52.58755 ], [ 13.65706, 52.5876 ], [ 13.65699, 52.58769 ], [ 13.65702, 52.58776 ], [ 13.65861, 52.58809 ], [ 13.65876, 52.588 ], [ 13.65867, 52.58752 ] ] ] } },
{ "type": "Feature", "properties": { "boden": "100 % mittel, frisch (M1)" }, "geometry": { "type": "Polygon", "coordinates": [ [ [ 13.65554, 52.58871 ], [ 13.65475, 52.58875 ], [ 13.6566, 52.59019 ], [ 13.65719, 52.59031 ], [ 13.65745, 52.59062 ], [ 13.65743, 52.59077 ], [ 13.6575, 52.5908 ], [ 13.65753, 52.59071 ], [ 13.65795, 52.59064 ], [ 13.65797, 52.5904 ], [ 13.65775, 52.59006 ], [ 13.65742, 52.58978 ], [ 13.65663, 52.58925 ], [ 13.65618, 52.58906 ], [ 13.65578, 52.58877 ], [ 13.65554, 52.58871 ] ] ] } },
{ "type": "Feature", "properties": { "boden": "100 % mittel, frisch (M1)" }, "geometry": { "type": "Polygon", "coordinates": [ [ [ 13.67115, 52.58621 ], [ 13.67082, 52.58665 ], [ 13.67053, 52.58735 ], [ 13.6711, 52.58771 ], [ 13.67151, 52.58774 ], [ 13.67156, 52.58615 ], [ 13.67115, 52.58621 ] ] ] } },
{ "type": "Feature", "properties": { "boden": "100 % mittel, frisch (M1)" }, "geometry": { "type": "Polygon", "coordinates": [ [ [ 13.67175, 52.57445 ], [ 13.6719, 52.57493 ], [ 13.67192, 52.57442 ], [ 13.67175, 52.57445 ] ] ] } },
{ "type": "Feature", "properties": { "boden": "100 % mittel, mäßig frisch (M+2)" }, "geometry": { "type": "Polygon", "coordinates": [ [ [ 13.67175, 52.57445 ], [ 13.67095, 52.57457 ], [ 13.6706, 52.57471 ], [ 13.67182, 52.57761 ], [ 13.6719, 52.57493 ], [ 13.67175, 52.57445 ] ] ] } },
{ "type": "Feature", "properties": { "boden": "100 % mittel, mäßig frisch (M+2)" }, "geometry": { "type": "Polygon", "coordinates": [ [ [ 13.67002, 52.57797 ], [ 13.6677, 52.57656 ], [ 13.66674, 52.57595 ], [ 13.6657, 52.57822 ], [ 13.66594, 52.57819 ], [ 13.66597, 52.57831 ], [ 13.67002, 52.57797 ] ], [ [ 13.66674, 52.57774 ], [ 13.66666, 52.57785 ], [ 13.66648, 52.57789 ], [ 13.66631, 52.57784 ], [ 13.66624, 52.57774 ], [ 13.66631, 52.57763 ], [ 13.66649, 52.57759 ], [ 13.66667, 52.57763 ], [ 13.66674, 52.57774 ] ] ] } },
{ "type": "Feature", "properties": { "boden": "100 % mittel, mäßig frisch (M+2)" }, "geometry": { "type": "Polygon", "coordinates": [ [ [ 13.66649, 52.57759 ], [ 13.66631, 52.57763 ], [ 13.66624, 52.57774 ], [ 13.66631, 52.57784 ], [ 13.66648, 52.57789 ], [ 13.66666, 52.57785 ], [ 13.66674, 52.57774 ], [ 13.66667, 52.57763 ], [ 13.66649, 52.57759 ] ] ] } },
{ "type": "Feature", "properties": { "boden": "100 % ziemlich arm, mäßig frisch (Z+2)" }, "geometry": { "type": "Polygon", "coordinates": [ [ [ 13.67158, 52.58549 ], [ 13.67115, 52.58621 ], [ 13.67156, 52.58615 ], [ 13.67158, 52.58549 ] ] ] } },
{ "type": "Feature", "properties": { "boden": "100 % mittel, mäßig frisch (M2)" }, "geometry": { "type": "Polygon", "coordinates": [ [ [ 13.67133, 52.58783 ], [ 13.67147, 52.58798 ], [ 13.67151, 52.588 ], [ 13.67151, 52.58774 ], [ 13.6711, 52.58771 ], [ 13.67133, 52.58783 ] ] ] } },
{ "type": "Feature", "properties": { "boden": "100 % kräftig, frisch (K1)" }, "geometry": { "type": "Polygon", "coordinates": [ [ [ 13.66266, 52.60519 ], [ 13.6623, 52.60625 ], [ 13.66405, 52.60613 ], [ 13.66435, 52.60525 ], [ 13.66266, 52.60519 ] ] ] } }
]
}
