{"type":"FeatureCollection","features":[{"type":"Feature","properties":{"art":"weg"},"geometry":{"type":"LineString","coordinates":[[13.58988,52.98201],[13.58835,52.97544],[13.58652,52.96761],[13.58651,52.96755],[13.58524,52.96286],[13.58508,52.96222],[13.58442,52.95967],[13.58422,52.95885],[13.58221,52.95187],[13.58001,52.94352],[13.57869,52.9372],[13.57862,52.93693],[13.57741,52.93193],[13.57706,52.93026],[13.57628,52.92713],[13.57626,52.92694],[13.57625,52.92678]]}},{"type":"Feature","properties":{"art":"strasse"},"geometry":{"type":"LineString","coordinates":[[13.58081,52.97775],[13.58104,52.9781]]}},{"type":"Feature","properties":{"art":"strasse"},"geometry":{"type":"LineString","coordinates":[[13.58104,52.9781],[13.58195,52.97946]]}},{"type":"Feature","properties":{"art":"strasse"},"geometry":{"type":"LineString","coordinates":[[13.58195,52.97946],[13.58258,52.98039],[13.58272,52.9806]]}},{"type":"Feature","properties":{"art":"pfad"},"geometry":{"type":"LineString","coordinates":[[13.56933,52.98206],[13.57509,52.98149],[13.57606,52.98117],[13.5769,52.98088],[13.5776,52.98068],[13.57832,52.98054],[13.57892,52.98044],[13.57948,52.98037],[13.58001,52.98039],[13.58104,52.9804],[13.58168,52.98039],[13.58258,52.98039]]}},{"type":"Feature","properties":{"art":"strasse"},"geometry":{"type":"LineString","coordinates":[[13.58272,52.9806],[13.58369,52.98205]]}},{"type":"Feature","properties":{"art":"pfad"},"geometry":{"type":"LineString","coordinates":[[13.58421,52.98281],[13.58355,52.98288],[13.58352,52.98306],[13.58361,52.98335],[13.58371,52.9836],[13.58371,52.98376],[13.58373,52.98401],[13.58291,52.98444],[13.58233,52.98473],[13.58207,52.9848],[13.57041,52.9858]]}},{"type":"Feature","properties":{"art":"strasse"},"geometry":{"type":"LineString","coordinates":[[13.58369,52.98205],[13.58421,52.98281],[13.58501,52.98402],[13.58641,52.98603],[13.58847,52.98913],[13.5897,52.99099],[13.59103,52.99296],[13.59114,52.99313],[13.59174,52.99405]]}},{"type":"Feature","properties":{"art":"strasse"},"geometry":{"type":"LineString","coordinates":[[13.59186,52.99423],[13.59197,52.9944],[13.59244,52.9951],[13.59298,52.99591]]}},{"type":"Feature","properties":{"art":"pfad"},"geometry":{"type":"LineString","coordinates":[[13.61953,52.97931],[13.61909,52.97759],[13.61787,52.97284],[13.61774,52.97236],[13.61569,52.96492],[13.61347,52.95683],[13.6132,52.95584],[13.61147,52.94918],[13.60928,52.94095],[13.60888,52.9392]]}},{"type":"Feature","properties":{"art":"pfad"},"geometry":{"type":"LineString","coordinates":[[13.60861,52.96106],[13.60951,52.96548],[13.61071,52.96931],[13.61098,52.96962],[13.61774,52.97236]]}},{"type":"Feature","properties":{"art":"weg"},"geometry":{"type":"LineString","coordinates":[[13.63424,52.97144],[13.6331,52.97154],[13.62751,52.97202],[13.62227,52.97247],[13.61894,52.97275],[13.61787,52.97284],[13.61206,52.97334],[13.60649,52.97382],[13.60093,52.97433],[13.59632,52.97476],[13.59526,52.97485],[13.58835,52.97544],[13.5798,52.97623]]}},{"type":"Feature","properties":{"art":"pfad"},"geometry":{"type":"LineString","coordinates":[[13.6043,52.96596],[13.60462,52.96758],[13.60552,52.97061],[13.60649,52.97382],[13.60847,52.9804],[13.61058,52.98753]]}},{"type":"Feature","properties":{"art":"pfad"},"geometry":{"type":"LineString","coordinates":[[13.61071,52.96931],[13.61206,52.97334],[13.614,52.97985],[13.61532,52.98407],[13.61544,52.98448]]}},{"type":"Feature","properties":{"art":"weg"},"geometry":{"type":"LineString","coordinates":[[13.58967,52.98226],[13.59725,52.98151],[13.60294,52.98095],[13.60847,52.9804],[13.614,52.97985],[13.61953,52.97931],[13.62392,52.97885],[13.62912,52.97834],[13.62985,52.97827]]}},{"type":"Feature","properties":{"art":"weg"},"geometry":{"type":"LineString","coordinates":[[13.60502,52.98792],[13.60294,52.98095]]}},{"type":"Feature","properties":{"art":"weg"},"geometry":{"type":"LineString","coordinates":[[13.61058,52.98753],[13.61005,52.98762],[13.60569,52.98788],[13.60502,52.98792],[13.60485,52.98793],[13.60362,52.98778],[13.60198,52.98758],[13.59916,52.98725]]}},{"type":"Feature","properties":{"art":"pfad"},"geometry":{"type":"LineString","coordinates":[[13.60883,52.99293],[13.60671,52.99211]]}},{"type":"Feature","properties":{"art":"weg"},"geometry":{"type":"LineString","coordinates":[[13.61058,52.98753],[13.61036,52.98764],[13.60681,52.99199],[13.60671,52.99211],[13.60583,52.9932],[13.60578,52.99325],[13.60359,52.99593],[13.6024,52.99763]]}},{"type":"Feature","properties":{"art":"pfad"},"geometry":{"type":"LineString","coordinates":[[13.59417,52.95078],[13.59475,52.95272],[13.59643,52.95854],[13.59869,52.96644],[13.59964,52.97029],[13.59975,52.97098],[13.60093,52.97433],[13.60136,52.97577],[13.60195,52.97773]]}},{"type":"Feature","properties":{"art":"weg"},"geometry":{"type":"LineString","coordinates":[[13.58864,52.9513],[13.59089,52.95911],[13.5915,52.96132],[13.59207,52.96185],[13.59206,52.96214],[13.5919,52.9626],[13.59226,52.96393],[13.59299,52.96696],[13.59407,52.97073],[13.59526,52.97485],[13.59551,52.97567],[13.59725,52.98151],[13.59916,52.98725]]}},{"type":"Feature","properties":{"art":"weg"},"geometry":{"type":"LineString","coordinates":[[13.59407,52.97073],[13.59964,52.97029]]}},{"type":"Feature","properties":{"art":"weg"},"geometry":{"type":"LineString","coordinates":[[13.58641,52.98603],[13.58668,52.98572],[13.58808,52.98417],[13.58967,52.98226],[13.58988,52.98201],[13.59551,52.97567],[13.59632,52.97476],[13.59975,52.97098],[13.6043,52.96596]]}},{"type":"Feature","properties":{"art":"pfad"},"geometry":{"type":"LineString","coordinates":[[13.60294,52.98095],[13.60195,52.97773]]}},{"type":"Feature","properties":{"art":"weg"},"geometry":{"type":"LineString","coordinates":[[13.59916,52.98725],[13.59828,52.98714],[13.59495,52.98663],[13.59421,52.98646],[13.59349,52.98623],[13.59288,52.98594],[13.59182,52.98561],[13.59052,52.98548],[13.58917,52.98544],[13.58713,52.98564],[13.58668,52.98572]]}},{"type":"Feature","properties":{"art":"pfad"},"geometry":{"type":"LineString","coordinates":[[13.60198,52.98758],[13.60145,52.98758],[13.60103,52.98759],[13.60056,52.98754],[13.59987,52.98746],[13.59937,52.98746],[13.59895,52.98754],[13.59857,52.98761],[13.59821,52.98765],[13.59785,52.98763],[13.59757,52.98765],[13.59731,52.98774],[13.59699,52.9877],[13.59659,52.98758],[13.59635,52.98745],[13.59589,52.98721],[13.59555,52.98703],[13.5953,52.98685],[13.59492,52.9867],[13.59421,52.98646]]}},{"type":"Feature","properties":{"art":"pfad"},"geometry":{"type":"LineString","coordinates":[[13.59488,52.99251],[13.59525,52.99254],[13.59566,52.99253],[13.5965,52.99246],[13.59694,52.99247],[13.5973,52.99248],[13.59762,52.99245],[13.59794,52.99241],[13.59842,52.99231],[13.59883,52.99225],[13.59913,52.99223],[13.59959,52.99222],[13.60016,52.99221],[13.60082,52.99224],[13.60328,52.99225],[13.60603,52.99199],[13.60681,52.99199]]}},{"type":"Feature","properties":{"art":"strasse"},"geometry":{"type":"LineString","coordinates":[[13.59114,52.99313],[13.59122,52.99311],[13.59172,52.99315],[13.5924,52.99316],[13.59286,52.99316],[13.59312,52.9931],[13.59337,52.993],[13.59389,52.99277],[13.59488,52.99251],[13.59479,52.99231]]}},{"type":"Feature","properties":{"art":"weg"},"geometry":{"type":"LineString","coordinates":[[13.59442,52.99398],[13.59473,52.99396],[13.59506,52.99393],[13.59528,52.99388],[13.59546,52.99382],[13.59577,52.99373],[13.59604,52.99364],[13.59625,52.99355],[13.59646,52.99342],[13.59661,52.99332],[13.59681,52.99319],[13.59705,52.99302],[13.59727,52.99284],[13.59746,52.99269],[13.59759,52.99257],[13.59772,52.9925],[13.59783,52.99245],[13.59794,52.99241]]}},{"type":"Feature","properties":{"art":"pfad"},"geometry":{"type":"LineString","coordinates":[[13.57647,52.99165],[13.5762,52.99134],[13.57618,52.99128],[13.57734,52.99023],[13.57713,52.9894]]}},{"type":"Feature","properties":{"art":"weg"},"geometry":{"type":"LineString","coordinates":[[13.57646,52.99203],[13.57617,52.99188],[13.57614,52.99172],[13.57647,52.99165],[13.57713,52.99149]]}},{"type":"Feature","properties":{"art":"pfad"},"geometry":{"type":"LineString","coordinates":[[13.576,52.98929],[13.57572,52.98949],[13.57519,52.9897],[13.57445,52.98998],[13.574,52.99014],[13.57373,52.99025],[13.5735,52.99048],[13.57333,52.99074],[13.57332,52.9909],[13.57339,52.99103],[13.57358,52.99115],[13.57379,52.99134],[13.57388,52.99142],[13.57388,52.99148],[13.57278,52.99437]]}},{"type":"Feature","properties":{"art":"weg"},"geometry":{"type":"LineString","coordinates":[[13.57253,52.99426],[13.57244,52.99435],[13.57209,52.99427]]}},{"type":"Feature","properties":{"art":"pfad"},"geometry":{"type":"LineString","coordinates":[[13.57272,52.99434],[13.57251,52.99466],[13.57235,52.99509],[13.57209,52.9954]]}},{"type":"Feature","properties":{"art":"strasse"},"geometry":{"type":"LineString","coordinates":[[13.59034,52.99295],[13.59062,52.99298],[13.5909,52.99299],[13.59103,52.99296]]}},{"type":"Feature","properties":{"art":"weg"},"geometry":{"type":"LineString","coordinates":[[13.57655,52.99402],[13.57661,52.99383],[13.57663,52.99379],[13.57667,52.99366]]}},{"type":"Feature","properties":{"art":"pfad"},"geometry":{"type":"LineString","coordinates":[[13.57663,52.99379],[13.57612,52.99362],[13.57539,52.99345]]}},{"type":"Feature","properties":{"art":"weg"},"geometry":{"type":"LineString","coordinates":[[13.57661,52.99383],[13.57706,52.99389]]}},{"type":"Feature","properties":{"art":"pfad"},"geometry":{"type":"LineString","coordinates":[[13.57751,52.99673],[13.57753,52.99666],[13.57766,52.99654],[13.57778,52.99638]]}},{"type":"Feature","properties":{"art":"strasse"},"geometry":{"type":"LineString","coordinates":[[13.59197,52.9944],[13.59241,52.99438]]}},{"type":"Feature","properties":{"art":"strasse"},"geometry":{"type":"LineString","coordinates":[[13.59287,52.99433],[13.59351,52.99414],[13.59404,52.99396]]}},{"type":"Feature","properties":{"art":"strasse"},"geometry":{"type":"LineString","coordinates":[[13.59351,52.99414],[13.59367,52.99431],[13.59371,52.9944]]}},{"type":"Feature","properties":{"art":"strasse"},"geometry":{"type":"LineString","coordinates":[[13.59371,52.9944],[13.59377,52.99454]]}},{"type":"Feature","properties":{"art":"strasse"},"geometry":{"type":"LineString","coordinates":[[13.59413,52.99452],[13.59432,52.99447],[13.59414,52.99429],[13.59371,52.9944]]}},{"type":"Feature","properties":{"art":"strasse"},"geometry":{"type":"LineString","coordinates":[[13.59432,52.99447],[13.59452,52.99454],[13.59477,52.99473]]}},{"type":"Feature","properties":{"art":"strasse"},"geometry":{"type":"LineString","coordinates":[[13.59353,52.99507],[13.59378,52.99511],[13.59389,52.99508],[13.5939,52.99501],[13.59383,52.99497],[13.59365,52.995],[13.5936,52.99501]]}},{"type":"Feature","properties":{"art":"strasse"},"geometry":{"type":"LineString","coordinates":[[13.59244,52.9951],[13.59302,52.99496]]}},{"type":"Feature","properties":{"art":"weg"},"geometry":{"type":"LineString","coordinates":[[13.59672,52.99558],[13.59715,52.99537],[13.59784,52.99516],[13.59852,52.99513],[13.59931,52.99522],[13.60041,52.99547],[13.60139,52.99571],[13.60174,52.99583],[13.60213,52.99593],[13.60274,52.99595],[13.60359,52.99593]]}},{"type":"Feature","properties":{"art":"pfad"},"geometry":{"type":"LineString","coordinates":[[13.59944,52.99669],[13.59857,52.99675],[13.5978,52.99705]]}},{"type":"Feature","properties":{"art":"strasse"},"geometry":{"type":"LineString","coordinates":[[13.59298,52.99591],[13.59519,52.99922],[13.59544,52.99958]]}},{"type":"Feature","properties":{"art":"pfad"},"geometry":{"type":"LineString","coordinates":[[13.5978,52.99705],[13.59733,52.99725],[13.5966,52.99765],[13.5961,52.99829],[13.59584,52.9987],[13.59578,52.99902],[13.59558,52.99912],[13.59519,52.99922]]}},{"type":"Feature","properties":{"art":"pfad"},"geometry":{"type":"LineString","coordinates":[[13.5978,52.99705],[13.5977,52.99722],[13.59721,52.99743],[13.59665,52.99775],[13.59622,52.99839],[13.59596,52.99896],[13.59586,52.99914],[13.59595,52.99925],[13.59634,52.99945]]}},{"type":"Feature","properties":{"art":"pfad"},"geometry":{"type":"LineString","coordinates":[[13.59578,52.99902],[13.59586,52.99914]]}},{"type":"Feature","properties":{"art":"pfad"},"geometry":{"type":"LineString","coordinates":[[13.59634,52.99945],[13.59641,52.99952]]}},{"type":"Feature","properties":{"art":"strasse"},"geometry":{"type":"LineString","coordinates":[[13.59544,52.99958],[13.59548,52.99964]]}},{"type":"Feature","properties":{"art":"pfad"},"geometry":{"type":"LineString","coordinates":[[13.59641,52.99952],[13.59644,52.99957]]}},{"type":"Feature","properties":{"art":"strasse"},"geometry":{"type":"LineString","coordinates":[[13.59548,52.99964],[13.5956,52.99982],[13.59561,52.99984]]}},{"type":"Feature","properties":{"art":"pfad"},"geometry":{"type":"LineString","coordinates":[[13.57663,52.99678],[13.57656,52.99625],[13.57655,52.99622],[13.57645,52.99605],[13.5763,52.99594],[13.57604,52.99578],[13.57505,52.9955],[13.57449,52.99532],[13.57415,52.9951],[13.57278,52.99437],[13.57272,52.99434],[13.57268,52.99431],[13.57253,52.99426]]}},{"type":"Feature","properties":{"art":"pfad"},"geometry":{"type":"LineString","coordinates":[[13.65963,52.98019],[13.65861,52.97622],[13.65771,52.97279],[13.65678,52.96906],[13.65578,52.96513],[13.65384,52.95748],[13.65317,52.95478],[13.65197,52.94996]]}},{"type":"Feature","properties":{"art":"pfad"},"geometry":{"type":"LineString","coordinates":[[13.65105,52.97105],[13.64955,52.96572]]}},{"type":"Feature","properties":{"art":"weg"},"geometry":{"type":"LineString","coordinates":[[13.65105,52.97105],[13.65184,52.97094],[13.65305,52.97068],[13.65432,52.97044],[13.65516,52.97029],[13.65548,52.97014],[13.65593,52.96993],[13.6562,52.96969],[13.65632,52.96944],[13.6565,52.96922],[13.65678,52.96906],[13.65707,52.96899],[13.65754,52.96898],[13.65792,52.9689],[13.65826,52.96879],[13.65863,52.96864],[13.65884,52.96846],[13.65909,52.96818],[13.65925,52.96798],[13.65961,52.96793],[13.66023,52.96791],[13.66259,52.96759],[13.66291,52.96753]]}},{"type":"Feature","properties":{"art":"weg"},"geometry":{"type":"LineString","coordinates":[[13.65032,52.97113],[13.65105,52.97105]]}},{"type":"Feature","properties":{"art":"pfad"},"geometry":{"type":"LineString","coordinates":[[13.63964,52.97164],[13.64198,52.97145],[13.64237,52.97153],[13.64318,52.9717],[13.6446,52.97184],[13.64858,52.97132],[13.65032,52.97113]]}},{"type":"Feature","properties":{"art":"weg"},"geometry":{"type":"LineString","coordinates":[[13.63186,52.97515],[13.63235,52.97511],[13.63872,52.97457],[13.63921,52.97472],[13.63945,52.97471],[13.63992,52.97462],[13.64033,52.97449],[13.64361,52.97413],[13.64517,52.97396],[13.64659,52.9738],[13.651,52.97328],[13.65148,52.97322],[13.65325,52.97306],[13.65361,52.9729],[13.65397,52.97262],[13.65467,52.97245],[13.65503,52.97241],[13.65535,52.97246],[13.65561,52.97264],[13.65597,52.97276],[13.65643,52.97291],[13.65771,52.97279],[13.66102,52.9725],[13.66409,52.97221],[13.6669,52.97184],[13.67017,52.97141],[13.683,52.97026],[13.68924,52.9697],[13.69546,52.96916],[13.70074,52.9687]]}},{"type":"Feature","properties":{"art":"pfad"},"geometry":{"type":"LineString","coordinates":[[13.64858,52.97132],[13.64778,52.97185],[13.64725,52.97222],[13.64677,52.97283],[13.64643,52.97318],[13.64659,52.9738]]}},{"type":"Feature","properties":{"art":"weg"},"geometry":{"type":"LineString","coordinates":[[13.65203,52.97547],[13.65167,52.97527],[13.65144,52.97517],[13.65129,52.97493],[13.65118,52.97432],[13.65108,52.9741],[13.65109,52.97368],[13.65111,52.97341],[13.651,52.97328],[13.65084,52.97289],[13.65059,52.97264],[13.6504,52.97234],[13.65019,52.97201],[13.65014,52.9719],[13.65012,52.97171],[13.6502,52.97146],[13.65032,52.97113]]}},{"type":"Feature","properties":{"art":"weg"},"geometry":{"type":"LineString","coordinates":[[13.66464,52.97441],[13.66065,52.97536],[13.66024,52.97604],[13.65861,52.97622]]}},{"type":"Feature","properties":{"art":"weg"},"geometry":{"type":"LineString","coordinates":[[13.65861,52.97622],[13.65815,52.9763],[13.65635,52.976],[13.65599,52.97602],[13.65553,52.97604],[13.6551,52.97618],[13.65344,52.976],[13.65294,52.9759],[13.65203,52.97547]]}},{"type":"Feature","properties":{"art":"pfad"},"geometry":{"type":"LineString","coordinates":[[13.6331,52.97154],[13.63106,52.96353],[13.62896,52.95525],[13.62691,52.94782]]}},{"type":"Feature","properties":{"art":"pfad"},"geometry":{"type":"LineString","coordinates":[[13.61424,52.94069],[13.61648,52.94867],[13.61721,52.95127],[13.61866,52.95629],[13.62042,52.96449],[13.62227,52.97247],[13.62309,52.97563],[13.62347,52.97712],[13.62392,52.97885]]}},{"type":"Feature","properties":{"art":"pfad"},"geometry":{"type":"LineString","coordinates":[[13.62751,52.97202],[13.62544,52.96404],[13.6233,52.9558],[13.62132,52.94822]]}},{"type":"Feature","properties":{"art":"pfad"},"geometry":{"type":"LineString","coordinates":[[13.64694,52.98138],[13.64644,52.97931],[13.64607,52.97775],[13.64543,52.97505],[13.64517,52.97396],[13.6446,52.97184],[13.64411,52.97],[13.64318,52.96633],[13.64165,52.95968]]}},{"type":"Feature","properties":{"art":"pfad"},"geometry":{"type":"LineString","coordinates":[[13.64361,52.97413],[13.64318,52.9717]]}},{"type":"Feature","properties":{"art":"pfad"},"geometry":{"type":"LineString","coordinates":[[13.6494,52.96574],[13.64411,52.97],[13.64281,52.97105],[13.64237,52.97153],[13.63945,52.97471],[13.63648,52.97847],[13.63388,52.98144],[13.633,52.98264]]}},{"type":"Feature","properties":{"art":"weg"},"geometry":{"type":"LineString","coordinates":[[13.61894,52.97275],[13.61956,52.9736],[13.62043,52.9745],[13.6212,52.97502],[13.62245,52.97555],[13.62309,52.97563]]}},{"type":"Feature","properties":{"art":"weg"},"geometry":{"type":"LineString","coordinates":[[13.64213,52.95892],[13.64165,52.95968],[13.63974,52.96274],[13.63715,52.96691],[13.63424,52.97144],[13.63186,52.97515],[13.62985,52.97827],[13.62931,52.97923],[13.62922,52.97941],[13.62913,52.97969],[13.62904,52.98033],[13.62757,52.98163],[13.62791,52.98314],[13.62925,52.98843],[13.62994,52.99098]]}},{"type":"Feature","properties":{"art":"weg"},"geometry":{"type":"LineString","coordinates":[[13.62931,52.97923],[13.62912,52.97834],[13.62751,52.97202]]}},{"type":"Feature","properties":{"art":"weg"},"geometry":{"type":"LineString","coordinates":[[13.61909,52.97759],[13.62347,52.97712]]}},{"type":"Feature","properties":{"art":"pfad"},"geometry":{"type":"LineString","coordinates":[[13.63729,52.97852],[13.64287,52.978],[13.64607,52.97775],[13.65246,52.97723],[13.65618,52.97685]]}},{"type":"Feature","properties":{"art":"pfad"},"geometry":{"type":"LineString","coordinates":[[13.6577,52.9828],[13.65712,52.98043],[13.65618,52.97685],[13.65599,52.97602],[13.65533,52.97332]]}},{"type":"Feature","properties":{"art":"weg"},"geometry":{"type":"LineString","coordinates":[[13.65398,52.9835],[13.65333,52.98079],[13.65304,52.9796],[13.65246,52.97723],[13.65203,52.97547]]}},{"type":"Feature","properties":{"art":"pfad"},"geometry":{"type":"LineString","coordinates":[[13.64287,52.978],[13.64504,52.97875],[13.64618,52.97917],[13.64644,52.97931],[13.64794,52.98007],[13.6497,52.98069],[13.651,52.981]]}},{"type":"Feature","properties":{"art":"weg"},"geometry":{"type":"LineString","coordinates":[[13.71132,52.96333],[13.71036,52.96376],[13.70913,52.9646],[13.70808,52.96612],[13.70688,52.96678],[13.70598,52.9672],[13.70508,52.96746],[13.70305,52.96741],[13.70267,52.96749],[13.70168,52.96804],[13.70074,52.9687],[13.69855,52.97078],[13.69673,52.97234],[13.69406,52.97418],[13.69125,52.97591],[13.68729,52.97714],[13.68562,52.97808],[13.68266,52.97891],[13.68077,52.97934],[13.67987,52.97948],[13.67887,52.97963],[13.67657,52.98009],[13.67452,52.98072],[13.67445,52.98076],[13.67063,52.98235],[13.66783,52.98322],[13.66696,52.98388],[13.66673,52.98421],[13.66609,52.98505],[13.66516,52.98639],[13.66465,52.98712],[13.66467,52.98828],[13.66478,52.99037],[13.66467,52.99103],[13.66454,52.99154],[13.66366,52.99197],[13.66083,52.9929],[13.66002,52.99324],[13.65878,52.99376],[13.65797,52.99428],[13.65738,52.99498],[13.6571,52.99585],[13.65693,52.99658],[13.65675,52.99741]]}},{"type":"Feature","properties":{"art":"pfad"},"geometry":{"type":"LineString","coordinates":[[13.65304,52.9796],[13.65422,52.98011],[13.65595,52.98054]]}},{"type":"Feature","properties":{"art":"pfad"},"geometry":{"type":"LineString","coordinates":[[13.66673,52.98421],[13.66622,52.98396],[13.66593,52.98363],[13.66559,52.98329],[13.66514,52.98311],[13.66417,52.98284],[13.66373,52.98239],[13.66326,52.98192],[13.66254,52.98165],[13.66148,52.98134],[13.66062,52.98119],[13.66021,52.98104],[13.65989,52.98089],[13.65977,52.98076],[13.65963,52.98019]]}},{"type":"Feature","properties":{"art":"weg"},"geometry":{"type":"LineString","coordinates":[[13.61058,52.98753],[13.61175,52.98592],[13.61544,52.98448],[13.61627,52.9843],[13.61697,52.98415],[13.62159,52.9837],[13.62791,52.98314],[13.633,52.98264],[13.63429,52.98253],[13.63798,52.9822],[13.64061,52.98193],[13.64124,52.9819],[13.64694,52.98138],[13.651,52.981],[13.65333,52.98079],[13.65595,52.98054],[13.65712,52.98043],[13.65963,52.98019],[13.66595,52.97962],[13.67072,52.97919],[13.67232,52.97905],[13.67867,52.9784],[13.68479,52.97777],[13.68562,52.97808]]}},{"type":"Feature","properties":{"art":"pfad"},"geometry":{"type":"LineString","coordinates":[[13.65825,52.98413],[13.65873,52.98399],[13.65913,52.98383],[13.65948,52.98368]]}},{"type":"Feature","properties":{"art":"pfad"},"geometry":{"type":"LineString","coordinates":[[13.65415,52.98423],[13.65398,52.9835]]}},{"type":"Feature","properties":{"art":"weg"},"geometry":{"type":"LineString","coordinates":[[13.62757,52.98163],[13.62722,52.98035]]}},{"type":"Feature","properties":{"art":"weg"},"geometry":{"type":"LineString","coordinates":[[13.61627,52.9843],[13.61724,52.98395],[13.62088,52.98261],[13.6258,52.98084],[13.62722,52.98035],[13.62913,52.97969]]}},{"type":"Feature","properties":{"art":"pfad"},"geometry":{"type":"LineString","coordinates":[[13.64543,52.97505],[13.64514,52.97552],[13.64287,52.978],[13.64194,52.9795],[13.64145,52.98122],[13.64124,52.9819],[13.6408,52.98325],[13.6406,52.98445],[13.64059,52.98564],[13.64034,52.98629],[13.64025,52.98776],[13.64042,52.98927],[13.64023,52.98961],[13.63988,52.98988]]}},{"type":"Feature","properties":{"art":"weg"},"geometry":{"type":"LineString","coordinates":[[13.62608,52.98432],[13.62384,52.9848],[13.62204,52.9852],[13.61597,52.98648],[13.61135,52.98738],[13.61058,52.98753]]}},{"type":"Feature","properties":{"art":"weg"},"geometry":{"type":"LineString","coordinates":[[13.62159,52.9837],[13.62204,52.9852],[13.62268,52.98746],[13.62325,52.98946],[13.6234,52.98959],[13.62383,52.99155]]}},{"type":"Feature","properties":{"art":"weg"},"geometry":{"type":"LineString","coordinates":[[13.61652,52.98857],[13.62268,52.98746]]}},{"type":"Feature","properties":{"art":"weg"},"geometry":{"type":"LineString","coordinates":[[13.6234,52.98959],[13.62925,52.98843],[13.63561,52.9871],[13.63896,52.98758],[13.64025,52.98776]]}},{"type":"Feature","properties":{"art":"weg"},"geometry":{"type":"LineString","coordinates":[[13.6373,52.99388],[13.63667,52.99154],[13.63637,52.99041],[13.63561,52.9871]]}},{"type":"Feature","properties":{"art":"weg"},"geometry":{"type":"LineString","coordinates":[[13.66467,52.98828],[13.66186,52.98807],[13.66147,52.9881],[13.66043,52.98851],[13.65938,52.98886],[13.65853,52.98892],[13.65805,52.98884],[13.65766,52.9888],[13.6574,52.98878],[13.65694,52.98882],[13.65658,52.98886],[13.65569,52.98887],[13.65542,52.98889],[13.6537,52.98902],[13.65253,52.98907],[13.65092,52.98897],[13.64901,52.98914],[13.64891,52.98907],[13.64694,52.98907],[13.64568,52.98911],[13.64369,52.98917],[13.64307,52.98929],[13.64254,52.98938],[13.64111,52.98967],[13.64054,52.98978],[13.63988,52.98988],[13.63975,52.99001],[13.63934,52.9902],[13.63821,52.99025],[13.63637,52.99041],[13.63301,52.99073],[13.62994,52.99098],[13.62383,52.99155],[13.61747,52.99215],[13.6112,52.99271],[13.61052,52.99279],[13.60883,52.99293],[13.60756,52.99303],[13.60583,52.9932]]}},{"type":"Feature","properties":{"art":"weg"},"geometry":{"type":"LineString","coordinates":[[13.65001,52.99726],[13.64042,52.99403],[13.63836,52.99367],[13.6373,52.99388],[13.63112,52.99513],[13.62299,52.9967],[13.622,52.99656],[13.62009,52.99585],[13.6184,52.99563],[13.61747,52.99215],[13.61652,52.98857],[13.61597,52.98648],[13.61544,52.98448]]}},{"type":"Feature","properties":{"art":"weg"},"geometry":{"type":"LineString","coordinates":[[13.65398,52.9835],[13.65354,52.98375],[13.65308,52.98384],[13.65271,52.98388],[13.65239,52.98395],[13.65231,52.98408],[13.65228,52.98436],[13.65272,52.98451],[13.65304,52.98467],[13.65348,52.98485],[13.65391,52.98509],[13.65421,52.98528],[13.65456,52.98537],[13.6548,52.9854],[13.65521,52.98536],[13.65582,52.98522],[13.65613,52.9851],[13.6566,52.98494],[13.65703,52.98482],[13.65766,52.98447],[13.65779,52.98438],[13.65794,52.98428],[13.65825,52.98413]]}},{"type":"Feature","properties":{"art":"pfad"},"geometry":{"type":"LineString","coordinates":[[13.64059,52.98564],[13.64171,52.98581],[13.64222,52.9858],[13.64316,52.98562],[13.64425,52.98538],[13.64695,52.9848],[13.64781,52.98467],[13.64894,52.9846],[13.65053,52.98475],[13.65246,52.98494],[13.65421,52.98528]]}},{"type":"Feature","properties":{"art":"weg"},"geometry":{"type":"LineString","coordinates":[[13.65694,52.98882],[13.65643,52.98872],[13.65597,52.9886],[13.65561,52.98838],[13.65541,52.9882],[13.65515,52.98778],[13.65456,52.98537]]}},{"type":"Feature","properties":{"art":"pfad"},"geometry":{"type":"LineString","coordinates":[[13.65766,52.9888],[13.65777,52.98899],[13.65787,52.98914],[13.658,52.98929],[13.6581,52.98945],[13.65816,52.98963],[13.65826,52.98975],[13.65834,52.98986],[13.65842,52.98993],[13.65857,52.98999],[13.6591,52.9901],[13.65954,52.99006],[13.65993,52.99007],[13.6608,52.99026],[13.66105,52.99029],[13.66147,52.99035],[13.66202,52.99042],[13.66232,52.99051],[13.66268,52.99065],[13.6632,52.99081],[13.66376,52.99088],[13.66422,52.99096],[13.66448,52.991],[13.66467,52.99103]]}},{"type":"Feature","properties":{"art":"pfad"},"geometry":{"type":"LineString","coordinates":[[13.65834,52.98986],[13.65828,52.99011],[13.65802,52.99035],[13.65755,52.99055],[13.65645,52.99082],[13.65602,52.99087],[13.65557,52.99091]]}},{"type":"Feature","properties":{"art":"pfad"},"geometry":{"type":"LineString","coordinates":[[13.6511,52.99124],[13.65157,52.99124],[13.65184,52.99129],[13.65236,52.99125],[13.65303,52.9913],[13.65367,52.99136],[13.6547,52.99117],[13.65557,52.99091]]}},{"type":"Feature","properties":{"art":"pfad"},"geometry":{"type":"LineString","coordinates":[[13.65134,52.99175],[13.65116,52.99143],[13.6511,52.99124],[13.65105,52.99109]]}},{"type":"Feature","properties":{"art":"pfad"},"geometry":{"type":"LineString","coordinates":[[13.64024,52.99301],[13.64139,52.99297],[13.64189,52.993],[13.64208,52.99303],[13.64244,52.99303],[13.64412,52.99259],[13.64563,52.99234],[13.65026,52.99142],[13.65063,52.9914],[13.65116,52.99143],[13.65225,52.99169],[13.65297,52.99182],[13.65477,52.99189],[13.65629,52.99194],[13.65706,52.99199],[13.65729,52.99221],[13.65836,52.9927],[13.65912,52.99299],[13.66002,52.99324],[13.6608,52.99342],[13.66131,52.99348],[13.66163,52.99347],[13.663,52.99328],[13.66338,52.99328],[13.66412,52.99338],[13.66553,52.99336]]}},{"type":"Feature","properties":{"art":"weg"},"geometry":{"type":"LineString","coordinates":[[13.63218,52.99891],[13.63851,52.99833],[13.64471,52.99775],[13.65001,52.99726],[13.65113,52.99715],[13.65693,52.99658],[13.66342,52.99599]]}},{"type":"Feature","properties":{"art":"pfad"},"geometry":{"type":"LineString","coordinates":[[13.65001,52.99726],[13.65157,52.9976],[13.6554,52.99785]]}},{"type":"Feature","properties":{"art":"pfad"},"geometry":{"type":"LineString","coordinates":[[13.6112,52.99271],[13.61087,52.99278],[13.61016,52.99294],[13.6082,52.99365],[13.60772,52.99398],[13.60679,52.99482],[13.60614,52.99528],[13.60434,52.99572],[13.60402,52.99581],[13.60359,52.99593]]}},{"type":"Feature","properties":{"art":"pfad"},"geometry":{"type":"LineString","coordinates":[[13.6075,52.99646],[13.60402,52.99594],[13.60359,52.99593]]}},{"type":"Feature","properties":{"art":"strasse"},"geometry":{"type":"LineString","coordinates":[[13.59404,52.99396],[13.59424,52.99396],[13.59442,52.99398],[13.5955,52.99482],[13.59615,52.99527],[13.59651,52.99548],[13.59672,52.99558],[13.59682,52.99562],[13.5972,52.99574],[13.5977,52.99582],[13.59806,52.99589],[13.59838,52.99598],[13.59866,52.99612],[13.59911,52.99645],[13.59944,52.99669],[13.59992,52.99692],[13.60081,52.99724],[13.60121,52.99736],[13.6024,52.99763],[13.60389,52.9978],[13.60544,52.99784],[13.61061,52.99838],[13.61271,52.99857],[13.61312,52.99863],[13.61376,52.99882],[13.6184,53.00036],[13.61956,53.00076],[13.62014,53.00107],[13.62062,53.00122],[13.62094,53.00132],[13.62183,53.00148],[13.62283,53.00163],[13.62428,53.00183],[13.62472,53.00195],[13.62598,53.00236],[13.6264,53.00248],[13.6266,53.00249]]}},{"type":"Feature","properties":{"art":"pfad"},"geometry":{"type":"LineString","coordinates":[[13.60298,52.99808],[13.60272,52.99828]]}},{"type":"Feature","properties":{"art":"pfad"},"geometry":{"type":"LineString","coordinates":[[13.61295,52.99946],[13.61271,52.99857]]}},{"type":"Feature","properties":{"art":"pfad"},"geometry":{"type":"LineString","coordinates":[[13.60938,53.00123],[13.60907,53.00145],[13.60908,53.00151]]}},{"type":"Feature","properties":{"art":"pfad"},"geometry":{"type":"LineString","coordinates":[[13.60907,53.00145],[13.60888,53.00131]]}},{"type":"Feature","properties":{"art":"pfad"},"geometry":{"type":"LineString","coordinates":[[13.63975,52.99001],[13.64016,52.99022],[13.64062,52.99043],[13.64085,52.99058],[13.64099,52.99084],[13.64105,52.99129],[13.64121,52.99166],[13.64125,52.99185],[13.6412,52.99213],[13.6409,52.99254],[13.64024,52.99301],[13.63927,52.99337],[13.63836,52.99367]]}},{"type":"Feature","properties":{"art":"pfad"},"geometry":{"type":"LineString","coordinates":[[13.64189,52.993],[13.64175,52.99293],[13.64163,52.99264],[13.64149,52.99229],[13.64125,52.99185]]}},{"type":"Feature","properties":{"art":"pfad"},"geometry":{"type":"LineString","coordinates":[[13.62994,52.99098],[13.63112,52.99513],[13.63218,52.99891]]}},{"type":"Feature","properties":{"art":"pfad"},"geometry":{"type":"LineString","coordinates":[[13.62353,53.0032],[13.62327,53.00318],[13.62171,53.00284],[13.62078,53.00269],[13.6199,53.00192],[13.61802,53.00075],[13.61716,53.00047],[13.61582,52.99984],[13.61518,52.99977],[13.61375,52.99931],[13.61295,52.99946],[13.61281,52.99963],[13.61141,53.00017],[13.61015,53.00121],[13.60938,53.00123],[13.60905,53.00101],[13.6092,53.00052],[13.60917,53.00018],[13.60893,52.99953],[13.60762,52.99849],[13.60589,52.99825],[13.60497,52.99836],[13.60403,52.99841],[13.60309,52.99813],[13.60298,52.99808],[13.60213,52.99772],[13.60127,52.99752],[13.60018,52.99709],[13.59968,52.99693],[13.59944,52.99669]]}},{"type":"Feature","properties":{"art":"weg"},"geometry":{"type":"LineString","coordinates":[[13.62283,53.00163],[13.62289,53.00236],[13.62299,53.00283],[13.62327,53.00318]]}},{"type":"Feature","properties":{"art":"weg"},"geometry":{"type":"LineString","coordinates":[[13.62739,53.00241],[13.62732,53.00248],[13.62727,53.00264],[13.62729,53.00271]]}},{"type":"Feature","properties":{"art":"strasse"},"geometry":{"type":"LineString","coordinates":[[13.62804,53.00339],[13.62782,53.00301],[13.62766,53.00288],[13.62729,53.00271],[13.6266,53.00249]]}},{"type":"Feature","properties":{"art":"weg"},"geometry":{"type":"LineString","coordinates":[[13.6266,53.00249],[13.62739,53.00241],[13.63144,53.00203],[13.63273,53.00191],[13.64576,53.0007],[13.64733,53.00071],[13.65049,53.00074],[13.65245,53.00034],[13.6554,52.99785],[13.65675,52.99741],[13.66054,52.99649],[13.66342,52.99599],[13.66716,52.99564],[13.66988,52.99486],[13.67029,52.99475],[13.67177,52.99463],[13.6749,52.99449],[13.67644,52.99442]]}},{"type":"Feature","properties":{"art":"weg"},"geometry":{"type":"LineString","coordinates":[[13.65675,52.99741],[13.65621,52.99833],[13.6559,52.99926],[13.6558,53.00019],[13.65573,53.00081]]}},{"type":"Feature","properties":{"art":"pfad"},"geometry":{"type":"LineString","coordinates":[[13.65245,53.00034],[13.65318,53.00039],[13.65513,53.00019],[13.6558,53.00019],[13.65701,53.00018],[13.65833,53.00046],[13.6586,53.00054],[13.65916,53.00054],[13.66046,53.00027],[13.66184,52.9999],[13.66378,53.00035],[13.66447,53.00091],[13.6666,53.00101],[13.67572,53.00098]]}},{"type":"Feature","properties":{"art":"pfad"},"geometry":{"type":"LineString","coordinates":[[13.64733,53.00071],[13.64707,53.0012]]}},{"type":"Feature","properties":{"art":"weg"},"geometry":{"type":"LineString","coordinates":[[13.63144,53.00203],[13.6315,53.00219],[13.63149,53.00231],[13.63144,53.00238],[13.63143,53.00248],[13.63149,53.00258],[13.63166,53.00265],[13.63188,53.0027],[13.63227,53.00276],[13.63263,53.00283]]}},{"type":"Feature","properties":{"art":"weg"},"geometry":{"type":"LineString","coordinates":[[13.64074,53.00291],[13.64074,53.00291],[13.64176,53.00267],[13.64229,53.00252]]}},{"type":"Feature","properties":{"art":"weg"},"geometry":{"type":"LineString","coordinates":[[13.65573,53.00081],[13.65568,53.00128]]}},{"type":"Feature","properties":{"art":"weg"},"geometry":{"type":"LineString","coordinates":[[13.67576,53.03702],[13.67629,53.03719]]}},{"type":"Feature","properties":{"art":"pfad"},"geometry":{"type":"LineString","coordinates":[[13.67659,53.03707],[13.67652,53.03726],[13.67643,53.03737],[13.67637,53.03741]]}},{"type":"Feature","properties":{"art":"strasse"},"geometry":{"type":"LineString","coordinates":[[13.67605,53.03733],[13.67617,53.03725],[13.67629,53.03719],[13.67659,53.03707]]}},{"type":"Feature","properties":{"art":"weg"},"geometry":{"type":"LineString","coordinates":[[13.51977,52.92517],[13.51964,52.92579],[13.5192,52.92825],[13.51897,52.92947],[13.51878,52.93049],[13.5188,52.93079],[13.51998,52.93509],[13.52109,52.93918],[13.52179,52.94177],[13.52216,52.9431],[13.52275,52.94528],[13.52279,52.94543],[13.52355,52.94866],[13.52407,52.95086],[13.52562,52.95702],[13.52621,52.95948],[13.52634,52.96002],[13.52651,52.96069],[13.52663,52.96114],[13.52668,52.96131],[13.52698,52.96167],[13.52814,52.96268],[13.5293,52.96343],[13.52977,52.96376],[13.53024,52.96426],[13.53027,52.96479],[13.53036,52.96686],[13.53062,52.97007],[13.53065,52.97046],[13.53067,52.97191],[13.53045,52.9724],[13.53021,52.97277],[13.52481,52.98147],[13.52345,52.98367],[13.52307,52.98427],[13.52143,52.98692]]}},{"type":"Feature","properties":{"art":"pfad"},"geometry":{"type":"LineString","coordinates":[[13.53065,52.97046],[13.53045,52.97037],[13.53031,52.97029],[13.53019,52.97019],[13.53008,52.97009],[13.53002,52.96992],[13.53003,52.96969],[13.52998,52.96943],[13.52988,52.96921],[13.52977,52.96906],[13.52963,52.96893],[13.52958,52.9688],[13.52957,52.96865],[13.52965,52.96848],[13.52983,52.96811],[13.52992,52.96782],[13.53001,52.96753],[13.53019,52.9672],[13.53036,52.96686]]}},{"type":"Feature","properties":{"art":"pfad"},"geometry":{"type":"LineString","coordinates":[[13.51949,52.97168],[13.51933,52.97113],[13.51919,52.97065],[13.51902,52.96979],[13.51885,52.96903],[13.51883,52.96879],[13.5187,52.9682]]}},{"type":"Feature","properties":{"art":"pfad"},"geometry":{"type":"LineString","coordinates":[[13.53021,52.97277],[13.52863,52.97297],[13.52735,52.97306],[13.52604,52.97415],[13.52473,52.97473],[13.52296,52.97503],[13.52127,52.97532],[13.52021,52.97534],[13.51965,52.97518],[13.51938,52.97523]]}},{"type":"Feature","properties":{"art":"pfad"},"geometry":{"type":"LineString","coordinates":[[13.52296,52.97503],[13.52298,52.97475],[13.52279,52.97454],[13.52225,52.97414]]}},{"type":"Feature","properties":{"art":"pfad"},"geometry":{"type":"LineString","coordinates":[[13.51802,52.97389],[13.51813,52.97414],[13.51875,52.97477],[13.51902,52.97499],[13.51938,52.97523],[13.5194,52.97528],[13.51957,52.97541],[13.51982,52.97553],[13.51989,52.97556],[13.52,52.97569],[13.52036,52.97658],[13.52206,52.98177],[13.52291,52.98285],[13.52276,52.98336],[13.5228,52.98373],[13.52307,52.98427]]}},{"type":"Feature","properties":{"art":"pfad"},"geometry":{"type":"LineString","coordinates":[[13.51573,52.98243],[13.5197,52.982],[13.51982,52.98207],[13.52,52.98224],[13.52022,52.98242],[13.5204,52.98248],[13.52075,52.98245],[13.521,52.9824],[13.52117,52.98223],[13.52131,52.98204],[13.52206,52.98177],[13.52481,52.98147]]}},{"type":"Feature","properties":{"art":"weg"},"geometry":{"type":"LineString","coordinates":[[13.52307,52.98427],[13.52331,52.98482],[13.52373,52.98536],[13.52419,52.9862],[13.52438,52.98667],[13.52442,52.98678]]}},{"type":"Feature","properties":{"art":"weg"},"geometry":{"type":"LineString","coordinates":[[13.52533,52.98723],[13.52543,52.98821],[13.52544,52.98844]]}},{"type":"Feature","properties":{"art":"weg"},"geometry":{"type":"LineString","coordinates":[[13.51974,52.98812],[13.52043,52.98837]]}},{"type":"Feature","properties":{"art":"weg"},"geometry":{"type":"LineString","coordinates":[[13.50918,52.95912],[13.5099,52.96214],[13.51088,52.96627],[13.51154,52.96901],[13.51281,52.97437],[13.51351,52.97509]]}},{"type":"Feature","properties":{"art":"pfad"},"geometry":{"type":"LineString","coordinates":[[13.51802,52.97389],[13.51805,52.97377],[13.51803,52.97172]]}},{"type":"Feature","properties":{"art":"pfad"},"geometry":{"type":"LineString","coordinates":[[13.51281,52.97437],[13.5178,52.97395],[13.51802,52.97389]]}},{"type":"Feature","properties":{"art":"weg"},"geometry":{"type":"LineString","coordinates":[[13.51476,52.97939],[13.51358,52.97513],[13.51351,52.97509],[13.51335,52.975],[13.51242,52.97461],[13.50031,52.97006],[13.49741,52.96897],[13.49725,52.96891],[13.49689,52.96875]]}},{"type":"Feature","properties":{"art":"pfad"},"geometry":{"type":"LineString","coordinates":[[13.51397,52.97928],[13.5141,52.97932],[13.51447,52.97939],[13.51476,52.97939]]}},{"type":"Feature","properties":{"art":"weg"},"geometry":{"type":"LineString","coordinates":[[13.51476,52.97939],[13.51573,52.98243],[13.51632,52.98426]]}},{"type":"Feature","properties":{"art":"weg"},"geometry":{"type":"LineString","coordinates":[[13.51545,52.98405],[13.51632,52.98426],[13.5172,52.98677],[13.51766,52.98733],[13.51799,52.9875],[13.5187,52.98773],[13.51974,52.98812]]}},{"type":"Feature","properties":{"art":"pfad"},"geometry":{"type":"LineString","coordinates":[[13.53597,52.96928],[13.53062,52.97007]]}},{"type":"Feature","properties":{"art":"pfad"},"geometry":{"type":"LineString","coordinates":[[13.53986,52.98438],[13.54033,52.98397],[13.54041,52.98379],[13.5404,52.98359],[13.54013,52.98333],[13.53993,52.9831],[13.53989,52.98285],[13.53928,52.98212],[13.53903,52.98179],[13.53884,52.98128],[13.53857,52.9801],[13.53731,52.97477],[13.53671,52.97222],[13.53668,52.97213],[13.53597,52.96928],[13.53476,52.96438]]}},{"type":"Feature","properties":{"art":"pfad"},"geometry":{"type":"LineString","coordinates":[[13.53377,52.98052],[13.53135,52.97267]]}},{"type":"Feature","properties":{"art":"pfad"},"geometry":{"type":"LineString","coordinates":[[13.52481,52.98147],[13.52622,52.98131],[13.52929,52.98092],[13.53053,52.98075],[13.53117,52.98055],[13.53194,52.98055],[13.53263,52.98057],[13.53358,52.98054],[13.53377,52.98052],[13.53489,52.98041]]}},{"type":"Feature","properties":{"art":"pfad"},"geometry":{"type":"LineString","coordinates":[[13.52373,52.98536],[13.52471,52.98576],[13.52528,52.986],[13.52645,52.98622],[13.52791,52.98639],[13.52869,52.9864],[13.5297,52.98629],[13.53016,52.98614],[13.53072,52.98601],[13.53192,52.98591],[13.53221,52.98587],[13.53289,52.98571],[13.53364,52.98548],[13.53445,52.98527],[13.53532,52.98491],[13.53568,52.98484],[13.53669,52.98471],[13.5372,52.9847],[13.53784,52.98457],[13.53826,52.98454],[13.53986,52.98438]]}},{"type":"Feature","properties":{"art":"weg"},"geometry":{"type":"LineString","coordinates":[[13.52595,52.98765],[13.52723,52.9877],[13.5289,52.98766],[13.53052,52.98762],[13.53213,52.98772],[13.53706,52.98724],[13.53742,52.98724],[13.53788,52.98742],[13.5384,52.98784],[13.53863,52.98799],[13.53892,52.9881],[13.53939,52.98825],[13.54006,52.98829],[13.54051,52.9883]]}},{"type":"Feature","properties":{"art":"pfad"},"geometry":{"type":"LineString","coordinates":[[13.54665,52.98978],[13.54601,52.98969],[13.54401,52.98932],[13.54268,52.98916],[13.5422,52.98907],[13.5405,52.9888],[13.53959,52.9889],[13.53695,52.98897],[13.53643,52.98909],[13.53573,52.98919],[13.53194,52.98941],[13.53015,52.98964],[13.52982,52.98964],[13.52871,52.98943],[13.5285,52.98937],[13.52824,52.98925],[13.5267,52.98833],[13.52623,52.98784],[13.52595,52.98765],[13.52533,52.98723],[13.52526,52.98719],[13.52472,52.9869],[13.52442,52.98678],[13.52434,52.98674],[13.52391,52.98664],[13.52342,52.9866],[13.52275,52.98661],[13.5223,52.98665],[13.52185,52.98678],[13.52143,52.98692]]}},{"type":"Feature","properties":{"art":"pfad"},"geometry":{"type":"LineString","coordinates":[[13.53668,52.98956],[13.53659,52.98928],[13.53637,52.9892],[13.53593,52.98922],[13.53573,52.98919]]}},{"type":"Feature","properties":{"art":"pfad"},"geometry":{"type":"LineString","coordinates":[[13.5232,52.9882],[13.52297,52.98808],[13.52281,52.98802],[13.52264,52.98799],[13.52242,52.98799],[13.52219,52.98801],[13.52202,52.98806],[13.52185,52.98813],[13.52173,52.98821],[13.52162,52.98829]]}},{"type":"Feature","properties":{"art":"pfad"},"geometry":{"type":"LineString","coordinates":[[13.52543,52.98821],[13.52492,52.98846],[13.52464,52.98866],[13.52431,52.9887],[13.52423,52.98871]]}},{"type":"Feature","properties":{"art":"weg"},"geometry":{"type":"LineString","coordinates":[[13.52544,52.98844],[13.52547,52.98859]]}},{"type":"Feature","properties":{"art":"weg"},"geometry":{"type":"LineString","coordinates":[[13.52547,52.98859],[13.52574,52.98886]]}},{"type":"Feature","properties":{"art":"strasse"},"geometry":{"type":"LineString","coordinates":[[13.52143,52.98692],[13.52093,52.98772],[13.52076,52.988],[13.52075,52.9884]]}},{"type":"Feature","properties":{"art":"pfad"},"geometry":{"type":"LineString","coordinates":[[13.52951,52.9904],[13.52946,52.99039],[13.52852,52.99033],[13.52767,52.99014],[13.52684,52.98994],[13.52589,52.98977],[13.52549,52.98962],[13.5251,52.98949],[13.52493,52.9894]]}},{"type":"Feature","properties":{"art":"weg"},"geometry":{"type":"LineString","coordinates":[[13.52063,52.98846],[13.5206,52.98844],[13.52043,52.98837],[13.52023,52.98833],[13.52011,52.98834],[13.51981,52.98836],[13.5196,52.98837],[13.51915,52.98842],[13.51845,52.98849],[13.51768,52.98851],[13.51734,52.98853],[13.51702,52.98854],[13.51684,52.98855]]}},{"type":"Feature","properties":{"art":"weg"},"geometry":{"type":"LineString","coordinates":[[13.51734,52.98853],[13.51717,52.98866],[13.51732,52.98887]]}},{"type":"Feature","properties":{"art":"strasse"},"geometry":{"type":"LineString","coordinates":[[13.54459,52.92347],[13.54625,52.92599],[13.55052,52.93241],[13.55191,52.93451],[13.55216,52.93489],[13.55329,52.9366],[13.55483,52.93889],[13.5549,52.93898],[13.55539,52.93972],[13.55563,52.94002],[13.55593,52.94036],[13.55743,52.94178],[13.55781,52.9422],[13.55809,52.94255],[13.55829,52.94287],[13.55847,52.94323],[13.55859,52.94357],[13.55894,52.94476],[13.55908,52.94516],[13.55924,52.94546],[13.56184,52.94935],[13.56209,52.94973],[13.5646,52.95356],[13.56968,52.96112],[13.57059,52.96248],[13.57082,52.96282],[13.57475,52.9687],[13.5798,52.97623],[13.58081,52.97775]]}},{"type":"Feature","properties":{"art":"pfad"},"geometry":{"type":"LineString","coordinates":[[13.56822,52.97741],[13.56836,52.97725],[13.56854,52.97705],[13.56869,52.97694],[13.56894,52.97686],[13.56901,52.97683],[13.56906,52.97679],[13.56909,52.97673],[13.56909,52.97671],[13.56908,52.97666],[13.56904,52.9766],[13.56902,52.97657],[13.56888,52.97652],[13.56853,52.97646],[13.56823,52.97643],[13.56797,52.97638],[13.56774,52.9763],[13.56756,52.97612],[13.56747,52.97598],[13.56743,52.97582],[13.56749,52.97566],[13.56756,52.97545],[13.56752,52.97526],[13.56599,52.96949],[13.56453,52.96385],[13.56404,52.96167],[13.56304,52.95798],[13.5621,52.95378]]}},{"type":"Feature","properties":{"art":"pfad"},"geometry":{"type":"LineString","coordinates":[[13.56822,52.97741],[13.56817,52.97763],[13.56844,52.97856],[13.56852,52.97886],[13.5688,52.97918],[13.56905,52.97943],[13.56912,52.97955],[13.56909,52.97967],[13.56888,52.97991],[13.56885,52.98008],[13.56933,52.98206],[13.57041,52.9858],[13.57088,52.98764]]}},{"type":"Feature","properties":{"art":"weg"},"geometry":{"type":"LineString","coordinates":[[13.54727,52.98719],[13.54702,52.98625],[13.55662,52.98538],[13.55703,52.98534],[13.55773,52.98547],[13.56002,52.98589],[13.56471,52.98665],[13.56491,52.98668],[13.57031,52.98754],[13.57088,52.98764],[13.57324,52.98809],[13.57373,52.98817],[13.57401,52.98825],[13.57517,52.98889],[13.57571,52.9892],[13.576,52.98929],[13.5763,52.98931],[13.57833,52.9892],[13.57938,52.98889],[13.58027,52.9888],[13.58099,52.98869],[13.58193,52.98833],[13.58218,52.98818],[13.58246,52.988],[13.58293,52.98773],[13.58342,52.9872],[13.58364,52.98704],[13.58471,52.98664],[13.58562,52.98629],[13.58615,52.98612],[13.58641,52.98603]]}},{"type":"Feature","properties":{"art":"pfad"},"geometry":{"type":"LineString","coordinates":[[13.56491,52.98668],[13.56578,52.98959]]}},{"type":"Feature","properties":{"art":"pfad"},"geometry":{"type":"LineString","coordinates":[[13.57088,52.98764],[13.57122,52.9889]]}},{"type":"Feature","properties":{"art":"pfad"},"geometry":{"type":"LineString","coordinates":[[13.56352,52.98931],[13.56359,52.98944],[13.56351,52.98958],[13.56342,52.98965],[13.56344,52.98977],[13.56345,52.9898]]}},{"type":"Feature","properties":{"art":"pfad"},"geometry":{"type":"LineString","coordinates":[[13.56,52.98895],[13.56233,52.98923],[13.56352,52.98931],[13.56467,52.98937],[13.56578,52.98959],[13.56696,52.98981],[13.56788,52.99012],[13.56819,52.99047],[13.56831,52.99092]]}},{"type":"Feature","properties":{"art":"pfad"},"geometry":{"type":"LineString","coordinates":[[13.55454,52.94584],[13.55668,52.95426],[13.55769,52.95844],[13.55859,52.96219],[13.55926,52.96493],[13.56051,52.96998],[13.56104,52.97213],[13.56193,52.97576]]}},{"type":"Feature","properties":{"art":"pfad"},"geometry":{"type":"LineString","coordinates":[[13.5494,52.94626],[13.55125,52.95475],[13.55219,52.95893],[13.55305,52.96273],[13.554,52.96632],[13.55432,52.96787],[13.55504,52.97048],[13.55598,52.97377],[13.55601,52.97388],[13.55688,52.97694],[13.55711,52.97793],[13.55709,52.97843]]}},{"type":"Feature","properties":{"art":"weg"},"geometry":{"type":"LineString","coordinates":[[13.54342,52.97163],[13.5499,52.97099],[13.55504,52.97048],[13.55524,52.97046],[13.55635,52.97036],[13.55696,52.97014],[13.55724,52.97009],[13.5583,52.97017],[13.56051,52.96998],[13.56599,52.96949],[13.57287,52.96888],[13.57475,52.9687]]}},{"type":"Feature","properties":{"art":"pfad"},"geometry":{"type":"LineString","coordinates":[[13.55598,52.97377],[13.55721,52.97338],[13.56003,52.97249],[13.56104,52.97213]]}},{"type":"Feature","properties":{"art":"pfad"},"geometry":{"type":"LineString","coordinates":[[13.55097,52.97524],[13.5522,52.97495],[13.55306,52.97464],[13.55352,52.97454],[13.55402,52.9745],[13.55434,52.97444],[13.5547,52.97436],[13.5552,52.9742],[13.55601,52.97388]]}},{"type":"Feature","properties":{"art":"pfad"},"geometry":{"type":"LineString","coordinates":[[13.55486,52.97865],[13.55709,52.97843],[13.56822,52.97741]]}},{"type":"Feature","properties":{"art":"pfad"},"geometry":{"type":"LineString","coordinates":[[13.55777,52.98933],[13.55782,52.98923],[13.55785,52.98879]]}},{"type":"Feature","properties":{"art":"pfad"},"geometry":{"type":"LineString","coordinates":[[13.56002,52.98939],[13.55996,52.98944]]}},{"type":"Feature","properties":{"art":"pfad"},"geometry":{"type":"LineString","coordinates":[[13.57253,52.99426],[13.57225,52.99384]]}},{"type":"Feature","properties":{"art":"pfad"},"geometry":{"type":"LineString","coordinates":[[13.56181,52.9897],[13.56085,52.98957],[13.56074,52.98956]]}},{"type":"Feature","properties":{"art":"pfad"},"geometry":{"type":"LineString","coordinates":[[13.56032,52.9895],[13.56013,52.98942],[13.56002,52.98939],[13.55996,52.98937],[13.56003,52.98916],[13.56,52.98895],[13.55785,52.98879],[13.55591,52.98865],[13.55387,52.98864],[13.55265,52.98873],[13.55167,52.98896],[13.55114,52.98907],[13.55107,52.98908],[13.55043,52.98914],[13.55017,52.98917],[13.54902,52.98941],[13.54868,52.98948],[13.54793,52.9897],[13.54689,52.98976],[13.54665,52.98978],[13.546,52.98983],[13.54543,52.98997],[13.54505,52.99005],[13.54401,52.9902],[13.54361,52.99021],[13.54316,52.99024],[13.54262,52.99022],[13.54231,52.99028],[13.54185,52.99069],[13.54134,52.99109],[13.54121,52.99114],[13.54104,52.9912],[13.5402,52.99143]]}},{"type":"Feature","properties":{"art":"weg"},"geometry":{"type":"LineString","coordinates":[[13.53021,52.97277],[13.53135,52.97267],[13.53393,52.97244],[13.53623,52.97226],[13.53668,52.97213],[13.5369,52.97209],[13.53831,52.97195],[13.54053,52.97174],[13.54142,52.97162],[13.54203,52.97149],[13.54275,52.97127],[13.54332,52.97105],[13.54374,52.97091],[13.54474,52.97052],[13.54606,52.96997],[13.54723,52.96948],[13.54944,52.96848],[13.55207,52.96711],[13.554,52.96632],[13.55768,52.96525],[13.55926,52.96493],[13.56453,52.96385],[13.57015,52.96277]]}},{"type":"Feature","properties":{"art":"pfad"},"geometry":{"type":"LineString","coordinates":[[13.5454,52.9795],[13.5454,52.97916],[13.54498,52.9776],[13.54476,52.9767],[13.54421,52.97496],[13.5437,52.97277],[13.54342,52.97163],[13.54332,52.97105],[13.54331,52.97095],[13.54275,52.96881],[13.54246,52.96774],[13.54227,52.96705],[13.54176,52.96503],[13.54147,52.96378],[13.54143,52.96323],[13.54124,52.96235],[13.5406,52.95993],[13.53999,52.95719]]}},{"type":"Feature","properties":{"art":"pfad"},"geometry":{"type":"LineString","coordinates":[[13.55189,52.97888],[13.55097,52.97524],[13.55075,52.97435],[13.5499,52.97099],[13.54944,52.96848],[13.54807,52.96321]]}},{"type":"Feature","properties":{"art":"pfad"},"geometry":{"type":"LineString","coordinates":[[13.53623,52.97226],[13.53655,52.97223],[13.53671,52.97222],[13.54342,52.97163]]}},{"type":"Feature","properties":{"art":"weg"},"geometry":{"type":"LineString","coordinates":[[13.55703,52.98534],[13.55624,52.98496],[13.55532,52.98438],[13.55451,52.98376],[13.55382,52.9835],[13.55282,52.9832],[13.55237,52.983],[13.55151,52.98246],[13.55122,52.98199],[13.55093,52.98172],[13.55046,52.98154],[13.54973,52.98138],[13.54875,52.98107],[13.54823,52.98081],[13.54616,52.97997],[13.5454,52.9795],[13.54275,52.9783],[13.53942,52.97613],[13.53731,52.97477],[13.53519,52.9734],[13.53393,52.97244],[13.53229,52.97142],[13.53065,52.97046]]}},{"type":"Feature","properties":{"art":"weg"},"geometry":{"type":"LineString","coordinates":[[13.52345,52.98367],[13.52396,52.98354],[13.52459,52.98353],[13.52502,52.98345],[13.52542,52.98323],[13.52831,52.9825],[13.53028,52.98245],[13.53094,52.98231],[13.53157,52.98216],[13.53177,52.98183],[13.53251,52.9813],[13.53289,52.98119],[13.53334,52.98113],[13.5339,52.98089],[13.53489,52.98041],[13.53857,52.9801],[13.53987,52.97999],[13.5454,52.9795],[13.54836,52.97921],[13.55189,52.97888],[13.55275,52.97877],[13.55486,52.97865],[13.5568,52.97697],[13.55688,52.97694],[13.5588,52.97612],[13.56008,52.97591],[13.56193,52.97576],[13.56333,52.97565],[13.56705,52.97536],[13.56752,52.97526],[13.56793,52.97518],[13.56887,52.9748],[13.57041,52.97468],[13.57151,52.97474],[13.57269,52.97505],[13.57549,52.97616],[13.57755,52.97647],[13.5798,52.97623]]}},{"type":"Feature","properties":{"art":"pfad"},"geometry":{"type":"LineString","coordinates":[[13.5445,52.9832],[13.54496,52.9832],[13.54555,52.98326],[13.5458,52.98331],[13.54607,52.98324],[13.54623,52.98314],[13.54626,52.98296],[13.5459,52.98148]]}},{"type":"Feature","properties":{"art":"pfad"},"geometry":{"type":"LineString","coordinates":[[13.54702,52.98625],[13.54688,52.98554],[13.5468,52.98531],[13.54674,52.98523],[13.54659,52.98512],[13.54645,52.98507],[13.54626,52.98502],[13.54595,52.98497],[13.54533,52.98483],[13.54513,52.98478],[13.54496,52.9847],[13.54456,52.98458],[13.54439,52.9845],[13.54426,52.98438],[13.54419,52.98408],[13.54416,52.9838],[13.54419,52.98371],[13.5442,52.98358],[13.54443,52.98325],[13.54446,52.98321],[13.5445,52.9832],[13.54483,52.98277],[13.54511,52.98245],[13.54535,52.98207],[13.54564,52.98169],[13.54571,52.9816],[13.5459,52.98148],[13.5454,52.9795]]}},{"type":"Feature","properties":{"art":"pfad"},"geometry":{"type":"LineString","coordinates":[[13.53986,52.98438],[13.53968,52.98477],[13.53973,52.98512],[13.54014,52.98697],[13.54035,52.98762],[13.54051,52.9883],[13.54055,52.98849],[13.5406,52.98868],[13.5405,52.9888]]}},{"type":"Feature","properties":{"art":"weg"},"geometry":{"type":"LineString","coordinates":[[13.54055,52.98849],[13.54284,52.98825],[13.54384,52.98816],[13.54434,52.98801],[13.54479,52.98781],[13.54516,52.98763],[13.54535,52.98752],[13.54571,52.98743],[13.54624,52.98734],[13.54727,52.98719]]}},{"type":"Feature","properties":{"art":"pfad"},"geometry":{"type":"LineString","coordinates":[[13.54902,52.98941],[13.54849,52.98924],[13.54845,52.98911],[13.54831,52.98901],[13.54804,52.98895],[13.54788,52.98889],[13.54781,52.98844],[13.54756,52.98823],[13.54727,52.98719]]}},{"type":"Feature","properties":{"art":"pfad"},"geometry":{"type":"LineString","coordinates":[[13.55037,52.98865],[13.55044,52.98888],[13.55043,52.98901],[13.55041,52.98905],[13.55042,52.98908],[13.55043,52.98914]]}},{"type":"Feature","properties":{"art":"pfad"},"geometry":{"type":"LineString","coordinates":[[13.55088,52.98954],[13.55095,52.9894],[13.55114,52.98907]]}}]}